code,name,street,zip,city,country,website,logo_url,sortOrder
0001,1. Dampfbierbrauerei Zwiesel,Regenerstraße 9,D-94227,Zwiesel,Deutschland,http://www.dampfbier.de,,10
0002,A Zwack Unicum Nyrt.,Soroksári út 26.,HU-1095,Budapest,Ungarn,http://www.zwackunicum.hu,,10
0003,A. Dohrn & A. Timm GmbH & Co. KG,Birkholzer Straße 1,D-15831,Diedersdorf,Deutschland,http://www.dohrn-und-timm.de,,10
0004,A.& S. Klein GmbH & Co. KG,Grinzinger Allee 16,A-1190,Wien,Österreich,http://www.almdudler.com,,10
0005,Aalener Löwenbräu,Galgenbergstraße 8,D-73431,Aalen,Deutschland,http://www.aalener.com,,10
0006,Abbaye Notre Dame de Leffe,Place de l'Abbaye 1,BES-5500,Dinant,Belgien,http://www.abbaye-de-leffe.be,,10
0007,Abdij Onze Lieve Vrouw van Koningshoeven,Eindhovenseweg 3,NL-5056,RP Berkel-Enschot,Niederlande,http://www.koningshoeven.nl,,10
0008,Abt Castus GmbH,Ovelgönne 4,D-49429,Visbek,Deutschland,,,10
0009,Abtshof Magdeburg GmbH,Brauereistraße 2,D-39104,Magdeburg,Deutschland,http://www.abtshof.de,,10
0010,ACHT GRAD plus GmbH,Ten-Brink-Straße 14,D-78269,Volkertshausen,Deutschland,http://www.achtgradplus.de,,10
0011,Adelholzener Alpenquellen GmbH,St.-Primus-Straße 1-5,D-83313,Siegsdorf,Deutschland,http://www.adelholzener.de,,10
0012,Adlerbrauerei Herbert Werner,Hoffenheimer Straße 1,D-74939,Zuzenhausen,Deutschland,,,10
0013,ADM WILD Europe GmbH & Co. KG,Rudolf-Wild-Straße 107-115,D-69214,Heidelberg/Eppelheim,Deutschland,http://www.wildflavors.com,,10
0014,Affentaler Winzergenosssenschaft e.G.,Widenmayerstraße 18,D-80538,München,Deutschland,http://www.wirwinzer.deweinregionen,,10
0015,Aktienbrauerei Kaufbeuren AG,Hohe Buchleuthe 3,D-87600,Kaufbeuren,Deutschland,http://www.aktienbrauerei.de,,10
0016,Alaska Getränke GmbH & Co. KG,Marktpl. 6,D-86441,Zusmarshausen,Deutschland,http://www.alaska.de,,10
0017,Albert Mayer Mayer Fruchtsäfte,Uhlbacher Straße 196,D-70329,Stuttgart,Deutschland,http://www.mayersaft.de,,10
0018,Albi GmbH & Co.,Ulmer Straße 15,D-89180,Berghülen-Bühlenhausen,Deutschland,http://www.albi.de,,10
0019,Alde Gott Winzer Schwarzwald eG / Alde Gott Edelbrände Schwarzwald eG,Talstraße 2,D-77887,Sasbachwalden,Deutschland,http://www.aldegott.de,,10
0020,Alfred Schladerer Alte Schwarzwälder Hausbrennerei GmbH,Alfred-Schladerer-Platz 1,D-79219,Staufen,Deutschland,http://www.schladerer.de,,10
0021,allfra Regionalmarkt Franken GmbH,Schulstraße 19,D-91749,Wittelshofen,Deutschland,http://www.hesselberger.com,,10
0022,Allgäuer Alpenwasser GmbH,Salzstraße 52,D-87534,Oberstaufen,Deutschland,http://www.allgaeuer-alpenwasser.de,,10
0023,Allgäuer Brauhaus AG,Beethovenstraße 7,D-87435,Kempten,Deutschland,http://www.allgaeuer-brauhaus.de,,10
0024,Alpirsbacher Klosterbräu Glauner GmbH & Co. KG,Marktplatz 1,D-72275,Alpirsbach,Deutschland,http://www.alpirsbacher.de,,10
0025,Alte Hausbrennerei Penninger GmbH,Industriestraße 18,D-94051,Hauzenberg,Deutschland,http://www.penninger.de,,10
0026,Alte Mackenstedter Kornbrennerei,Delmenhorster Straße 123,D-28816,Stuhr b. Bremen,Deutschland,http://www.mackenstedter.de,,10
0027,Altenburger Brauerei GmbH,Brauereistraße 20,D-04600,Altenburg,Deutschland,http://www.brauerei-altenburg.de,,10
0028,Altenmünster Brauer Bier GmbH,Schwendener Straße 18,D-87616,Marktoberdorf-Leuterschach,Deutschland,http://www.altenmuenster-brauerbier.de,,10
0029,Alter Dessauer Getränkevertrieb,Am Poetenwall 2,D-06842,Dessau- Mildensee,Deutschland,,,10
0030,Altmühltaler Mineralbrunnen AG,Bahnhofstraße 48,D-91757,Treuchtlingen,Deutschland,http://www.altmuehltaler.de,,10
0031,Altöttinger Hell Bräu GmbH,Herrenmühlstraße 15,D-84503,Altötting,Deutschland,http://www.hellbraeu.de,,10
0032,alwa Mineralbrunnen GmbH,Industriestraße 25,D-74372,Sersheim,Deutschland,http://www.alwa-mineralwasser.de,,10
0033,Ambex Vertriebs GmbH,Adlerfarnstraße 8 h,D-80935,München,Deutschland,http://www.rogaska.de,,10
0034,Amecke GmbH & Co. KG,Fröndenberger Straße 150,D-58706,Menden,Deutschland,http://www.amecke.de,,10
0035,Angermann Markenvertrieb GmbH,Eichberger Straße 8,D-95336,Mainleus,Deutschland,,,10
0036,Anheuser-Busch InBev Germany Holding GmbH,Am Deich 18/19,D-28166,Bremen,Deutschland,http://www.ab-inbev.de,,10
0037,Ankerbräu Nördlingen GmbH & Co. KG,Ankergasse 4,D-86720,Nördlingen,Deutschland,http://www.ankerbrau.com,,10
0038,Anna Zimmermann GmbH,Seelhorststraße 60,D-30175,Hannover,Deutschland,,,10
0039,Anton Pöllinger GmbH & Co. KG,Moosburger Straße 65,D-84076,Pfeffenhausen,Deutschland,http://www.brauerei-poellinger.de,,10
0040,Antonio Nadal,Conradors 28-30,ES-07141,Marratxí,Spanien,http://www.antonionadal.comen,,10
0041,Apollinaris & Schweppes GmbH & Co.,Landskroner Straße 175,D-53474,Bad Neuenahr-Ahrweiler,Deutschland,http://www.apollinaris.de,,10
0042,Apostelbräu,Eben 11-13,D-94051,Hauzenberg,Deutschland,http://www.apostelbraeu.de,,10
0043,Appenzeller Alpenbitter AG,Weissbadstraße 27,D-9050,Appenzell,Deutschland,http://www.appenzeller.com,,10
0044,Aqua Monaco,Zenettistraße 27,D-80337,München,Deutschland,http://www.aquamonaco.com,,10
0045,Aqua Montana Getränke Import GmbH,Herzog-Wilhelm-Straße 26,D-80331,München,Deutschland,,,10
0046,Aqua Vertriebs-GmbH,Krumbach 1,D-88353,Kißlegg,Deutschland,,,10
0047,aquaRömer GmbH & Co. KG,Boller Straße 132,D-73035,Göppingen-Jebenhausen,Deutschland,http://www.st-christophorus-heilwasser.de,,10
0048,Arcobräu Gräfliches Brauhaus GmbH & Co. KG,Schloßallee 1,D-94554,Moos,Deutschland,http://www.arcobraeu.de,,10
0049,Arcus AS,Destilleriveien 11,NO-1481,Hagan,Norwegen,http://www.arcus.no,,10
0050,ARDEY QUELLE GmbH & Co. KG,Flautweg 4,D-44329,Dortmund,Deutschland,http://www.ardey-quelle.de,,10
0051,Arne Import GmbH,Auf dem Streek 4,D-27753,Delmenhorst,Deutschland,http://www.philipp-koch.com,,10
0052,Artland Brauerei,Hallerstraße 4,D-49638,Nortrup,Deutschland,http://www.artland-brauerei.de,,10
0053,Artos Wein- und Sekthandels GmbH,Rudolf-Diesel-Straße 7-9,D-54292,Trier,Deutschland,,,10
0054,Asahi Brands Europe a.s. NL Deutschland,Konrad-Adenauer-Ufer 5-7,D-50668,Köln,Deutschland,http://www.asahideutschland.de,,10
0055,Asbach GmbH,Taunusstraße 1-3,D-65385,Rüdesheim am Rhein,Deutschland,http://www.asbach.de,,10
0056,Auerbräu GmbH,Münchener Straße 80,D-83022,Rosenheim,Deutschland,http://www.auerbraeu.de,,10
0057,Aufsesser Brauerei,Im Tal 70b,D-91347,Aufseß,Deutschland,http://www.brauereigasthof-rothenbach.de,,10
0058,August Ernst GmbH & Co. KG,Industriestraße 27/29,D-23843,Bad Oldesloe,Deutschland,http://www.august-ernst.de,,10
0059,August Gleumes Brauerei GmbH,Sternstraße 12,D-47798,Krefeld,Deutschland,http://www.brauerei-gleumes.de,,10
0060,August Kranz Schwarzwälder Edelbranntweinbrennerei und Großhandlung,Lindenplatz 9,D-77704,Oberkirch (Zusenhofen),Deutschland,,,10
0061,Augustiner Bräu Wagner KG,Landsberger Straße 31-35,D-80339,München,Deutschland,https://www.augustiner-braeu.de/,,10
0062,Auricher Süssmost GmbH,Kreihüttenmoorweg 11,D-26607,Aurich,Deutschland,http://www.auricher-suessmost.de,,10
0063,Avanus Mineralbrunnen GmbH,Power Weg 45,D-49191,Belm,Deutschland,http://www.avanus.de,,10
0064,B.M.G. Berliner Milcheinfuhr-Gesellschaft mbH,Sachsendamm 7,D-10829,Berlin,Deutschland,http://www.berliner-milch.eu,,10
0065,Bacardi GmbH,Hindenburgstraße 49,D-22297,Hamburg,Deutschland,http://www.bacardi.com,,10
0066,Back GmbH & Co. KG Edelbranntweinbrennerei,Landauer Straße 54,D-67373,Dudenhofen,Deutschland,http://www.brennerei-back.de,,10
0067,Bad Brambacher Mineralquellen GmbH & Co. Betriebs KG,Sprudelstraße 30,D-08648,Bad Brambach,Deutschland,http://www.bad-brambacher.de,,10
0068,Bad Driburger Naturparkquellen,Gräfin-Margarete-Allee 1,D-33014,Bad Driburg,Deutschland,http://www.bad-driburger.de,,10
0069,Bad Dürrheimer,Seestraße 11,D-78073,Bad Dürrheim,Deutschland,http://www.bad-duerrheimer.de,,10
0070,Bad Harzburger Mineralbrunnen GmbH,Am Zauberberg 3,D-38667,Bad Harzburg,Deutschland,http://www.bad-harzburger.de,,10
0071,Bad Honnefer Vertriebs GmbH,Drieschweg 40,D-53604,Bad Honnef,Deutschland,http://www.badhonnefer.de,,10
0072,Bad Hönninger Fruchtsäfte und Weine GmbH,Hauptstraße 159-163a,D-53557,Bad Hönningen/Rhein,Deutschland,http://www.bad-hoenninger.de,,10
0073,Bad Kissinger Mineralbrunnen GmbH,Am Theresienbrunnen 10,D-97688,Bad Kissingen,Deutschland,http://www.kissinger-mineralbrunnen.de,,10
0074,Bad Lauchstädter Heil- und Mineralbrunnen GmbH,Querfurter Straße 11/13,D-06246,Bad Lauchstaedt,Deutschland,,,10
0075,Bad Pyrmonter Mineral- und Heilquellen GmbH & Co. OHG,Mühlenbergstraße 8,D-31812,Bad Pyrmont,Deutschland,http://www.badpyrmonter.de,,10
0076,Badische Staatsbrauerei Rothaus AG,Rothaus 1,D-79865,Grafenhausen-Rothaus,Deutschland,http://www.rothaus.de,,10
0077,Badischer Winzerkeller eG,Zum Kaiserstuhl 16,D-79206,Breisach,Deutschland,http://www.badischer-winzerkeller.de,,10
0078,Baikal Getränke GmbH,Am Tempelhofer Berg 6,D-10965,Berlin,Deutschland,http://www.wostok-limonade.de,,10
0079,Baisinger BierManufaktur; Familie Teufel GmbH,Ergenzinger Straße 13,D-72108,Rottenburg,Deutschland,http://www.baisinger.de,,10
0080,Baron Philippe de Rothschild,14-16 rue Montalivet,F-75008,Paris,Frankreich,http://www.bpdr.com,,10
0081,Bartels-Langness Handelsgesellschaft mbH & Co. KG,Alte Weide 7 - 13,D-24116,Kiel,Deutschland,http://www.bela.de,,10
0082,Bastian Petry Weingut F.-J.Petry,Massenheimer Landstraße,D-65239,Hochheim/Main,Deutschland,http://www.weingut-lindenhof.de,,10
0083,Bauer Fruchtsaft GmbH,Am Brunnenpark 5-6,D-04924,Bad Liebenwerda,Deutschland,http://www.bauer-fruchtsaft.de,,10
0084,Bautzener Brauerei GmbH,Thomas-Mann-Straße 7,D-02625,Bautzen,Deutschland,http://www.bautzener.de,,10
0085,Bavaria Wein Import GmbH,Landsbergstraße 18,D-82205,Gilching,Deutschland,http://www.bavaria-wein.de,,10
0086,Bavaria-St.Pauli GmbH,Holstenstraße 224,D-22765,Hamburg,Deutschland,http://www.astra-bier.de/,,10
0087,Bayerische Staatsbrauerei Weihenstephan,Alte Akademie 2,D-85354,Freising,Deutschland,http://www.weihenstephaner.de,,10
0088,BAYERN-DILO GmbH,Siesbachstraße 34,D-55743,Idar-Oberstein,Deutschland,,,10
0089,Bayernwald Früchteverwertung KG,Schwanenkirchner Straße 28,D-94491,Hengersberg,Deutschland,http://www.bayernwald.com,,10
0090,Bayerwald-Bärwurzerei Liebl,Jahnstraße 11-15,D-93444,Bad Kötzing,Deutschland,http://www.brennerei-liebl.de,,10
0091,Bayla-Früchteverwertung Franz G. Brendle GmbH & Co. KG,Delpstraße 11,D-97084,Würzburg,Deutschland,http://www.bayla.de,,10
0092,Bayreuther Bierbrauerei AG,Hindenburgstraße 9,D-95445,Bayreuth,Deutschland,http://www.bayreuther-bier.de,,10
0093,Bayrische Graf zu Toerring-Jettenba,Am Schloßberg 1,D-84555,Jettenbach,Deutschland,http://www.hofbrauhaus-freising.de,,10
0094,BBF Berliner Bierfabrik GmbH,Zur Alten Börse 74,D-12681,Berlin,Deutschland,http://www.berlinerbierfabrik.com,,10
0095,Beam Suntory Deutschland,Unterschweinstiege 2-14,D-60549,Frankfurt am Main,Deutschland,http://www.beamsuntory.de,,10
0096,Beckers bester GmbH,Obere Dorfstraße 42,D-37176,Nörten-Hardenberg,Deutschland,http://www.beckers-bester.de,,10
0097,Benediktiner Weissbräu GmbH,Kaiser-Ludwig-Platz 1,D-82488,Ettal,Deutschland,http://www.benediktiner-weissbier.de,,10
0098,Berentzen-Gruppe Aktiengesellschaft,Ritterstraße 7,D-49740,Haselünne,Deutschland,http://www.berentzen-gruppe.de,,10
0099,Berg Brauerei Ulrich Zimmermann GmbH & Co. KG,Brauhausstraße 2,D-89584,Ehingen-Berg,Deutschland,http://www.bergbier.de,,10
0100,Bergbräu GmbH & Co. KG,Rosenstraße 10,D-37170,Uslar,Deutschland,http://www.bergbraeu.de,,10
0101,Bergmann Brauerei GmbH,Elias-Bahn-Weg 2,D-44263,Dortmund,Deutschland,http://www.harte-arbeit-ehrlicher-lohn.de,,10
0102,Bergquell-Brauerei Löbau GmbH,Weststraße 7,D-02708,Löbau,Deutschland,http://www.bergquell-porter.de,,10
0103,Berliner Bürgerbräu GmbH,Müggelseedamm 164-166,D-12587,Berlin,Deutschland,http://www.berlinerbuergerbraeu.de,,10
0104,Berliner-Kindl-Schultheiss-Brauerei GmbH,Indira-Gandhi-Straße 66-69,D-13053,Berlin,Deutschland,http://www.berliner-kindl.de,,10
0105,Bernadette Troestl,Hochstraße 75,D-81541,Muenchen,Deutschland,,,10
0106,Bernhard Widemann Bodensee Kelterei GmbH,Heiligenbergstraße 12,D-88697,Bermatingen,Deutschland,http://www.bodensee-kelterei-widemann.de,,10
0107,Bernkasteler Burghof GmbH,Bornwiese 2,D-54470,Bernkastel-Kues,Deutschland,,,10
0108,Bertín Osborne Selección SL,Avenida San Francisco Javier Nr. 24,ES-41018,Sevilla,Spanien,http://www.bertinosborneseleccion.es,,10
0109,Beutelsbacher Fruchtsaftkelterei GmbH,Birkelstraße 11,D-71370,Weinstadt,Deutschland,http://www.beutelsbacher.de,,10
0110,Bezirkskellerei Markgräferland EG,Winzerstraße 2,D-79588,Efringen-Kirchen,Deutschland,http://www.bezirkskellerei.de,,10
0111,Bianca Süsswaren und Getränke Vertriebs GmbH,Europaallee 57,D-50226,Frechen,Deutschland,,,10
0112,Bianco GmbH,Otto-Suhr-Allee 45,D-10585,Berlin,Deutschland,http://www.biancoberlin.de,,10
0113,Biberacher Mineralbrunnen Kilper GmbH & Co. KG,Lilienthalstraße 5,D-74078,Heilbronn,Deutschland,,,10
0114,Bier-Hannes Brauerei zur Mainkur GmbH,Hanauer Landstraße 568,D-60386,Frankfurt am Main,Deutschland,http://www.bier-hannes.de,,10
0115,Bier-Schneider GmbH,Allerstraße 23,D-53332,Bornheim,Deutschland,http://www.bier-schneider-online.de,,10
0116,BIERES et FROMAGES DE CHIMAY,8 Route Charlemagne,BES-6464,Baileux,Belgien,http://www.chimay.com,,10
0117,Bierlinie GmbH,Am Borsigturm 100,D-13507,Berlin,Deutschland,http://www.bierlinie.de,,10
0118,Biermanufaktur Engel GmbH & Co. KG,Haller Straße 29,D-74564,Crailsheim,Deutschland,http://www.engelbier.de,,10
0119,Bierzwerg (Eine Marke der Hamburg Beer Company GmbH),Grüner Weg 73,D-48268,Greven,Deutschland,http://www.bierzwerg.de,,10
0120,Binderer St. Ursula Weinkellerei GmbH,Lerchenstraße 66,D-80995,München,Deutschland,http://wp.binderer.de,,10
0121,Binding-Brauerei AG,Darmstädter Landstraße 185,D-60598,Frankfurt,Deutschland,http://www.binding.de,,10
0122,Bionade GmbH,Nordheimer Straße 14,D-97645,Ostheim vor der Rhön,Deutschland,http://www.bionade.de,,10
0123,Birkenhof Brennerei GmbH,Auf dem Birkenhof,D-57647,Nistertal,Deutschland,http://www.birkenhof-brennerei.de,,10
0124,Biskircher Heil- und Mineralbrunnen Stegili & Schmidt GmbH,Am Karlssprudel 28,D-35638,Leun,Deutschland,http://www.westerwaldquelle.de,,10
0125,Bitburger Brauerei Th. Simon GmbH,Aachener Straße 40,D-54294,Trier,Deutschland,http://www.bitburger.de,,10
0126,Bitburger Braugruppe GmbH,Römermauer 3,D-54634,Bitburg ,Deutschland,http://www.bitburger-braugruppe.de,,10
0127,Bittenfelder Fruchtsäfte Petershans GmbH & Co. KG,Schillerstraße 160,D-71336,Waiblingen,Deutschland,http://www.bittenfelder.de,,10
0128,Bitterfelder Brauerei GmbH,Hinter dem Bahnhof 5,D-06749,Bitterfeld-Wolfen,Deutschland,http://www.bitterfelder-bier.de,,10
0129,Bizz’up GmbH,Am Salzstadel 2,D-83022,Rosenheim,Deutschland,http://www.bizzup-drink.com,,10
0130,Black Forest Distillers GmbH,Äußerer Vogelsberg 7,D-72290,Loßburg-Betzweiler,Deutschland,http://www.monkey47.com,,10
0131,Blank`s Brauerei,Von-Speth-Straße 19,D-88499,Riedlingen,Deutschland,http://www.brauerei-blank.de,,10
0132,Bodegas Agronavarra,191 Mayor,ES-31521,Murchante (Navarra),Spanien,,,10
0133,Bodegas Osborne,7 Calle Los Moros,ES-11500,El Puerto de Sta María (Cádiz),Spanien,http://www.bodegas-osborne.com/,,10
0134,Boeheim Bar,Klaragasse 11,D-90402,Nürnberg,Deutschland,http://www.boeheim.de,,10
0135,Böhmisch Brauhaus Großröhrsdorf GmbH,Bahnhofstraße 11,D-01900,Großröhrsdorf,Deutschland,http://www.boehmisch-brauhaus.de,,10
0136,Boller Fruchtsäfte Stolz OHG,Hauptstraße 38,D-73087,Bad Boll,Deutschland,http://www.boller-fruchtsaefte.de,,10
0137,Borco-Marken-Import Matthiesen GmbH & Co. KG,Winsbergring 12-22,D-22525,Hamburg,Deutschland,http://www.borco.com,,10
0138,Borgo Magredo,5 Via Basaldella,I-33090,Tauranio di Spilimbergo,Italien,http://www.borgomagredo.it,,10
0139,Bottega SpA,1 Via S. Cristoforo,I-31010,Bibano TV,Italien,https://www.bottegaspa.com/,,10
0140,Bovenkerck GmbH,Hauptstraße 31,D-46499,Hamminkeln,Deutschland,http://www.bovenkerck.de,,10
0141,BRANDS INTERNATIONAL,Otto-Lilienthal-Straße 29,D-28199,Bremen,Deutschland,,,10
0142,Brasserie d'Achouffe,Achouffe n°32,BES-6666,Wibrin,Belgien,http://www.achouffe.be,,10
0143,Brasserie Duyck,113 Route nationale,F-59144,Jenlain,Frankreich,http://www.jenlain.fr,,10
0144,Brasserie Lefebvre,54 Chemin du Croly,BES-1430,Rebecq-Quenast,Belgien,http://www.brasserielefebvre.be,,10
0145,Bräu im Moos,Bräu im Moos Straße 1,D-84577,Tüßling,Deutschland,http://www.braeuimmoos.de,,10
0146,Brau und Brunnen Brauerei GmbH,Steigerstraße 20,D-44145,Dortmund,Deutschland,,,10
0147,Brau Union Österreich AG,Poschacherstraße 35,A-4021,Linz,Österreich,http://www.brauunion.at,,10
0148,Brauer-Vereinigung Pegnitz GmbH,Am Buchauer Berg 4,D-91257,Pegnitz,Deutschland,,,10
0149,"Brauerei ""Pinkus"" Müller GmbH & Co. KG",Kreuzstraße 4-10,D-48143,Münster (Westfalen),Deutschland,http://www.pinkus-mueller.de,,10
0150,Brauerei Aldersbach,Freiherr-von-Aretin-Platz 1,D-94501,Aldersbach,Deutschland,http://www.aldersbacher.de,,10
0151,Brauerei Allersheim GmbH,Allersheim 6,D-37603,Holzminden,Deutschland,http://www.brauerei-allersheim.de,,10
0152,Brauerei Aying Franz Inselkammer KG,Münchener Straße 21,D-85653,Aying,Deutschland,http://www.ayinger.de,,10
0153,Brauerei Beck GmbH & Co. KG,Am Deich 18/19,D-28199,Bremen,Deutschland,http://www.becks.de,,10
0154,Brauerei Becker GmbH,Kaiserstraße 170-174,D-66386,St. Ingbert,Deutschland,,,10
0155,Brauerei Berghammer,Donaustraße 55,D-93077,Bad Abbach,Deutschland,http://www.brauerei-berghammer.de,,10
0156,Brauerei Bischofshof e. K.,Heitzerstraße 2,D-93049,Regensburg,Deutschland,http://www.bischofshof.de,,10
0157,Brauerei Bosch GmbH & Co. KG,Steinackerstraße 15,D-57334,Bad Laasphe,Deutschland,http://www.brauerei-bosch.de,,10
0158,Brauerei Brinkhoff GmbH,Steigerstraße 20,D-44145,Dortmund,Deutschland,http://www.brinkhoffs.deswitch,,10
0159,Brauerei Bruckmüller GmbH & Co. KG,Vilsstraße 4,D-92224,Amberg,Deutschland,http://www.bruckmueller.de,,10
0160,Brauerei Bub Leinburg oHG,Marktplatz 14,D-91227,Leinburg,Deutschland,http://www.leinburger-bier.de,,10
0161,Brauerei C. & A. Veltins GmbH & Co. KG,An der Streue,D-59872,Meschede-Grevenstein,Deutschland,http://www.veltins.de,,10
0162,Brauerei C. Franz GmbH,Rauentaler Straße 4,D-76437,Rastatt,Deutschland,http://www.brauerei-franz.de,,10
0163,Brauerei C. Wittmann OHG,Ländgasse 50,D-84028,Landshut,Deutschland,http://www.brauerei-wittmann.de,,10
0164,Brauerei Carl Betz GmbH,Waldweg 101-103,D-29221,Celle,Deutschland,http://www.celler-bier.de,,10
0165,Brauerei Clemens Härle KG,Am Hopfengarten 5,D-88299,Leutkirch im Allgäu,Deutschland,http://www.haerle.de,,10
0166,Brauerei Diebels GmbH & Co. KG,Brauerei-Diebels-Straße 1,D-47661,Issum,Deutschland,http://www.diebels.de,,10
0167,Brauerei E. F. Peschl,Auerspergstraße 2,D-94032,Passau,Deutschland,http://www.peschl-braeu.de,,10
0168,Brauerei Eichhorn,Dörfleinser Straße 43,D-96103,Hallstadt,Deutschland,http://www.brauerei-eichhorn.de,,10
0169,Brauerei Erharting Jakob Röhrl oHG,Hauptstraße 6,D-84513,Erharting,Deutschland,http://www.brauerei-erharting.de,,10
0170,Brauerei Eugen Häberlen OHG,Karlstraße 66,D-74405,Gaildorf,Deutschland,http://www.brauerei-haeberlen.de,,10
0171,Brauerei Falter Inhaber Werner Falter,Hirschberger Straße 6,D-95030,Hof (Saale),Deutschland,http://www.hotelfalter.de,,10
0172,Brauerei Fässla GmbH & Co. KG,Obere Königsstraße 19-21,D-96052,Bamberg,Deutschland,http://www.faessla.de,,10
0173,Brauerei Feldschlößchen AG,Wolfenbütteler Straße33,D-38102,Braunschweig,Deutschland,http://www.feldschloesschen-bs.de,,10
0174,Brauerei Felsenkeller Herford Gebr. Uekermann GmbH & Co.,Gebr.-Uekermann-Straße 1,D-32120,Hiddenhausen,Deutschland,http://www.herforder.de,,10
0175,Brauerei Ferdinand Schumacher GmbH & Co. KG,Oststraße 123,D-40210,Düsseldorf,Deutschland,http://www.schumacher-alt.de,,10
0176,Brauerei Franz & Georg Rittmayer GdbR,Trailsdorfer Straße 4,D-91352,Hallerndorf,Deutschland,http://www.rittmayer.de,,10
0177,Brauerei Franz Xaver Glossner & Neumarkter Mineralbrunnen e.K.,Deininger Weg 88,D-92318,Neumarkt in der Oberpfalz,Deutschland,http://www.neumarkter-mineralbrunnen.de,,10
0178,Brauerei Friedmann,Jägersberg 16,D-91322,Gräfenberg,Deutschland,http://www.brauerei-friedmann.de,,10
0179,Brauerei Friedrich Düll GmbH & Co. KG,Landstraße 4-8,D-97332,Volkach,Deutschland,http://www.krautheimer.com,,10
0180,Brauerei Friedrich Gutmann,Am Kreuzberg 1,D-85135,Titting,Deutschland,http://www.brauerei-gutmann.de,,10
0181,Brauerei Fürstlich Drehna GmbH,Lindenplatz 10,D-15926,Luckau,Deutschland,http://www.brauerei-fuerstlich-drehna.de,,10
0182,Brauerei G. A. Bruch GmbH,Scheidter Straße 24-42,D-66123,Saarbrücken,Deutschland,http://www.bruchbier.de,,10
0183,Brauerei Ganter GmbH & Co. KG,Schwarzwaldstraße 43,D-79117,Freiburg im Breisgau,Deutschland,http://www.ganter.com,,10
0184,Brauerei Gebrüder Maisel KG,Hindenburgstraße 9,D-95445,Bayreuth,Deutschland,http://www.maisel.com,,10
0185,Brauerei Gg. Wolf KG,Brauereistraße 2,D-97234,Reichenberg (Unterfranken),Deutschland,http://www.wolf-bier.de,,10
0186,Brauerei Gliech GmbH,Gartenstraße 5,D-15938,Golßen,Deutschland,,,10
0187,Brauerei Gold Ochsen GmbH,Veitsbrunnenweg 3 - 8,D-89073,Ulm,Deutschland,http://www.goldochsen.de,,10
0188,Brauerei Göller zur Alten Freyung,Wildgarten 12,D-97475,Zeil am Main,Deutschland,http://www.brauerei-goeller.de,,10
0189,Brauerei Gotha Zweigniederlassung der Oettinger-Brauerei GmbH,Leinastraße 50,D-99867,Gotha,Deutschland,http://www.oettinger-bier.de,,10
0190,Brauerei Grandauer GmbH,Rotter Straße 15,D-85567,Grafing bei München,Deutschland,http://www.grandauer.de,,10
0191,Brauerei Greif GmbH & Co. KG,Serlbacher Straße 10,D-91301,Forchheim,Deutschland,http://www.brauerei-greif.de,,10
0192,Brauerei Greifenklau GmbH,Laurenziplatz 20,D-96049,Bamberg,Deutschland,http://www.greifenklau.de,,10
0193,Brauerei Greiner GmbH,Chamer Straße 10,D-93426,Roding,Deutschland,http://www.greinerbraeu.de,,10
0194,Brauerei Grohe GmbH,Nieder-Ramstädter Straße 3,D-64283,Darmstadt,Deutschland,http://www.brauerei-grohe.de,,10
0195,Brauerei Gusswerk GmbH,Römerstraße 3,A-5322,Elsenwang,Österreich,http://www.brauhaus-gusswerk.at,,10
0196,Brauerei Haberstumpf,Bergstraße 31,D-95367,Trebgast,Deutschland,http://www.brauerei-haberstumpf.de,,10
0197,Brauerei Hacklberg,Bräuhausplatz 3,D-94034,Passau,Deutschland,http://www.hacklberg.de,,10
0198,Brauerei Hacklberg Innstadt Bierspezialitäten,Bräuhausplatz 3,D-94034,Passau,Deutschland,http://www.innstadt-brauerei.de,,10
0199,Brauerei Hauf KG,Heiningerstraße 28,D-91550,Dinkelsbühl,Deutschland,http://www.hauf-bier.de,,10
0200,Brauerei Heinrich Kürzdörfer,Brauhausgasse 3,D-95473,Creußen,Deutschland,http://www.brauerei-kuerzdoerfer.de,,10
0201,Brauerei Heller GmbH,Roonstraße 33,D-50674,Köln,Deutschland,http://www.hellers.koeln,,10
0202,Brauerei Hermann Michael e.K.,Kirchenlamitzer Straße 64-66,D-95163,Weißenstadt,Deutschland,http://www.brauerei-michael.de,,10
0203,Brauerei Herrenhausen KG,Herrenhäuser Straße 83-99,D-30419,Hannover,Deutschland,http://www.herrenhaeuser.de,,10
0204,Brauerei Horneck GmbH & Co. KG,Horneck 7,D-84094,Elsendorf,Deutschland,http://www.brauerei-horneck.de,,10
0205,Brauerei Humbser-Geismann GmbH,Tucherstraße 10,D-90763,Fürth,Deutschland,,,10
0206,Brauerei Hutthurm - ein Betrieb der Raiffeisenbank i. Lkrs. Passau-Nord eG,Marktplatz 5,D-94116,Hutthurm,Deutschland,http://www.hutthurmer.de,,10
0207,Brauerei im Füchschen,Ratinger Straße 28,D-40213,Düsseldorf,Deutschland,http://www.fuechschen.de,,10
0208,Brauerei Johann Aukofer KG,Alleestraße 27,D-93309,Kelheim,Deutschland,http://www.hotel-brauerei-aukofer.de,,10
0209,Brauerei Johann Kneitinger e.K.,Kreuzgasse 7,D-93047,Regensburg,Deutschland,http://www.kneitinger.de,,10
0210,Brauerei Josef Greif Forchheim/Ofr. e.K.,Serlbacher Straße 10,D-91301,Forchheim,Deutschland,http://www.brauerei-greif.de,,10
0211,Brauerei Josef Ruhland,Memminger Straße 8,D-87767,Niederrieden,Deutschland,http://www.remus-quelle.de,,10
0212,Brauerei Juliusbräu,Augsburger Straße 135B,D-86633,Neuburg an der Donau,Deutschland,,,10
0213,Brauerei Kanone Löhr GmbH & Co. KG,Bayreuther Straße 3,D-91220,Schnaittach,Deutschland,http://www.brauerei-kanone.de,,10
0214,Brauerei Karg GmbH & Co. KG,Untermarkt 27,D-82418,Murnau am Staffelsee,Deutschland,http://www.karg-weissbier.de,,10
0215,Brauerei Keesmann,Wunderburg 5,D-96050,Bamberg,Deutschland,http://www.keesmann-braeu.de,,10
0216,Brauerei Kesselring GmbH & Co. KG,Leithenbukweg 13,D-97342,Marktsteft,Deutschland,http://www.kesselring-bier.de,,10
0217,Brauerei Königshof GmbH,Obergath 68,D-47805,Krefeld,Deutschland,http://www.brauereikoenigshof.de,,10
0218,Brauerei Krug,Alte Dorfstraße 11,D-96129,Strullendorf,Deutschland,http://www.brauerei-krug.de,,10
0219,Brauerei Kühbach Freiherr von Beck-Peccoz,Großhausener Straße 2,D-86556,Kühbach,Deutschland,http://www.brauereikuehbach.de,,10
0220,Brauerei Kummert GmbH & Co. KG,Raigeringer Straße 13,D-92224,Amberg,Deutschland,http://www.brauerei-kummert.de,,10
0221,Brauerei Ladenburger,Hauptstraße 16,D-73491,Neuler,Deutschland,http://www.ladenburger-bier.de,,10
0222,Brauerei Landsberg GmbH,Bahnhofstraße 33,D-06188,Landsberg,Deutschland,http://www.landsberger.de,,10
0223,Brauerei Lasser GmbH,Belchenstraße 5,D-79539,Lörrach,Deutschland,http://www.lasser.de,,10
0224,Brauerei Loscher GmbH & Co. KG,Steigerwaldstraße 21-23,D-91481,Münchsteinach,Deutschland,http://www.brauerei-loscher.de,,10
0225,Brauerei Ludwig Erl,Straubinger Straße 10,D-94333,Geiselhöring,Deutschland,http://www.erl-braeu.de,,10
0226,Brauerei Ludwig Würth,Bahnhofstraße 7,D-92670,Windischeschenbach,Deutschland,http://www.brauerei-wuerth.de,,10
0227,Brauerei Mäckinger Bräu GmbH,Dahler Straße 57,D-58091,Hagen,Deutschland,http://www.vormann-brauerei.de,,10
0228,Brauerei Maisach Privatbrauerei J. Sedlmayr GmbH,Hauptstraße 24,D-82216,Maisach,Deutschland,http://www.brauerei-maisach.de,,10
0229,Brauerei Martin Sterk,Talweg 3 OT Raigering,D-92224,Amberg,Deutschland,http://www.brauerei-sterk.de,,10
0230,Brauerei Max Leibinger GmbH,Friedhofstraße 20-36,D-88212,Ravensburg,Deutschland,http://www.leibinger.de,,10
0231,Brauerei Michael Plank,Marktplatz 1,D-93164,Laaber,Deutschland,http://www.brauerei-plank.de,,10
0232,Brauerei Mittenwald Johann Neuner GmbH & Co.,Innsbrucker Straße 13,D-82481,Mittenwald,Deutschland,http://www.brauerei-mittenwald.de,,10
0233,Brauerei Moninger AG,Durmersheimer Straße 59,D-76185,Karlsruhe,Deutschland,http://www.moninger.de,,10
0234,Brauerei Mühlbauer,Further Straße 10,D-93473,Arnschwang,Deutschland,http://www.brauerei-muehlbauer.de,,10
0235,Brauerei Neunspringe Worbis GmbH,Neunspringer Straße 4,D-37339,Leinefelde-Worbis,Deutschland,http://www.brauerei-neunspringe.de,,10
0236,Brauerei Nothhaft Otto Nothhaft,Ottostraße 30,D-95615,Marktredwitz,Deutschland,http://www.brauerei-nothhaft.de,,10
0237,Brauerei Püttner,Hauptstraße 11,D-95519,Schlammersdorf,Deutschland,http://www.brauerei-puettner.de,,10
0238,Brauerei Rapp KG,Augsburger Straße 14,D-86500,Kutzenhausen,Deutschland,http://www.brauerei-rapp.de,,10
0239,Brauerei Reichenbrand GmbH & Co. KG,Zwickauer Straße 478,D-09117,Chemnitz,Deutschland,http://www.brauerei-bergt.de,,10
0240,Brauerei Rittmayer Hallerndorf oHG,An der Mark 1,D-91352,Hallerndorf,Deutschland,http://www.rittmayer.de,,10
0241,Brauerei Röhrl GmbH,Heerstraße 13,D-94315,Straubing,Deutschland,http://www.röhrlbräu.com,,10
0242,Brauerei Ruhland Remus Quelle GmbH & Co. KG,Memminger Straße 8,D-87767,Niederrieden,Deutschland,http://www.remus-quelle.de,,10
0243,Brauerei S. Riegele Inh. Riegele KG,Frölichstraße 26,D-86150,Augsburg,Deutschland,http://www.riegele.de,,10
0244,Brauerei Schäffler Hanspeter Graßl KG,Hauptstraße 17,D-87547,Missen-Wilhams,Deutschland,http://www.schaeffler-braeu.de,,10
0245,Brauerei Schimpfle GmbH & Co. KG,Hauptstraße 16,D-86459,Gessertshausen,Deutschland,http://www.brauerei-schimpfle.de/,,10
0246,Brauerei Schlenkerla,Dominikanerstraße 6,D-96049,Bamberg,Deutschland,http://www.schlenkerla.de,,10
0247,Brauerei Schleswig Dipl. Braumeister Ronald T. Carius,Königstraße 27,D-24837,Schleswig,Deutschland,http://www.asgaard.de,,10
0248,Brauerei Schlösser GmbH,Ratinger Straße 25,D-40213,Düsseldorf,Deutschland,http://www.schloesser.de,,10
0249,Brauerei Schwelm,Neumarkt 1,D-58332,Schwelm,Deutschland,http://www.schwelmer.com,,10
0250,Brauerei Sester Kölsch,Bergisch Gladbacher Straße 116-134,D-51065,Köln,Deutschland,http://www.sester.de,,10
0251,Brauerei Sigwart GmbH & Co. KG,Roßmühle 10,D-91781,Weißenburg in Bayern,Deutschland,http://www.brauerei-sigwart.de,,10
0252,Brauerei Simon GmbH,Heroldstraße 12,D-91207,Lauf an der Pegnitz,Deutschland,http://www.brauerei-simon.de,,10
0253,Brauerei Stierberg Annemarie Kammhuber Hartinger,Stierberg 12,D-84419,Obertaufkirchen,Deutschland,http://www.brauerei-stierberg.de,,10
0254,Brauerei Stolz GmbH & Co. KG,Rotenbacher Weg 2,D-88316,Isny im Allgäu,Deutschland,http://www.brauerei-stolz.de,,10
0255,Brauerei Strauss OHG,An der Rohrach 17,D-91757,Treuchtlingen,Deutschland,http://www.wettelsheimer.de,,10
0256,Brauerei u. Gasthof zur Krone F. Tauscher GmbH & Co. KG,Bärenplatz 7,D-88069,Tettnang,Deutschland,http://www.tettnanger-krone.de,,10
0257,Brauerei und Gasthof zum Goldenen Engel,Raiffeisenstraße 4,D-89367,Waldstetten (Günz),Deutschland,http://www.engelbrauerei.de,,10
0258,Brauerei und Gasthof Zwönitz,Grünhainer Straße 15,D-08297,Zwönitz,Deutschland,http://www.brauerei-zwoenitz.de,,10
0259,Brauerei und Gastwirtschaft Johannes Grasser,Huppendorf 25,D-96167,Königsfeld im Schwarzwald,Deutschland,http://www.huppendorfer-bier.de,,10
0260,Brauerei und Wirtschaft -Im Füchschen- Peter Koenig,Ratinger Straße 28,D-40213,Düsseldorf,Deutschland,http://www.fuechschen.de,,10
0261,Brauerei Ustersbach Adolf Schmid KG,Hauptstraße 40,D-86514,Ustersbach,Deutschland,http://www.ustersbacher.com,,10
0262,Brauerei Wagner Merkendorf,Pointstraße 1,D-96117,Memmelsdorf,Deutschland,http://www.wagner-merkendorf.de,,10
0263,Brauerei Walter,Schulstraße 2,D-79761,Waldshut-Tiengen,Deutschland,http://www.brauereiwalter.de,,10
0264,Brauerei Weimar-Ehringsdorf GmbH,Hainweg 13,D-99425,Weimar,Deutschland,http://www.ehringsdorfer.de,,10
0265,Brauerei Winkler GmbH & Co. KG,Schanzgäßchen 6,D-92224,Amberg,Deutschland,http://www.brauerei-winkler.de,,10
0266,Brauerei Wolferstetter Georg Huber KG,Bürg 26,D-94474,Vilshofen an der Donau,Deutschland,http://www.wolferstetter-brauerei.de,,10
0267,Brauerei Zahna GmbH,Jüterboger Straße 7,D-06895,Zahna-Elster,Deutschland,http://www.zahnaer-mineralbrunnen.de,,10
0268,Brauerei Zirndorf GmbH,Rote Straße 8-10,D-90513,Zirndorf,Deutschland,http://www.zirndorfer.de,,10
0269,Brauerei Zoller-Hof Graf-Fleischhut GmbH & Co. KG,Leopoldstraße 40,D-72488,Sigmaringen,Deutschland,http://www.zoller-hof.de,,10
0270,Brauerei zum Klosterhof GmbH,Stiftweg 4,D-69118,Heidelberg,Deutschland,http://www.brauerei-zum-klosterhof.de,,10
0271,Brauerei zum Kuchlbauer GmbH & Co. KG,Römerstraße 5-9,D-93326,Abensberg,Deutschland,http://www.kuchlbauer.de,,10
0272,Brauerei Zum Schlüssel,Bolkerstraße 41-47,D-40213,Düsseldorf,Deutschland,http://www.hausbrauerei-zum-schluessel.de,,10
0273,Brauerei zum Stadtpark,Parkstraße 1b,D-68766,Hockenheim,Deutschland,http://www.brauereizumstadtpark.de,,10
0274,Brauerei zum Stefanus,Mennrath 59,D-41179,Mönchengladbach,Deutschland,http://www.zum-stefanus.de,,10
0275,Brauerei zur Malzmühle Schwartz KG,Heumarkt 6,D-50667,Köln,Deutschland,http://www.muehlenkoelsch.de,,10
0276,Brauerei-Gasthof Kundmüller,Weiher 13,D-96191,Viereth,Deutschland,http://www.brauerei-kundmueller.de,,10
0277,Brauerei-Gasthof Roter Ochsen,Schmiedstraße 16,D-73479,Ellwangen (Jagst),Deutschland,http://www.roter-ochsen-ellwangen.de,,10
0278,Brauerei-Gasthof Zum Hirschen,Hauptstraße 7,D-79341,Kenzingen,Deutschland,http://www.hirschen-kenzingen.de,,10
0279,Brauerei-Museum Dortmund,Steigerstraße 16,D-44145,Dortmund,Deutschland,,,10
0280,Brauereiausschank Gulasch,Alter Kirchweg 40,D-40667,Meerbusch,Deutschland,http://www.gulasch.info,,10
0281,Brauereiausschank Zum Hirschen,Alt-Pempelfort 2,D-40211,Düsseldorf,Deutschland,http://www.freiligrath.de,,10
0282,Brauereigasthof Hotel Bürgerbräu,Am Rathausplatz; Waaggasse 1-2,D-83435,Bad Reichenhall,Deutschland,http://www.brauereigasthof-buergerbraeu.de,,10
0283,Brauereigasthof Maierbräu,Marktplatz 2,D-85250,Altomünster,Deutschland,http://www.maierbraeu.de,,10
0284,Brauereigasthof Schweizerhof,Ziegelhüttener Straße 38,D-95326,Kulmbach,Deutschland,http://www.schweizerhof-kulmbach.de,,10
0285,Brauereigasthof zum Pflug,Tuttlinger Straße 26,D-78628,Rottweil,Deutschland,http://www.pflug-rottweil.de,,10
0286,Brauereigesellschaft Vorm. Meyer & Söhne AG,Hauptstraße 1-3,D-79359,Riegel am Kaiserstuhl,Deutschland,,,10
0287,Brauereiwirtschaft König D. Schneiderhan,Oggenhauser Hauptstraße 6,D-89522,Heidenheim an der Brenz,Deutschland,http://www.brauereiwirtschaft-koenig.de,,10
0288,Brauereiwirtshaus Sanwald,Silberburgstraße 157,D-70178,Stuttgart,Deutschland,http://www.brauerei-wirtshaus-sanwald.de,,10
0289,Braugold Vertriebs GmbH & Co. KG,Schillerstraße 7,D-99096,Erfurt,Deutschland,http://www.braugold.de,,10
0290,"Brauhaus ""Zum Alten Dessauer""",Lange Gasse 16,D-06844,Dessau-Roßlau,Deutschland,http://www.alter-dessauer.de,,10
0291,Brauhaus Altenkunstadt Andreas Leikeim GmbH & Co. KG,Langheimer Straße 14,D-96264,Altenkunstadt,Deutschland,http://www.leikeim.de,,10
0292,Brauhaus Binkert GmbH & Co. KG,Westring 5,D-96149,Breitengüßbach,Deutschland,http://www.mainseidla.de,,10
0293,Brauhaus Faust OHG,Hauptstraße 219,D-63897,Miltenberg,Deutschland,http://www.faust.de,,10
0294,Brauhaus Hartmannsdorf GmbH,Chemnitzer Straße 5,D-09232,Hartmannsdorf,Deutschland,http://www.braha.de,,10
0295,Brauhaus Höchstadt/Aisch e.G.,Kellerstraße 11,D-91315,Höchstadt an der Aisch,Deutschland,http://www.brauhaus-hoechstadt.de,,10
0296,Brauhaus Leikeim,Gewerbegebiet 4,D-96264,Altenkunstadt,Deutschland,http://www.leikeim.de,,10
0297,Brauhaus Pfaffenhofen a.d.Ilm GmbH & Co. KG,Postfach 1652,D-85266,Pfaffenhofen,Deutschland,http://www.urbanus-bier.de,,10
0298,Brauhaus Pforzheim GmbH,Sankt Georgensteige 12,D-75175,Pforzheim,Deutschland,http://www.brauhaus-pforzheim.de,,10
0299,Braukunst Berlin GmbH,Schöneberger Straße 16,D-10963,Berlin,Deutschland,http://www.brlo.de,,10
0300,BrauManufaktur Härke GmbH,Am Werderpark 5,D-31224,Peine,Deutschland,http://www.braumanufaktur-haerke.de,,10
0301,Brauring - Kooperationsgesellschaft Privater Brauereien,Langgasse 73-75,D-35576,Wetzlar/Lahn,Deutschland,http://www.brauring-kooperation.de,,10
0302,Braustolz Bier GmbH,Am Feldschlößchen 18,D-09116,Chemnitz,Deutschland,http://www.braustolz.dezuhause.html,,10
0303,Brauwerk Baden GmbH,Gutenbergstraße 3,D-77654,Offenburg,Deutschland,http://www.kronen-brauhaus.de,,10
0304,Bremer Spirituosen Contor GmbH,Gisela-Müller-Wolff-Straße7,D-28197,Bremen,Deutschland,http://www.bremerspirituosencontor.de,,10
0305,Brennerei Druffel,Kirchstraße 12,D-59302,Oelde,Deutschland,http://www.brennerei-druffel.de,,10
0306,Brennerei Feller KG,Ziegelstraße 4,D-89165,Dietenheim-Regglisweiler,Deutschland,http://www.brennerei-feller.de,,10
0307,Brennerei Fischer,Weildorferstraße 10,D-72401,Haigerloch,Deutschland,http://www.brennerei-fischer.de,,10
0308,Brennerei Hubertus Vallendar,Hauptstraße 11,D-56829,Kail,Deutschland,http://www.vallendar.de,,10
0309,Brennerei Plomari Isidoros Arvanitis S.A.,Location Kampos Plagias,GR-81200,Lesbos; Plomari,Griechenland,http://www.ouzoplomari.gr,,10
0310,BrewDog plc,Balmacassie Commercial Park,GB-B41 8BX,Ellon; Aberdeenshire,Schottland,http://www.brewdog.com,,10
0311,Brohler Mineral- und Heilbrunnen GmbH,Koblenzer Straße 71-73,D-56656,Brohl-Lützing,Deutschland,http://www.brohler.de,,10
0312,Brouwerij Boon nv,Fonteinstraat 65,BES-1502,Lembeek,Belgien,http://www.boon.be,,10
0313,Brouwerij Bosteels,Kerkstraat 96,BES-9255,Buggenhout,Belgien,http://www.bestbelgianspecialbeers.be,,10
0314,Brouwerij Van Honsebrouck,Ingelmunstersestraat 46,BES-8870,Emelgem (Izegem),Belgien,http://www.vanhonsebrouck.be,,10
0315,Brouwerij Van Steenberge,Lindenlaan 25,BES-9940,Ertvelde,Belgien,http://www.vansteenberge.com,,10
0316,Brown-Forman Deutschland GmbH,Dammtorwall 7,D-20354,Hamburg,Deutschland,http://www.brown-forman.de,,10
0317,Bruichladdich Distillery,Isle of Islay,GB-PA49 7UN,Argyll,Schottland,http://www.bruichladdich.com,,10
0318,Brunnenverwaltung Bad Dietenbronn GmbH,Dietenbronn 10,D-88477,Schwendi,Deutschland,http://www.dietenbronner.de,,10
0319,Brunnenverwaltung König Otto-Bad E. Büttner GmbH & Co. KG,König Otto-Bad 1-3,D-95676,Wiesau,Deutschland,http://www.koenig-otto-sprudel.de,,10
0320,Brunner Bräu Spanberg,Spanberg 5,D-84307,Eggenfelden,Deutschland,http://www.brunner-braeu.de,,10
0321,Brunnthaler Mineralbrunnen Brassler oHG,Steigweg 25,D-86666,Burgheim,Deutschland,http://www.brunnthaler-mineralbrunnen.de,,10
0322,Bucher Aloisius Quelle GmbH,Günzburger Straße 100,D-89423,Gundelfingen,Deutschland,http://www.brauerei-bucher.de,,10
0323,Bucher Bräu Grafenau GmbH & Co. KG,Elsenthaler Straße 5-7,D-94481,Grafenau (Niederbayern),Deutschland,http://www.bucher-braeu.de,,10
0324,Buchholzer Kelterei Breitbarth GmbH & Co. Vertriebs-KG,Triftstraße 6,D-13127,Berlin,Deutschland,http://www.buchholzer-kelterei.de,,10
0325,Budweiser Budvar Importgesellschaft mbH,Augsburger Straße 10,D-99091,Erfurt,Deutschland,http://www.budweiser-sailing.de,,10
0326,Buenos GmbH & Co. KG,Am Römischen Hof 1,D-61352,Bad Homburg v.d.Höhe,Deutschland,http://www.buenos-beverages.com,,10
0327,Bullenschluck Manufaktur Sulingen,Lange Straße 60,D-27232,Sulingen,Deutschland,http://www.bullenschluck.com,,10
0328,Bunnahabhain Distillery Distell Group Ltd.,Port Askaig,GB-PA46 7RP,Isle of Islay,Schottland,http://www.bunnahabhain.com,,10
0329,Bürgerbräu Bad Reichenhall August Röhm & Söhne KG,Waaggasse 1-3,D-83435,Bad Reichenhall,Deutschland,http://www.buergerbraeu.com,,10
0330,Bürgerbräu Bayreuth GmbH,Richard-Wagner-Straße 38,D-95444,Bayreuth,Deutschland,http://www.buergerbraeu-bth.de,,10
0331,Bürgerbräu Hersbruck Deinlein & Co.,Lohweg 38,D-91217,Hersbruck,Deutschland,http://www.buergerbraeu-hersbruck.de,,10
0332,Bürgerl. Brauhaus Wiesen,Hauptstraße 97,D-63831,Wiesen,Deutschland,http://www.brauhaus-wiesen.de,,10
0333,Bürgerliches Brauhaus Ingolstadt AG,Manchinger Straße 95,D-85053,Ingolstadt,Deutschland,http://www.herrenbraeu.de,,10
0334,Bürgerliches Brauhaus Saalfeld GmbH,Pößnecker Straße 55,D-07318,Saalfeld,Deutschland,http://www.brauhaus-saalfeld.de,,10
0335,Burggraf Bräu Bensheim GmbH Gasthofbrauerei,Darmstädter Straße 231,D-64625,Bensheim,Deutschland,http://www.burggraf-braeu.de,,10
0336,Burkhardt Fruchtsäfte GmbH & Co. KG,Steiglesstraße 10,D-89150,Laichingen,Deutschland,http://www.burkhardt-fruchtsaefte.de,,10
0337,Burkhof Kaffee GmbH,Rudolf-Diesel-Ring 21,D-82054,Sauerlach,Deutschland,http://www.burkhof.com,,10
0338,C. Flimm GmbH & Co. KG,Kölnstraße 221-225,D-50321,Brühl,Deutschland,http://www.kabaenes.de,,10
0339,C. Schliessmann Kellerei-Chemie GmbH & Co. KG,Auwiesenstraße 5,D-74523,Schwäbisch Hall,Deutschland,http://www.c-schliessmann.de,,10
0340,C. W. Baland und Langebartels Peter Weidmann Erben GmbH,Am Wasserturm 35 E,D-29223,Celle,Deutschland,http://www.ratzeputz-celle.de,,10
0341,Cab Drinks GmbH,Hagener Straße 261,D-57223,Kreuztal-Krombach,Deutschland,http://www.cab-drink.com,,10
0342,Calidris 28 Deutschland GmbH,Kurfürstendamm 37,D-10719,Berlin,Deutschland,http://www.28black.com,,10
0343,Camba Bavaria GmbH,Gewerbering 3,D-83370,Seeon,Deutschland,http://www.camba-bavaria.de,,10
0344,Cameo House Ltd, 13-17 BEAR STREET,GB-WC2H 7AS,London,Vereintes Königreich,,,10
0345,Campari Deutschland GmbH,Bajuwarenring 1,D-82041,Oberhaching,Deutschland,http://www.campari-deutschland.de,,10
0346,canmax Aktiengesellschaft,Carl-Helbing-Straße 19,D-79312,Emmendingen,Deutschland,,,10
0347,Cantine Cavicchioli U.&Figli srl.,Via Canaletto 52,D-41030,San Prospero ,Deutschland,http://www.cavicchioli.it,,10
0348,Capulet & Montague LTD.,Martin-Luther-Straße 25,D-66111,Saarbrücken,Deutschland,http://www.capuletandmontague.de,,10
0349,Carlsberg Deutschland GmbH,Holstenstraße 224,D-22765,Hamburg,Deutschland,http://www.carlsbergdeutschland.de,,10
0350,Carstens-Haefelin Kellereien GmbH,Niederkircher Sraße 27,D-54294,Trier,Deutschland,,,10
0351,Casa Vinicola Canella SPA,Via Fiume 7,I-30027,San Donà di Piave,Italien,http://www.canellaspa.com,,10
0352,Casoni Fabbricazione Liquori S.p.A.,via Venezia n. 5/a,I-41034,Finale Emilia (Modena),Italien,http://www.casoni.comde,,10
0353,Castens-Haefelin Kellereien GmbH,Niederkircher Straße 27,D-54294,Trier,Deutschland,,,10
0354,Champagne Alfred Gratien,30 Rue Maurice Cerveaux,F-51200,Épernay,Frankreich,http://www.alfredgratien.com,,10
0355,champjuice GmbH,Badstraße 28,D-71546,Aspach-Rietenau,Deutschland,http://www.vorlo.de,,10
0356,Chantré & Cie GmbH,Matheus-Müller-Platz 1,D-65343,Eltville am Rhein,Deutschland,http://www.chantre.de,,10
0357,Christian Adalbert Kupferberg Sektkellerei GmbH,Kupferbergterrasse 17-19,D-55016,Mainz,Deutschland,http://www.kupferberg.de,,10
0358,Christian Hartmann GmbH,Schloß Gebsattel,D-97647,Sondheim vor der Rhön,Deutschland,http://www.fruchtweine-hartmann.de,,10
0359,Christoph Jahn Erben Brauerei GmbH + Co. KG.,Kronacher Straße 22,D-96337,Ludwigsstadt,Deutschland,http://www.jahns-braeu.de,,10
0360,Coca-Cola European Partners Deutschland GmbH,Stralauer Allee 4,D-10245,Berlin,Deutschland,http://www.cceag.de,,10
0361,Colbitzer Heidebrauerei GmbH,Brauereistraße 1,D-39326,Colbitz,Deutschland,http://www.colbitzer-heidebrauerei.de,,10
0362,Collegium Wirtemberg Weingärtner Rotenberg & Uhlbach eG,Württembergstraße 230,D-720327,Stuttgart,Deutschland,http://www.collegium-wirtemberg.de,,10
0363,Cölner Hofbräu P. Josef Früh KG,Am Hof 12-18,D-50667,Köln,Deutschland,http://www.frueh.de,,10
0364,Compagnie Champenoise PH-CH. Piper Heidsieck,12 allée du Vignoble,F-51100,Reims,Frankreich,https://www.piper-heidsieck.com/de/,,10
0365,CONCEPT Markengetränke GmbH,Am alten Sägewerk 4,D-95349,Thurnau,Deutschland,http://www.kleiner-klopfer.com,,10
0366,convivo GmbH,Nisselgasse 1-3/Top 5,A-1140,Wien,Österreich,http://www.convivo-brands.com/,,10
0367,Coralba s.r.l.,Via Cuneo 4,I-12029,SAN DAMIANO MACRA,Italien,,,10
0368,Creck limited,Prenzlauer Straße 53,D-17034,Neubrandenburg,Deutschland,,,10
0369,CREW Republic Brewery GmbH,Andreas-Danzer-Weg 30,D-85716,Unterschleissheim,Deutschland,http://www.crewrepublic.de,,10
0370,Creydt Fruchtsaft GmbH,Theodor-Storm-Straße 13,D-37586,Dassel,Deutschland,http://www.creydt-fruchtsaft.de,,10
0371,CSD Handel GmbH,Graf-Adolf-Straße 41,D-40210,Düsseldorf,Deutschland,http://www.csd-handel.de,,10
0372,Cucumis GmbH,Langelohstraße 130c,D-22609,Hamburg,Deutschland,http://www.cucumis-drinks.com,,10
0373,D.H.Boll Spirituosen GmbH,Markt 16,D-24321,Lütjenburg,Deutschland,http://www.dhboll.de,,10
0374,Dachsbräu GmbH & Co. KG,Murnauer Straße 5,D-82362,Weilheim,Deutschland,http://www.dachsbier.de,,10
0375,Dalmore Distillery,,GB- IV17 0UT,Alness Rossshire,Schottland,http://www.thedalmore.com/,,10
0376,Danone Waters Deutschland GmbH,Solmsstraße 18,D-60486,Frankfurt,Deutschland,http://www.danone-waters.de,,10
0377,Danzka Vodka Copenhagen ApS,Tofteaasen 29,DK-2600,Glostrup,Dänemark,http://www.danzka.com,,10
0378,Darguner Brauerei GmbH,Brauereistraße 3,D-17159,Dargun,Deutschland,http://www.brauerei-dargun.de,,10
0379,Darmstädter Privatbrauerei GmbH,Goebelstraße 7,D-64293,Darmstadt,Deutschland,http://www.unser-braustuebl.de,,10
0380,Darmstädter Ratskeller Hausbrauerei GmbH,Marktplatz 8,D-64283,Darmstadt,Deutschland,http://www.ratskeller-darmstadt.de,,10
0381,Das leichteste Wasser Vertriebsgesellschaft m.b.H.,Pommernstraße 10,D-83382,Freilassing,Deutschland,http://www.lauretana.de,,10
0382,Dauner & Dunaris Quellen GmbH & Co. KG,Maria-Hilf-Straße 22,D-54550,Daun in der Vulkaneifel,Deutschland,http://www.dauner-quellen.de,,10
0383,De Kuyper Royal Distillers,Buitenhavenweg 98,NL-3113,BE Schiedam,Niederlande,http://www.dekuyper.com,,10
0384,Deinhard Sektkellerei KG,Deinhardplatz 3,D-56068,Koblenz,Deutschland,http://www.deinhard.de,,10
0385,Delta-Pack GmbH Brauereibedarf,Voßkuhlstraße 69,D-44797,Bochum,Deutschland,http://www.delta-pack.de,,10
0386,Der Hirschbräu Privatbrauerei Höss GmbH & Co. KG,Grüntenstraße 7,D-87527,Sonthofen,Deutschland,http://www.hirschbraeu.de,,10
0387,Design Studio 22,Pallaswiesenstraße 27,D-64293,Darmstadt,Deutschland,http://www.ds22.net,,10
0388,Destillerie Dr. Gerald Rauch GmbH,Thölauer Straße 12,D-95615,Marktredwitz,Deutschland,http://www.graefs.de,,10
0389,Destillerie Kammer-Kirsch GmbH,Hardtstraße 35-37,D-76185,Karlsruhe,Deutschland,http://www.kammer-kirsch.de,,10
0390,Destillerie Lantenhammer GmbH,Josef-Lantenhammer-Platz 1,D-83734,Hausham/Schliersee,Deutschland,http://www.lantenhammer.de,,10
0391,Deutsche Sinalco GmbH Markengetränke & Co. KG,Römerstraße 109,D-47179,Duisburg-Walsum,Deutschland,http://www.sinalco.de,,10
0392,Deutsche SiSi-Werke Betriebs GmbH,Rudolf-Wild-Straße 86-98,D-69214,Eppelheim/Heidelberg,Deutschland,http://www.capri-sun.com,,10
0393,Diageo Deutschland GmbH,Reeperbahn 1,D-20359,Hamburg,Deutschland,http://www.diageo.com,,10
0394,Die deutschen Brauer Deutscher Brauer-Bund e.V.,Neustädtische Kirchstraße 7A,D-10117,Berlin,Deutschland,http://www.rostocker.de,,10
0395,Die Internationale Brau-Manufacturen GmbH,Darmstädter Landstraße 185,D-60598,Frankfurt am Main,Deutschland,http://www.brau-manufacturen.de,,10
0396,Die Stonsdorferei W. Koerner GmbH & Co. KG,Ritterstraße 7,D-49740,Haselünne,Deutschland,,,10
0397,Diesdorfer Süßmost-; Weinkelterei & Edeldestille GmbH,Bergstraße 1,D-29413,Diesdorf,Deutschland,http://www.diesdorfer.de,,10
0398,Dieter Kirsch Kirsch Whisky - The House of Whiskies,Schnepker Straße 32,D-28857,Syke,Deutschland,http://www.kirschwhisky.de,,10
0399,Dimpfl Bräu Strauß KG,Bräuhausstraße 34,D-93437,Furth im Wald,Deutschland,http://www.dimpfl-bier.de,,10
0400,Dinkelacker-Schwaben Bräu GmbH & Co. KG,Tübinger Straße 46,D-70178,Stuttgart,Deutschland,http://www.familienbrauerei-dinkelacker.de,,10
0401,Distelhäuser Brauerei Ernst Bauer GmbH & Co. KG,Grünsfelder Straße 3,D-97941,Tauberbischofsheim,Deutschland,http://www.distelhaeuser.de,,10
0402,Dithmarscher Brauerei Karl Hintz Isebrand Brennerei GmbH & Co. KG,Üsterstraße 18,D-25709,Marne (Holstein),Deutschland,http://www.dithmarscher.de,,10
0403,Ditzinger Wichtel GmbH & Co. KG,Korntaler Straße 4,D-71254,Ditzingen,Deutschland,http://www.wichtel.de,,10
0404,DIVARINI GmbH & Co. KG,Salzstraße 94,D-74076,Heilbronn,Deutschland,,,10
0405,Diversa Spezialitäten GmbH,Hubert-Underberg-Allee 1,D-47495,Rheinberg,Deutschland,http://www.diversa-spez.de,,10
0406,Döhler GmbH,Riedstraße,D-64295,Darmstadt,Deutschland,http://www.doehler.de,,10
0407,Dolomiti Alpenfeinkost GmbH Italien,Verdiplatz 43,I-39100,Bozen,Italien,http://www.dolomiti-alpenfeinkost.com,,10
0408,Dom-Brauerei GmbH,Alteburger Straße 145-155,D-50968,Köln,Deutschland,http://www.dom-koelsch.de,,10
0409,Doornkaat AG,Ritterstraße 7,D-49740,Haselünne,Deutschland,,,10
0410,Dorn Bräu Ammerndorf,Marktplatz 1-2,D-90614,Ammerndorf,Deutschland,http://www.ammerndorfer-bier.de,,10
0411,Dortmunder Actien-Brauerei Aktiengesellschaft,Steigerstraße 20,D-44145,Dortmund,Deutschland,http://www.dab.de,,10
0412,Dovgan GmbH AUTHENTISCHE KÜCHE,Zinkhüttenweg 6,D-22113,Hamburg,Deutschland,http://www.dovgan.de,,10
0413,Dr Pepper Snapple Group; Inc,5301 Legacy Drive,US-75024,Plano; Texas,USA,http://www.drpeppersnapplegroup.com,,10
0414,Drinks & Food Vertriebs-GmbH,Köpnicker Straße 1,D-06895,Zahna-Elster,Deutschland,http://www.drinksfood.de,,10
0415,Drinks & More GmbH & Co. KG,Hagener Straße 261,D-57223,Kreuztal,Deutschland,http://www.drinks-and-more.com,,10
0416,Drinks Union Deutschland GmbH,Ahornallee 1,D-99428,Weimar-Legefeld,Deutschland,https://www.drinksunion.de,,10
0417,DrinkStar GmbH,Äußere Oberaustraße 36/5,D-83026,Rosenheim,Deutschland,https://www.drinkstar.de,,10
0418,Duckstein GmbH,Holstenstraße 224,D-22765,Hamburg,Deutschland,http://www.duckstein.de,,10
0419,Duff Beer UG,Thüringer Straße 19,D-37269,Eschwege,Deutschland,,,10
0420,Duphorn & Franke GmbH & Co. KG,Schloßstraße 28-31,D-39240,Calbe/Saale,Deutschland,http://www.duphorn-franke.de,,10
0421,Durbacher Winzergenossenschaft eG,Nachtweide 2,D-77770,Durbach,Deutschland,http://www.durbacher.de,,10
0422,Düsseldorfer Privatbrauerei Frankenheim GmbH & Co. KG,Wielandstraße 12,D-40211,Düsseldorf,Deutschland,http://www.frankenheim.de,,10
0423,DUVEL MOORTGAT USA; LTD.,21 Railroad Avenue,US-13326,Cooperstown; New York,USA,http://www.duvel.com,,10
0424,E. Remy Martin & C°,20 Rue De La Scciete Vinicole,F-16100,Cognac,Frankreich,http://www.remymartin.com,,10
0425,Eberstädter Mineralbrunnen,Talstraße 20,D-74246,Eberstadt (Württemberg),Deutschland,http://www.eberstädter-mineralbrunnen.de,,10
0426,Ebner Fruchtsäfte GmbH,Im Kies 9,D-79771,Klettgau,Deutschland,http://www.ebner-fruchtsaefte.de,,10
0427,Eckes-Granini Deutschland GmbH,Ludwig-Eckes-Platz 1,D-55268,Nieder-Olm,Deutschland,http://www.eckes-granini.de,,10
0428,Edel-Kornbrennerei und Likörfabrik Schmittmann GmbH,Niederkasseler Straße 106,D-40547,Düsseldorf,Deutschland,http://www.schmittmann-korn.de,,10
0429,Edelbrände Senft GmbH & Co. KG,Dorfbachstraße 10,D-88682,Salem (Baden),Deutschland,http://www.edelbraende-senft.de,,10
0430,Edelbrennerei & Mosterei Henninger,Wippenau 2,D-91604,Flachslanden,Deutschland,http://www.edelbrennerei-henninger.de,,10
0431,Edelbrennerei Gierer,Auf der Egg 1,D-88131,Bodolz,Deutschland,http://www.gierer.li,,10
0432,Edelkorn-Brennerei Jos. Rosche (GmbH & Co. KG),Neustadtstraße 35-38,D-49740,Haselünne,Deutschland,http://www.rosche.de,,10
0433,Edelobstbrennerei Gerhard Wössner,Reint 1,D-78733,Aichhalden,Deutschland,http://www.edelobstbrennerei-woessner.de,,10
0434,Edelweißbrauerei Farny e.K.,Hofgut Dürren,D-88353,Kißlegg,Deutschland,http://www.farny.de,,10
0435,Eder & Heylands Brauerei GmbH und Co. KG,Aschaffenburger Straße 3-5,D-63762,Großostheim,Deutschland,http://www.eders.de,,10
0436,EFAG GmbH & Co. KG,Neue Welt 32,D-88471,Laupheim,Deutschland,http://www.efag.com,,10
0437,Eggers & Franke Holding GmbH,Konsul-Smidt-Straße 8 J,D-28217,Bremen,Deutschland,http://www.egfra.de,,10
0438,Eichener Brauerei Gebr. Schweisfurth GmbH,Eichener Straße 40,D-57223,Kreuztal,Deutschland,http://www.eichener.de,,10
0439,Eico-Quelle GmbH & Co. KG,Hengstfelder Straße 33,D-74599,Wallhausen,Deutschland,http://www.eico-quelle.de,,10
0440,EIFEL-Quelle GmbH,Zum Heilbrunnen,D-56656,Brohl-Lützing,Deutschland,http://www.eifel-quelle.de,,10
0441,Einbecker Brauhaus AG,Papenstraße 4-7,D-37574,Einbeck,Deutschland,http://www.einbecker.de,,10
0442,Einig-Zenzen GmbH & Co. KG,Carl-Friedrich-Benz-Straße 8,D-56759,Kaisersesch,Deutschland,http://www.einig-zenzen.de,,10
0443,Einsiedler Brauhaus GmbH,Einsiedler Hauptstraße 144,D-09123,Chemnitz,Deutschland,http://www.einsiedler.de,,10
0444,Eittinger Fischerbräu,St.-Georg-Straße 8,D-85462,Eitting,Deutschland,http://www.eittinger.de,,10
0445,ELKA GmbH Frischsaftherstellung,Siemensstraße 1,D-63303,Dreieich,Deutschland,http://www.elka-gmbh.de,,10
0446,Elztalbrennerei Georg Weis GmbH,Elzstraße 39-41,D-79261,Gutach im Breisgau,Deutschland,http://www.elztalbrennerei.de,,10
0447,EMIG GmbH & Co. KG,Halstenbeker Weg 98,D-25462,Rellingen,Deutschland,http://www.emig.de,,10
0448,Emil Scheibel Schwarzwald-Brennerei GmbH,Grüner Winkel 32,D-77876,Kappelrodeck,Deutschland,http://www.scheibel-brennerei.de,,10
0449,Engelbrauerei Rettenberg Hermann Widenmayer KG,Burgberger Straße 7,D-87549,Rettenberg,Deutschland,http://www.engelbraeu.de,,10
0450,Ensinger Mineral-Heilquellen GmbH,Horrheimer Straße 28-36,D-71665,Vaihingen an der Enz,Deutschland,http://www.ensinger.com,,10
0451,Enzianbrennerei Grassl GmbH & Co. KG,Salzburgerstraße 105,D-83471,Berchtesgaden,Deutschland,http://www.enzian-grassl.de,,10
0452,EOS Getränke GmbH,Birkelstraße 11,D-71384,Weinstadt,Deutschland,http://www.eos-bio.de,,10
0453,Erfrischungsgetränke-Union Kulmbacher Gruppe GmbH,Lichtenfelser Straße 9,D-95326,Kulmbach,Deutschland,http://www.erfrischungsgetraenke-union.com,,10
0454,Ernteband Fruchtsaft GmbH,Marbacher Straße 12,D-71364,Winnenden,Deutschland,http://www.ernteband.de,,10
0455,Erste Dampfbierbrauerei W. Pfeffer GmbH & Co. KG,Regener Straße 9,D-94227,Zwiesel,Deutschland,http://www.dampfbier.de,,10
0456,Erste Frankfurter Hausbrauerei 12 Apostel Ana Ribicic OHG,Rosenbergerstraße 1,D-60313,Frankfurt am Main,Deutschland,http://www.12apostel.net,,10
0457,Erste Markgräfler Winzergenossenschaft Schliengen-Müllheim e.G.,Am Sonnenstück 1,D-79418,Schliengen,Deutschland,http://www.sonnenstueck.de,,10
0458,Erste Oberländische Dampfbierbrauerei,Hirschberger Straße 1,D-07356,Bad Lobenstein,Deutschland,http://www.brauhaus-lobenstein.de,,10
0459,Erwin Dietz GmbH,Industriepark 2,D-74706,Osterburken,Deutschland,http://www.dietz-fruchtsaefte.de,,10
0460,Erzeugergemeinschaft Goldenes Rheinhessen w.V.,Mainzer Landstraße 21,D-55237,Bornheim,Deutschland,http://www.goldenes-rheinhessen.de,,10
0461,Erzquell Brauerei Bielstein Haas & Co. KG,Bielsteiner Straße 108,D-51674,Wiehl-Bielstein,Deutschland,http://www.erzquell.de,,10
0462,Eschenbacher Privatbrauerei GmbH,Eltmanner Straße 12,D-97483,Eltmann,Deutschland,http://www.eschenbacher.de,,10
0463,Eschweger Klosterbrauerei GmbH,Thüringer Straße 19,D-37269,Eschwege,Deutschland,http://www.eschweger-klosterbrauerei.de,,10
0464,Ettaler Klosterbetriebe GmbH,Kaiser-Ludwig-Platz 1,D-82488,Ettal,Deutschland,http://www.klosterbrauerei-ettal.de,,10
0465,EUCO GmbH,New-York-Ring 6,D-22297,Hamburg,Deutschland,,,10
0466,EURO-ASIEN- Brauereien Holding GmbH,Bayerstraße 15,D-80335,München,Deutschland,http://www.oyex.de,,10
0467,EXTERNSTEIN QUELLE Getränke GmbH,Holbeinweg 25,D-32760,Detmold,Deutschland,,,10
0468,Fachingen Heil- und Mineralbrunnen GmbH,Brunnenstraße 11,D-65626,Birlenbach OT Fachingen,Deutschland,http://www.fachingen.de,,10
0469,Familienbrauerei Bauhöfer GmbH & Co. KG,Ullenburgstraße 14,D-77871,Renchen-Ulm,Deutschland,http://www.ulmer-bier.de,,10
0470,Familienbrauerei Ernst Bauer KG,Täubchenweg 5-7,D-04103,Leipzig,Deutschland,http://www.bauer-bier.de,,10
0471,Familienbrauerei Georg Meinel GmbH,Alte Plauener Straße 24,D-95028,Hof (Saale),Deutschland,http://www.meinel-braeu.de,,10
0472,Familienbrauerei Jacob oHG,Ludwigsheide 2,D-92439,Bodenwöhr,Deutschland,http://www.brauerei-jacob.de,,10
0473,Familienbrauerei M. Ketterer GmbH & Co. KG,Frombachstraße 27,D-78132,Hornberg,Deutschland,http://www.kettererbier.de,,10
0474,Fassbier 24,Horstring 12,D-76829,Landau in der Pfalz,Deutschland,http://www.fassbier24.com,,10
0475,Faxe Getränke-Vertrieb GmbH,Wöhlerstraße 8a,D-22113,Hamburg,Deutschland,,,10
0476,Fein-Brennerei Thomas Prinz GmbH,Ziegelbachstraße 7,D-06912,Hörbranz,Deutschland,http://www.prinz.cc,,10
0477,Feinbrennerei W.Northoff,Hultroper Dorfstraße 21,D-59510,Lippetal-Hultrop,Deutschland,http://www.feinbrennerei-northoff.de,,10
0478,Feist Belmont´sche Sektkellerei GmbH,Niederkircher Straße 27,D-54294,Trier,Deutschland,,,10
0479,Feldschlößchen Aktiengesellschaft,Cunnersdorfer Straße 25,D-01189,Dresden,Deutschland,http://www.feldschloesschen.de,,10
0480,Feldschlösschen Brauerei GmbH,Brauereistraße 2,D-46499,Hamminkeln,Deutschland,http://www.feldschloesschen-brauerei.de,,10
0481,Felix Rauter GmbH & Co. KG,Brunnenstraße 15-23,D-45128,Essen,Deutschland,http://www.rauter.de,,10
0482,Fellbacher Weingärtner eG,Kappelbergstraße 48,D-70734,Fellbach,Deutschland,http://www.fellbacher-weine.de,,10
0483,Ferienweingut Marco Burg,Bergstraße 27 a,D-56861,Reil,Deutschland,http://www.hausburgblick.de,,10
0484,Fidel Dreher GmbH,Industriestraße 28,D-78333,Stockach,Deutschland,http://www.dreher-stockach.de,,10
0485,Firma Andreas Sinner Obstwein-und Süßmostkelterei; Weinhandlung e.K.,Radolfzellerstraße 1,D-78351,Bodman-Ludwigshafen,Deutschland,http://www.sinner-fruchtsaft.de,,10
0486,Firma Norbert Rabe GmbH & Co. KG,Von-Galen-Straße 36,D-59063,Hamm,Deutschland,http://www.getraenke-rabe-nrw.de,,10
0487,Fischer's Stiftungsbräu Zweigniederlassung der Privatbrauerei Erdinger Weißbräu Werner Brombach GmbH,Daimlerstraße 5,D-85435,Erding,Deutschland,http://www.stiftungsbraeu.de,,10
0488,Fischers Brauhaus GmbH & Co. KG,Auf der Lehr 30,D-72116,Mössingen,Deutschland,http://www.fischers-frisches.de,,10
0489,Fläming Quellen GmbH & Co. KG,Mehlbeerenweg 2,D-14827,Wiesenburg/Mark,Deutschland,http://www.prinzenburger.com,,10
0490,Fläminger Spirituosen GmbH,Köpnicker Straße 1,D-06895,Zahna-Elster,Deutschland,http://www.flaeminger.de,,10
0491,Flensburger Brauerei- Verwaltungsgesellschaft mbH,Munketoft 12,D-24937,Flensburg,Deutschland,http://www.bio-bier.de,,10
0492,Flötzinger Brauerei Franz Steegmüller GmbH & Co. KG,Herzog-Heinrich-Straße 7,D-83022,Rosenheim,Deutschland,http://www.floetzinger.de,,10
0493,Flying Bird - Drinks & More,Eckdrift 107,D-19061,Schwerin,Deutschland,http://www.fertigcocktail24.de,,10
0494,FMS-Getränke,Harpe 1,D-29465,Schnega,Deutschland,http://www.fms-hamburg.de,,10
0495,FOHR Brauerei GmbH & Co. KG,An der Brauerei,D-56235,Ransbach-Baumbach,Deutschland,http://www.brauerei-fohr.de/,,10
0496,Fontana Bodegas & Viñedos,Extramuros S/N,ES-16411,Fuente de Pedro Naharro; Cuenca,Spanien,http://www.bodegasfontana.com,,10
0497,Fontanis Mineralbrunnen GmbH,Gerhard-Rummler-Straße 1,D-74343,Sachsenheim,Deutschland,http://www.fontanis.de,,10
0498,Forstetal Quelle Getränke GmbH,Am Waldstadion 1,D-32805,Horn,Deutschland,http://www.forstetal.de,,10
0499,Förstina-Sprudel Mineral- und Heilquelle Ehrhardt & Sohn GmbH & Co.,Rhönstraße 48,D-36124,Eichenzell-Lütter,Deutschland,http://www.foerstina-sprudel.de,,10
0500,Frank Jehring e.K. Schwechower Obstbrennerei,Am Park 5,D-19230,Schwechow,Deutschland,http://www.schwechower.de,,10
0501,Franken Bräu Lorenz Bauer GmbH & Co. KG,Neundorf 41,D-96268,Mitwitz,Deutschland,http://www.frankenbraeu.de,,10
0502,Franken Brunnnen GmbH & Co. KG,Bamberger Straße 90,D-91413,Neustadt/Aisch,Deutschland,http://www.frankenbrunnen.de,,10
0503,Franken Brunnnen GmbH & Co. KG - Betrieb Bad Windsheim,Illesheimer Straße 15,D-91438,Bad Windsheim,Deutschland,http://www.residenzquelle.de/,,10
0504,Frankenwälder Brauhaus GmbH,Hofer Straße 21,D-95119,Naila,Deutschland,http://www.frankenwaelder-brauhaus.de,,10
0505,Frankfurter Brauhaus GmbH,Lebuser Chaussee 3,D-15234,Frankfurt (Oder),Deutschland,http://www.frankfurter-brauhaus.de,,10
0506,Franz Fies GmbH Schwarzwälder Edelobstbrennerei,Kastelbergstraße 2,D-77704,Oberkirch,Deutschland,http://www.fiesbrennerei.de,,10
0507,Franz Stettner & Sohn GmbH,Stettner Straße 9-13,D-83059,Kolbermoor,Deutschland,http://www.franzstettner.de,,10
0508,Franz Wilhelm Langguth Erben GmbH & Co. KG,Dr.-Ernst-Spies-Allee 2,D-56841,Traben-Trarbach,Deutschland,http://www.langguth.de,,10
0509,Fratelli Branca Distillerie,via Broletto 35,I-20121,Milano,Italien,http://www.brancadistillerie.com,,10
0510,Frdr. Jaster & Co. OHG,Hauptstraße 23,D-31028,Gronau/Leine,Deutschland,http://www.lockstedter.de,,10
0511,Frederic Robinsons Ltd,Lower Hillgate,GB-SK1 1JJ,Stockport; Cheshire,Vereintes Königreich,http://www.robinsonsbrewery.com,,10
0512,Freiberger Brauhaus GmbH,Am Fürstenwald 1,D-09599,Freiberg,Deutschland,http://www.freiberger-pils.de,,10
0513,Freixenet GmbH,Robert-Koch-Straße 50,D-55129,Mainz,Deutschland,http://www.freixenet.de,,10
0514,Freixenet; S.A.; Headquartered,C/ JOAN SALA 2,ES-8770,Dant Sadurní d'Anoia; Barcelona,Spanien,http://www.freixenet.com,,10
0515,Freyersbacher Schwarzwaldquellen GmbH & Co. KG,Renchtalstraße 31-33,D-77740,Bad Peterstal-Griesbach,Deutschland,http://www.freyersbacher.de,,10
0516,Frhr. v. Poschinger-Bray´sche Schlossbrauerei Irlbach GmbH,Graf-von-Bray-Straße 14,D-94342,Irlbach,Deutschland,http://www.irlbacher.de,,10
0517,Friedrich Kiefer KG Privatkellerei - Weingut,Bötzinger Straße 13,D-79356,Eichstetten,Deutschland,http://www.weingutkiefer.de,,10
0518,Friedrich Lütvogt GmbH & Co. KG Mineralbrunnenbetrieb Auburg-Quelle,Hauptstraße 84,D-49419,Wagenfeld,Deutschland,http://www.auburg.de,,10
0519,Friedrich Schwarze GmbH & Co. KG,Paulsburg 1-3,D-59302,Oelde,Deutschland,http://www.schwarze-schlichte.de,,10
0520,Friesisches Brauhaus zu Jever GmbH & Co. KG,Elisabethufer 18,D-26441,Jever,Deutschland,http://www.jever.de,,10
0521,fritz-kulturgüter GmbH,Spaldingstraße 64-68,D-20097,Hamburg,Deutschland,http://www.fritz-kola.de,,10
0522,Fruchtsaft Bayer GmbH & Co. KG,Grabenäckerstraße 1,D-71254,Ditzingen,Deutschland,http://www.fruchtsaft-bayer.de,,10
0523,Fruchtsaftkelterei Daniel Stiefel e.K,Hübscher 2,D-88213,Ravensburg,Deutschland,http://www.stiefel-fruchtsaft.com,,10
0524,Fruchtsaftkelterei Karl Schütz GmbH,Weinbergstraße 9,D-74395,Mundelsheim,Deutschland,http://www.schuetz-fruchtsaft.de,,10
0525,Fruchtsaftkelterei Zimmer GmbH,Im Großfeld 2,D-77866,Rheinau,Deutschland,http://www.zimmer-fruchtsaft.de,,10
0526,FSP Frischsaft FRISCHE Produktions GmbH,Ruckes 90,D-41238,Mönchengladbach,Deutschland,http://www.frische.com,,10
0527,Fuerstlich Fuerstenbergische Brauerei,Postplatz 1-4,D-78166,Donaueschingen,Deutschland,http://www.fuerstenberg.de,,10
0528,Fürst Bismarck-Quelle Blaue Quellenu. Heilbrunnen AG,Schönningstedter Straße,D-21521,Aumühle,Deutschland,http://www.fuerstbismarckquelle.de,,10
0529,Fürst von Metternich Sektkellerei GmbH,Biebricher Allee 142,D-65187,Wiesbaden,Deutschland,http://www.fuerst-von-metternich.de,,10
0530,Fürst von Wrede GmbH & Co. Unternehmens KG Schlossbrauerei Ellingen,Schloss-Straße 10,D-91792,Ellingen,Deutschland,http://www.fuerst-carl.de,,10
0531,Fürst Wallerstein Brauhaus GmbH,Berg 78,D-86757,Wallerstein,Deutschland,http://www.fuerstwallerstein-brauhaus.de,,10
0532,Fürstenquellen Bad Imnau GmbH,Badstraße 30,D-72401,Haigerloch,Deutschland,http://www.fuerstenquellen.de,,10
0533,Fürstlich Bissinger Auerquelle W. Hörhammer GmbH & Co. KG,Auerweg 1,D-86657,Bissingen,Deutschland,http://www.auerquelle.de,,10
0534,Fürstlich Fürstenbergische Brauerei GmbH & Co. KG,Postplatz 1-4,D-78166,Donaueschingen,Deutschland,http://www.fuerstenberg.de,,10
0535,Fürstlich von Bismarck'sche Brennerei GmbH,Am Schloßteich 9,D-21521,Friedrichsruh bei Hamburg,Deutschland,http://www.fuerstbismarck-kornbrand.de,,10
0536,Fürstliche Brauerei Schloß Wächtersbach Vertriebs GmbH,Schloßstraße 8,D-63607,Wächtersbach,Deutschland,,,10
0537,Fürstliche Brauerei Thurn und Taxis Vertriebsgesellschaft mbH,Am Kreuzhof 5,D-93055,Regensburg,Deutschland,http://www.thurnundtaxisbiere.de,,10
0538,FZ Getränke GmbH,An der Leiten 4,D-87672,Roßhaupten,Deutschland,http://www.fz-getraenke.de,,10
0539,G. Schlink GmbH Weinhandlung,Neufelder Weg 67,D-55543,Bad Kreuznach,Deutschland,,,10
0540,G. Schneider & Sohn GmbH,Emil-Ott-Straße 1-5,D-93309,Kelheim,Deutschland,http://www.schneider-weisse.des,,10
0541,Gabriel Boudier Dijon,14 rue de Cluj,F-21074,Dijon,Frankreich,http://www.boudier.com,,10
0542,Gambrinus-Brauerei GmbH,Keplerstraße 15-23,D-92637,Weiden in der Oberpfalz,Deutschland,http://www.gambrinus-weiden.de,,10
0543,Gampertbräu Gebr. Gampert GmbH & Co. KG,Braustraße 2-4,D-96369,Weißenbrunn,Deutschland,http://www.gampertbraeu.de,,10
0544,Gansbrauerei GmbH & Co. KG,Ringstraße 4,D-92318,Neumarkt,Deutschland,http://www.gansbrauerei.de,,10
0545,Gasthaus Brauerei Wismar GmbH,Kleine Hohe Straße 15,D-23966,Wismar,Deutschland,http://www.brauhaus-wismar.de,,10
0546,Gasthaus-Brauerei Hufeisen,Hauptstraße 36-38 + 38,D-91278,Pottenstein (Oberfranken),Deutschland,http://www.hufeisen-braeu.de,,10
0547,Gasthaus-Brauerei Vetter,Steingasse 9,D-69117,Heidelberg,Deutschland,http://www.brauhaus-vetter.de,,10
0548,Gasthausbrauerei `Meierei im neuen Garten` GmbH,Im Neuen Garten 10,D-14469,Potsdam,Deutschland,http://www.meierei-potsdam.de,,10
0549,Gasthausbrauerei Felsenkeller,Humboldtstraße 37,D-99425,Weimar,Deutschland,http://www.felsenkeller-weimar.de,,10
0550,Gasthausbrauerei Umstädter Brauhaus,Zimmerstraße 28,D-64823,Groß-Umstadt,Deutschland,http://www.unstaedter-brauhaus.de,,10
0551,Gasthausbrauerei Wismar GmbH,Kleine Hohe Straße 15,D-23966,Wismar,Deutschland,http://www.brauhaus-wismar.de,,10
0552,Gasthof und Brauerei Scheubel,Kirchplatz 12,D-96132,Schlüsselfeld,Deutschland,http://www.brauerei-scheubel.de,,10
0553,GB Gastronomie Beteiligungs GmbH,Am Feldrain 1,D-18437,Stralsund,Deutschland,,,10
0554,gdp Global Drinks Partnership GmbH,Marienstraße 17,D-80331,München,Deutschland,http://www.global-drinks-partnership.de,,10
0555,Gebr. Bertrams GmbH & Co. KG,Anhovener Straße 22 - 26,D-41844,Wegberg/Rath-Anhoven,Deutschland,http://www.bertrams-juice.de,,10
0556,Gebr. Both GmbH,Feldstraße 203,D-47574,Goch,Deutschland,http://www.hasebrink.de,,10
0557,Gebr. Kaiser Brauerei Kaiserhof GmbH & Co. KG,Friesener Straße 1,D-96317,Kronach,Deutschland,http://www.kaiserhofbraeu.de,,10
0558,Gebr. Müller Müllerbräu GmbH & Co. KG,Hauptplatz 36,D-85276,Pfaffenhofen,Deutschland,http://www.muellerbraeu.com,,10
0559,Gebr. Sünner GmbH & Co. KG Brauerei und Brennerei,Kalker Hauptstraße 260,D-51103,Köln,Deutschland,http://www.suenner.de,,10
0560,Gebr. Westhoff GmbH & Co. KG,Emil-Sommer-Straße 8,D-28329,Bremen,Deutschland,http://www.westhoff.de,,10
0561,Gebr.Bertrams GmbH & Co. KG Säfte,Anhovener Straße 22 - 26,D-41844,Wegberg,Deutschland,http://www.bertrams-juice.de,,10
0562,Gedig Getränkefachgroßhändler,Zettachring 8 A,D-70567,Stuttgart,Deutschland,http://www.gedig.dehome.de.html,,10
0563,Gefa Nürnberger Likörfabrik Bacchus-Kellerei GmbH,Feldgasse 37-41,D-90489,Nürnberg,Deutschland,http://www.gluehwein.net,,10
0564,Gefako GmbH & Co.,Schäferhauserstraße 2,D-73240,Wendlingen,Deutschland,http://www.gefako.de,,10
0565,Geflügelhof Jürgen Heitmann,Heitmannsweg 1,D-33442,Herzebrock-Clarholz,Deutschland,http://www.heitmanns-eierlikoer.de,,10
0566,Gehring-Bunte Getränke Industrie GmbH & Co. KG,Gottlieb-Daimler-Straße 26,D-33334,Gütersloh,Deutschland,http://www.christinen-brunnen.de,,10
0567,Gekopa GmbH & Co. KG Getränke Kooperations Partner,Butenlandwehr 52,D-59368,Werne,Deutschland,http://www.gekopa.de,,10
0568,Geldermann Privatsektkellerei GmbH,Am Schlossberg 1,D-79206,Breisach am Rhein,Deutschland,http://www.geldermann.de,,10
0569,Gemünder Brauerei GmbH & Co.,Kölner Straße 69,D-53937,Schleiden-Gemünd,Deutschland,http://www.gemuender-brauerei.de,,10
0570,Gemüsesaft GmbH,Obere Mäurichstraße 4,D-74196,Neuenstadt am Kocher,Deutschland,http://www.gemuesesaft.de,,10
0571,Genossenschaftskellerei Heilbronn-Erlenbach-Weinsberg eG,Binswanger Straße 150,D-74076,Heilbronn,Deutschland,http://www.wg-heilbronn.de,,10
0572,Georg Hemmeter GmbH,Justus-von-Liebig-Straße 2,D-85435,Erding,Deutschland,http://www.xuxu.de,,10
0573,Gepard Getränke Partnerdienst GmbH,Im Schleeke 115-116,D-38640,Goslar,Deutschland,,,10
0574,Gerald Zumbach Fruchtsäfte,Im Eiselbrunnen 3,D-76703,Kraichtal,Deutschland,http://www.zumbach-fruchtsaft.de,,10
0575,Germania Brauerei GmbH,Meierottostraße8-9,D-10719,Berlin,Deutschland,http://www.schlossbrauerei-fuerstlich-drehna.de,,10
0576,Gerolsteiner Brunnen GmbH & Co. KG,Vulkanring,D-54567,Gerolstein,Deutschland,http://www.gerolsteiner.de,,10
0577,Gerstacker Weinkellerei & Likörfabrik GmbH,Mainstraße 9,D-90451,Nürnberg,Deutschland,http://www.gerstacker-weinkellerei.de,,10
0578,Gesellschaft f. Erfrischungsgetränke GmbH,Seltersweg,D-35792,Löhnberg,Deutschland,,,10
0579,Gesundbrunnen Bad Rilchingen GmbH & Co. KG,Von-der-Leyen-Straße 7,D-66271,Kleinblittersdorf,Deutschland,http://www.rilchinger.de,,10
0580,Getränke Ahlers GmbH,Industriestraße 15,D-28832,Achim,Deutschland,http://www.ahlersgetraenke.de,,10
0581,Getränke Geins GmbH & Co. KG,Gutenbergstraße 7,D-94036,Passau,Deutschland,http://www.getraenke-geins.de,,10
0582,Getränke Herbert GmbH & Co. KG,Im Strittchen 4,D-36399,Weidenau,Deutschland,http://www.getraenke-herbert.de,,10
0583,Getränke Kelemidis GmbH und Co. KG,Mettinger Straße 22,D-70327,Stuttgart,Deutschland,http://www.kelemidis.de,,10
0584,Getränke Rieder GmbH,Schwarzer Helm 5,D-93086,Wörth/Donau,Deutschland,http://www.rieder-getraenke.de,,10
0585,Getränke Schöttl,Starkertshofen 18,D-85084,Reichertshofen,Deutschland,http://www.schoettl.wir-liefern-getraenke.de,,10
0586,Getränke Waldhoff GmbH & Co. KG,Lütmarser Straße 102,D-37671,Höxter,Deutschland,http://www.waldhoff.de,,10
0587,Getränke Wimmer,Dunsernstraße 1,D-83562,Hart; Rechtmehring,Deutschland,http://www.getraenke-wimmer.de,,10
0588,Getränke-Handels-Cooperation e.G.,Poll-Vingster-Straße 140-148,D-51105,Köln,Deutschland,,,10
0589,Getränkehaus Plöchl GmbH & Co. KG,Klingenbrunner Straße 13 a,D-94261,Kirchdorf i. Wald,Deutschland,http://www.ploechl.de,,10
0590,Getränkeland LOMA GmbH,Nordergeest; 5,D-25826,St. Peter-Ording,Deutschland,http://www.spo-aquavit.de,,10
0591,Getränkevertrieb Ludwig Haueisen GmbH,Bonländer Hauptstraße 50,D-70794,Filderstadt,Deutschland,http://www.getraenke-haueisen.de,,10
0592,GHG Getränkehandels-GmbH,Bodenbacher Straße 30,D-01277,Dresden,Deutschland,http://www.ghg-web.de,,10
0593,GHL Noris Getränke GmbH,Bamberger Straße 90,D-91413,Neustadt/Aisch,Deutschland,http://www.ghl-noris.de,,10
0594,Giacobazzi A. e Figli Srl,Viale Carlo Sigonio 50,I-41124,Modena (MO),Italien,http://www.giacobazzivini.it,,10
0595,GIB Gesellschaft für Importbiere und Bierspezialitäten mbH,Darmstädter Landstraße 185,D-60598,Frankfurt,Deutschland,http://www.pionier-glutenfrei.de,,10
0596,Gilde Brauerei Aktiengesellschaft,Hildesheimer Straße 132,D-30173,Hannover,Deutschland,http://www.gildebrau.de,,10
0597,Gilden Kölsch Brauerei GmbH,Bergisch Gladbacher Straße 116-134,D-51065,Köln,Deutschland,http://www.gilden.de,,10
0598,Glaabsbräu GmbH & Co. KG,Frankfurter Straße 9,D-63500,Seligenstadt,Deutschland,http://www.glaabsbraeu.de,,10
0599,Glashäger Brunnen GmbH,Schwaaner Chaussee 1,D-18209,Bad Doberan,Deutschland,http://www.glashaeger.de,,10
0600,GLOBAL PREMIUM BRANDS S.A.,Avdenida Conde de Romanones 18,ES-19200,Azuqueca de Henares Guadalajara,Spanien,http://www.globalpremiumbrands.com,,10
0601,Glockengold Fruchtsaft GmbH,Hirschrodaer Straße 13,D-06636,Laucha an der Unstrut,Deutschland,http://www.glockengold.de,,10
0602,Glückauf-Brauerei GmbH,Hauptstraße 176,D-09355,Gersdorf,Deutschland,http://www.glueckaufbiere.de,,10
0603,Godefroy H. von Mumm & Co. Sektkellereien GmbH,Geheimrat-Hummel-Platz 1,D-65239,Hochheim am Main,Deutschland,http://www.jules-mumm.de,,10
0604,Gorbatschow Wodka KG,Indira-Gandhi-Straße 66-69,D-13053,Berlin,Deutschland,http://www.wodka-gorbatschow.de,,10
0605,Gottsmannsgrüner v. Kochsche Familien-Brauerei GmbH & Co. KG Gottsmannsgrün i. Bayern,von-Koch-Straße 2,D-95180,Berg (Oberfranken),Deutschland,http://www.gottsmannsgruener.de,,10
0606,GP Barteldrees,Lotkampsweg 12,D-33790,Halle,Deutschland,http://www.badmeinberger.de,,10
0607,Graf Metternich-Quellen Karl Schöttker KG,Brunnenstraße 24,D-32839,Steinheim (Westfalen),Deutschland,http://www.graf-metternich-quellen.de,,10
0608,Grafenquelle GmbH,Hinter dem Teiche 1,D-37520,Osterode am Harz/Förste,Deutschland,http://www.grafenquelle.de,,10
0609,Gräfl. Brauerei Arco-Valley; Adldorf e.Kfr.,Hauptstraße 14,D-94428,Eichendorf,Deutschland,http://www.graf-arco.de,,10
0610,Gräflich zu Stolbergsche Brauerei Westeheim GmbH,Kasseler Straße 7,D-34431,Westheim (Pfalz),Deutschland,http://www.westheimer.de,,10
0611,Gräfliche Brauerei Arco-Valley GmbH & Co. KG,Hauptstraße 14,D-94428,Eichendorf,Deutschland,http://www.graf-arco.de,,10
0612,Gräfliches Hofbrauhaus Freising GmbH,Mainburger Straße 26,D-85356,Freising,Deutschland,http://www.hofbrauhaus-freising.de,,10
0613,Grand Manier,91 boulevard Haussmann,F-75008,Paris,Frankreich,http://www.grand-marnier.com,,10
0614,Grasovka importowo-eksportowa GmbH,Hubert-Underberg-Allee 1,D-47495,Rheinberg,Deutschland,http://www.grasovka.de,,10
0615,Griesbacher Mineral- und Heilquellen GmbH,Gerhard-Rummler-Straße 1,D-74343,Sachsenheim,Deutschland,http://www.griesbacher.de,,10
0616,Gröninger Privat-Brauerei,Willy-Brandt-Straße 47,D-20457,Hamburg,Deutschland,http://www.groeninger-hamburg.de,,10
0617,Großkelterei Rötha GmbH,Waldstraße 4,D-04571,Rötha,Deutschland,http://www.roethaer.de,,10
0618,Grosswald Brauerei Bauer GmbH & Co. KG,Großwaldstraße 130,D-66265,Heusweiler,Deutschland,http://www.grosswald.de,,10
0619,Gruppo Campari Headquarters,Via Sacchetti 20,I-20099,Sesto San Giovanni,Italien,http://www.camparigroup.com,,10
0620,Guinness & Co.,St James's Gate,IR-8,Dublin,Irland,http://www.guinness.comde-de,,10
0621,Gülden Tor GmbH,Ihlenfelder Straße 131-133,D-17034,Neubrandenburg,Deutschland,http://www.guelden-tor.de,,10
0622,Güldenkron Fruchtsaft GmbH,Brückenstraße 9,D-57647,Nistertal,Deutschland,http://www.gueldenkron.de,,10
0623,Gunkel GmbH Natursäfte,Badstraße 34/1,D-74072,Heilbronn,Deutschland,http://www.gunkel-natursaft.de,,10
0624,Günther-Lehner-Stiftung GmbH Brauerei - Weinkellerei,Balinger Straße 7,D-72348,Rosenfeld,Deutschland,http://www.lehner-bier.de,,10
0625,Güstrower Schlossquell GmbH & Co. KG,Ziegeleiwiese 5,D-18273,Güstrow,Deutschland,http://www.guestrower.de,,10
0626,Gut Forstmannshof - Hofladen Böcker,Westrup 10,D-59348,Lüdinghausen,Deutschland,http://www.forstmannshof.de,,10
0627,Gutsbrennerei Joh. B. Geuting e. K.,Brennereiweg 8,D-46399,Bocholt-Spork,Deutschland,http://www.gutsbrennerei-geuting.de,,10
0628,GV-Getränke Vertriebs-GmbH,Justus-von-Liebig-Straße 7,D-12489,Berlin,Deutschland,,,10
0629,GVG Getränkevertriebsgesellschaft mbH,Detmolder Straße 767,D-33699,Bielefeld,Deutschland,,,10
0630,H. H. Pott Nfgr. Vertriebsgesellschaft mbH Rumhandelshaus,Wasserlooslück 1,D-24944,Flensburg,Deutschland,http://www.pott.de,,10
0631,H. Heydt GmbH & Co. KG,Neustadtstraße 11,D-49740,Haselünne,Deutschland,http://www.heydt.de,,10
0632,H. Kirsch GmbH,Paulsburg 1-3,D-59302,Oelde,Deutschland,,,10
0633,H.F. von Melle GmbH,Beckergrube 86,D-23552,Lübeck,Deutschland,http://www.von-melle.de,,10
0634,Haake-Beck Brauerei GmbH & Co. KG,Am Deich 18/19,D-28199,Bremen,Deutschland,http://www.haake-beck.de,,10
0635,Haaner Felsenquelle staatl. anerkannte Heilquelle GmbH,Flurstraße 140,D-42781,Haan,Deutschland,http://www.assindia.com/,,10
0636,Hacker-Pschorr Bräu GmbH,Ohlmüllerstraße 42,D-81541,München,Deutschland,http://www.hacker-pschorr.de,,10
0637,Häffner Bräu GmbH,Salinenstraße 24,D-74906,Bad Rappenau,Deutschland,http://www.hopfenstopfer.brauerei-haeffner.de,,10
0638,Hagelauer Likörfabrik GmbH,Sandstraße 110,D-57072,Siegen,Deutschland,http://www.hagelauer-likoerfabrik-gmbh.de,,10
0639,Hans Döhle GmbH Süßmosterei u. Fruchtsaftkelterei,Leester Straße 87,D-28844,Leeste Gemeinde Weyhe,Deutschland,,,10
0640,Hans Heller Brauerei,Hauptstraße 33,D-91074,Herzogenaurach,Deutschland,http://www.brauerei-heller.de,,10
0641,Hans Kaiser Brauerei,Grasmannsdorf 9,D-96138,Burgebrach,Deutschland,http://www.brauerei-kaiser.de,,10
0642,Hansa Mineralbrunnen GmbH,Halstenbeker Weg 98,D-25462,Rellingen,Deutschland,http://www.hansa-heemann.de,,10
0643,Hanse Sektkellerei Wismar GmbH,Turnerweg 4c,D-23966,Wismar,Deutschland,http://www.hanse-sektkellerei.de,,10
0644,Hanseatische Brauerei Rostock GmbH,Doberaner Str. 27,D-18057,Rostock,Deutschland,http://www.rostocker.de/,,10
0645,Hanseatische Weinhandelsgesellschaft mbH & Co. KG,Lukas-Welser-Straße 8,D-28309,Bremen,Deutschland,http://www.hawe-bremen.de,,10
0646,Hardenberg-Wilthen AG,Vorderhaus 2,D-37176,Nörten-Hardenberg,Deutschland,http://www.hardenberg-wilthen.de,,10
0647,Hardthof Fruchtsaft GmbH,Erbstetter Straße 26,D-71576,Burgstetten,Deutschland,http://www.hardthof.de,,10
0648,Hartl's Spirituosen GmbH,Sechsämterlandstraße 40,D-95632,Wunsiedel,Deutschland,,,10
0649,Härtsfelder Familienbrauerei Hald e.K.,Hofener Straße 19,D-89561,Dunstelkingen,Deutschland,http://www.haertsfelder.de,,10
0650,Hartwall Ltd,Hiomotie 32,FI-00380,Helsinki,Finnland,http://www.hartwall.fi,,10
0651,Harzer Brunnen GmbH,Hauptstraße 66,D-12159,Berlin,Deutschland,http://www.harzergrauhofbrunnen.com,,10
0652,Harzer Mineralquelle Blankenburg GmbH,Am Hasenwinkel 3,D-38889,Blankenburg,Deutschland,http://www.blankenburger-wiesenquell.de,,10
0653,Hasebrink J. KG Kornbrennerei Herst. U. Vertrieb von Spirituosen,Asternweg 45,D-41238,Mönchengladbach,Deutschland,,,10
0654,Hasen-Bräu Brauereibetriebsgesellschaft GmbH,Unterer Talweg 87,D-86179,Augsburg,Deutschland,http://www.hasen-braeu.de,,10
0655,Hasseröder Brauerei GmbH,Auerhahnring 1,D-38855,Wernigerode,Deutschland,http://www.hasseroeder.de,,10
0656,Hassia Mineralquellen GmbH & Co. KG,Gießener Straße 18-30,D-61118,Bad Vilbel,Deutschland,http://www.hassia.com,,10
0657,Hatz Moninger - Badische Brauhaus GmbH Karlsruhe,Durmersheimer Straße 59,D-76185,Karlsruhe,Deutschland,http://www.hatz-moninger.de,,10
0658,Hauff-Bräu Lichtenau GmbH & Co. KG,Marktplatz 1,D-98586,Lichtenau,Deutschland,http://www.hauff-braeu.com,,10
0659,Haus der 131 Biere,Karlshöhe 27,D-22175,Hamburg,Deutschland,http://www.haus-der-131-biere.de,,10
0660,Haus Kölscher Brautradition GmbH,Bergisch Gladbacher Straße 116-134,D-51065,Köln,Deutschland,http://www.peters-koelsch.info,,10
0661,Haus Rabenhorst O. Lauffs GmbH & Co. KG,Rabenhorststraße 1,D-53572,Unkel,Deutschland,http://www.rabenhorst.de,,10
0662,Hausbrauerei Eschenbräu,Triftstraße 67,D-13353,Berlin,Deutschland,http://www.eschenbraeu.de,,10
0663,Hausbrauerei Grünstadt Inh. Peter Häußler,Turnstraße 11,D-67269,Grünstadt,Deutschland,http://www.hausbrauerei-gruenstadt.de,,10
0664,Hausbrauerei im Domhof GmbH & Co. KG,Große Himmelsgasse 6,D-67346,Speyer,Deutschland,http://www.domhof.de,,10
0665,HB Herborner Bärenbräu GmbH,Alte Marburger Straße 4,D-35745,Herborn,Deutschland,http://www.herborner-bier.com,,10
0666,HBX-Stadtbrauerei am Aegi GmbH,Osterstraße 64,D-30159,Hannover,Deutschland,http://www.hbx-hannover.de,,10
0667,Hegauer Süßmostkelterei Wilhelm Auer OHG,Schloßstraße 33,D-78259,Mühlhausen-Ehingen,Deutschland,http://www.auer-obstsaefte.de,,10
0668,Heidelberger Brauerei GmbH,Kurpfalzring 112,D-69123,Heidelberg,Deutschland,http://www.heidelberger-brauerei.de,,10
0669,Heiko Blume GmbH & Co. KG,Russlandweg 16,D-26446,Friedeburg,Deutschland,http://www.blume-heiko.de,,10
0670,Heil- und Mineralquellen Germete GmbH,Am Brunnen 9,D-34414,Warburg,Deutschland,http://www.germete-gmbh.de,,10
0671,Heil-und Mineralbrunnen Johann Spielmann GmbH Stiftsquelle,Buerer Straße 368,D-46282,Dorsten,Deutschland,http://www.stiftsquelle.de,,10
0672,Heineken Deutschland GmbH,Ehrenbergstraße 19,D-10245,Berlin,Deutschland,http://www.heinekendeutschland.de,,10
0673,Heineken UK Limited,3-4 Broadway Park,GB-ESH12 9JZ,Edinburgh,Schottland,http://www.heineken.co.uk,,10
0674,Heinr. von Have GmbH & Co. KG,Sachsentor 32,D-21029,Hamburg,Deutschland,http://www.vonhave.de,,10
0675,Heinrich Feldmann OHG,Postdamm 289,D-33334,Gütersloh,Deutschland,http://www.feldmann-getraenke.de,,10
0676,Heinz Eggert GmbH & Co. KG,Dahlenburger Straße 21-23,D-29549,Bad Bevensen,Deutschland,http://www.heb-ra.de,,10
0677,Heinz Hein Weinhandel e.K.,Hofäckerstraße 7,D-65207,Wiesbaden,Deutschland,http://www.heinz-hein.de,,10
0678,Hela Wine & Spirits ApS,Venusvej 20,DK-6000,Kolding,Dänemark,http://www.spritfabrikken-danmark.dk,,10
0679,Held Bräu Inh. Helmut Polster,Oberailsfeld 19,D-95491,Ahorntal,Deutschland,http://www.held-braeu.de,,10
0680,Held Vodka GmbH,Lobeckstraße 30-35,D-10969,Berlin,Deutschland,http://www.heldth.com,,10
0681,Heldenpause GmbH,Tullastraße 14,D-69126,Heidelberg,Deutschland,http://www.heldenpause.de,,10
0682,Heller-Bräu Trum KG,Dominikanerstraße 6,D-96049,Bamberg,Deutschland,http://www.schlenkerla.de,,10
0683,Hellwege Spirituosen und Wein Vertriebs GmbH,Peiner Hag 6,D-25497,Prisdorf,Deutschland,http://www.hellwege-spirituosen.de,,10
0684,Henkell & Co. Sektkellerei KG,Biebricher Allee 142,D-65187,Wiesbaden,Deutschland,http://www.henkell-gruppe.de,,10
0685,Henninger-Bräu AG,Darmstädter Landstraße 185,D-60598,Frankfurt,Deutschland,http://www.henninger-bier.de,,10
0686,Hensen-Brauerei,Untere Straße 133,D-41068,Mönchengladbach,Deutschland,http://www.brauerei-hensen.de,,10
0687,Herbsthäuser Brauerei Wunderlich KG,Alte Kaiserstraße 28,D-97980,Bad Mergentheim-Herbsthausen,Deutschland,http://www.herbsthaeuser.de,,10
0688,Herforder Brauerei GmbH,Gebr.-Uekermann-Straße 1 ,D-32120,Hiddenhausen,Deutschland,http://www.herforder.de,,10
0689,Hermann Pfanner Getränke GmbH,Alte Landstraße 10,A-6923,Lauterach,Österreich,http://www.pfanner.com,,10
0690,Herres Gruppe Wein- und Sektkellerei Peter Herres GmbH,Rudolf-Diesel-Straße 7-9,D-54292,Trier,Deutschland,http://www.herres-sekt.com,,10
0691,Herrnbräu GmbH,Manchinger Straße 95,D-85053,Ingolstadt,Deutschland,http://www.herrnbraeu.de,,10
0692,Herzog Mineralbrunnen Schäfer Betriebsgesellschaft mbH,Riemker Straße 75-87,D-44809,Bochum,Deutschland,http://www.herzog-quelle.de,,10
0693,Herzogliches Bräustüberl Tegernsee Peter Hubert GmbH & Co. KG,Schlossplatz 1,D-83684,Tegernsee,Deutschland,http://www.braustuberl.de,,10
0694,Hessische Staatsweingüter GmbH Kloster Eberbach,Kloster Eberbach,D-65343,Eltville am Rhein,Deutschland,http://www.weingut-kloster-eberbach.de,,10
0695,Heuchelberg Weingärtner eG,Neipperger Straße 25,D-74193,Schwaigern/Württemberg,Deutschland,http://www.heuchelberg.de,,10
0696,HGI Hanseatische Getränke- Industrie GmbH,Holstenstraße 224,D-22765,Hamburg,Deutschland,,,10
0697,Hilmar Reichold; Brauerei,Hochstahl 24,D-91347,Aufseß,Deutschland,http://www.reichold.de,,10
0698,Himmelsberger Mineralbrunnen GmbH,Rehainer Straße 11,D-06917,Jessen (Elster),Deutschland,http://www.meg-gruppe.de,,10
0699,HiPP GmbH & Co. Vertrieb KG,Georg-Hipp-Straße 7,D-85276,Pfaffenhofen an der Ilm,Deutschland,http://www.hipp.de,,10
0700,Hirsch-Brauerei Honer GmbH & Co. KG,Friedrichstraße 34,D-78573,Wurmlingen,Deutschland,http://www.hirschbrauerei.de,,10
0701,Hirschbrauerei Ergenzingen Tobias & Markus Grammer GbR,Mercedesstraße 5,D-72108,Rottenburg-Ergenzingen,Deutschland,http://www.hirschbrauerei-ergenzingen.de,,10
0702,Hirschbrauerei Heubach GmbH & Co. KG,Hauptstraße 99,D-73540,Heubach,Deutschland,http://www.heubacher.de,,10
0703,Hirschbrauerei Schilling KG,Aglishardter Straße 37,D-72587,Römerstein - Böhringen,Deutschland,http://www.boehringer-biere.de,,10
0704,Hirschbrauerei Söhnstetten,Heidenheimer Straße 27,D-89555,Söhnstetten,Deutschland,http://www.hirschbrauerei-soehnstetten.de,,10
0705,Hochdorfer Kronenbrauerei Otto Haizmann KG,Rottweiler Straße 16-20,D-72202,Nagold,Deutschland,http://www.hochdorfer.de,,10
0706,Hochstiftliches Brauhaus Fulda GmbH,Leipziger Straße 12,D-36037,Fulda,Deutschland,http://www.hochstift.de,,10
0707,Hochstiftliches Brauhaus in Bayern GmbH & Co. KG,Brückenauer Straße 6,D-97786,Motten (Bayern),Deutschland,http://www.will-braeu.de,,10
0708,Hochwald-Sprudel Schupp GmbH,Am Sauerbrunnen 25-33,D-55767,Schwollen,Deutschland,http://www.hochwald-sprudel.de,,10
0709,Hofbrauhaus Hatz AG,Postfach 16 64,D-76406,Rastatt,Deutschland,http://www.hatz.de,,10
0710,Hofbräuhaus Traunstein Josef Sailer KG,Hofgasse 6,D-83278,Traunstein,Deutschland,http://www.hb-ts.de,,10
0711,Hofbrauhaus Wolters GmbH,Wolfenbütteler Straße 39,D-38102,Braunschweig,Deutschland,http://www.hofbrauhaus-wolters.de,,10
0712,Hofbrennerei Steinmann Sommerhausen,Neuenbergshof 2,D-97286,Sommerhausen,Deutschland,http://www.hofbrennerei-sommerhausen.de,,10
0713,Hofmann Fruchtsäfte GmbH & Co. KG,Keltereistraße 6,D-97720,Nüdlingen,Deutschland,http://www.hofmann-fruchtsaefte.de,,10
0714,Hohenloher Fruchtsäfte GmbH & Co. KG,Heidweg 11,D-74523,Schwäbisch Hall,Deutschland,http://www.hohenloher-fruchtsaefte.de/,,10
0715,Hohenthanner Schlossbrauerei GmbH & Co. KG,Brauhausstraße 1,D-84098,Hohenthann,Deutschland,http://www.hohenthanner.de,,10
0716,Holborn Vertriebsgesellschaft mbH,Wrangelstraße 6,D-24937,Flensburg,Deutschland,,,10
0717,Holsten-Brauerei AG,Holstenstraße 224,D-22765,Hamburg,Deutschland,http://www.holsten-pilsener.de,,10
0718,Hönicka-Bräu GmbH & Co. KG,Hofer Straße 31,D-95632,Wunsiedel,Deutschland,http://www.hoenicka.de,,10
0719,Hösl & Co. Brauhaus GmbH,Bahnhofstraße 1,D-95666,Mitterteich,Deutschland,http://www.hoeslbraeu.de,,10
0720,Hospitals-Kellerei GmbH,Heinrich-Heine-Straße 91 A,D-34121,Kassel,Deutschland,http://www.hospitals-kellerei.de,,10
0721,Höss Brau- und Vertriebs GmbH & Co. KG,Gewerbepark 35,D-87477,Sulzberg,Deutschland,http://www.hoess-bier.com,,10
0722,House of Beer - Feldschlösschen Getränke AG,Theophil-Roniger-Straße,CH-4310,Rheinfelden,Schweiz,http://www.houseofbeer.ch,,10
0723,Hövels Hausbrauerei GmbH,Hoher Wall 5-7,D-44137,Dortmund,Deutschland,http://www.hoevels-hausbrauerei.de,,10
0724,HS Spirituosen Vertriebs GmbH,Leipziger Ring 174,D-63110,Rodgau,Deutschland,http://www.zimtler.de,,10
0725,Hübner Bräu,Steinfeld 69,D-96187,Stadelhofen,Deutschland,http://www.huebner-braeu.de,,10
0726,Hugo Meyringer Brauerei,Regensburger Straße 5,D-93098,Mintraching,Deutschland,http://www.brauerei-meyringer.de,,10
0727,Huppendorfer Bier Brauerei und Gastwirtschaft Johannes Grasser,Huppendorf 25,D-96167,Königsfeld,Deutschland,http://www.huppendorfer-bier.de,,10
0728,Husumer Mineralbrunnen HMB GmbH & Co. KG,Osterhusumer Straße 124-128,D-25813,Husum,Deutschland,http://www.husumer-mineralbrunnen.de,,10
0729,Hütt-Brauerei Bettenhäuser GmbH & Co. KG,Knallhütter Straße 3,D-34225,Baunata,Deutschland,http://www.huett.de,,10
0730,Hutthurmer Bayerwald-Brauerei - Genossenschaftsbrauerei der Raiffeisenbank i. Lkrs. Passau-Nord eG,Marktplatz 5,D-94116,Hutthurm,Deutschland,http://www.hutthurmer.de,,10
0731,IBS Getränke-Vertriebs GmbH,Graf-Spee-Straße 37,D-24105,Kiel,Deutschland,,,10
0732,ILLVA Saronno SPA,Via Archimede 243,I-21047,Saronno (VA),Italien,http://www.illva.comen,,10
0733,Imnauer Mineralquellen GmbH,Badstraße 30,D-72401,Haigerloch Bad Imnau,Deutschland,http://www.imnauer.de,,10
0734,IN-SPIRIT GmbH,Allee 24-26,D-33161,Hövelhof,Deutschland,http://www.in-spirit.de,,10
0735,Ingobräu Ingolstadt GmbH,Harderstraße 20,D-85049,Ingolstadt,Deutschland,http://www.ingobraeu.de,,10
0736,Inselbrauerei Julius Feierling,Gerberau 46,D-79098,Freiburg im Breisgau,Deutschland,http://www.feierling.de,,10
0737,Inver House Distillers Limited,Moffat Distillery Towers Road,GB-ML6 8PL,Airdrie; North Lanarkshire,Vereintes Königreich,http://www.inverhouse.com,,10
0738,IQ 4 YOU GmbH,Geislinger Straße 61,D-73337,Bad Überkingen,Deutschland,http://www.iq4you.de,,10
0739,J. Bünting Teehandelshaus GmbH & Comp.,Brunnenstraße 37,D-26789,Leer (Ostfriesland),Deutschland,http://www.buenting-tee.de,,10
0740,J.J. Darboven GmbH & Co. KG,Pinkertweg 13,D-22113,Hamburg,Deutschland,http://www.darboven.com,,10
0741,Jacoby GmbH,Jacoby-Weg 1,D-79424,Auggen,Deutschland,http://www.jacoby.de,,10
0742,Jahncke Fruchtsäfte-Konzentrate GmbH & Co.,Asseler Straße 90,D-21706,Drochtersen,Deutschland,http://www.jahncke-fruchtsaefte.de,,10
0743,Jahns Bräu Christoph Jahns Erben Brauerei GmbH & Co. KG,Kronacher Straße 22,D-96337,Ludwigsstadt,Deutschland,http://www.jahns-braeu.de,,10
0744,Jesuiten-Quelle Mineralbrunnen GmbH,Gutsstraße 5,D-85055,Ingolstadt,Deutschland,http://www.jesuitenquelle.de,,10
0745,Jobelius Spirituosen / Peter Jobelius e.K,Moselweinstraße 1,D-56812,Valwig/Mosel,Deutschland,http://www.jobelius.de,,10
0746,Joh. Eggers Sohn GmbH Speicher,Konsul-Smidt-Straße 8 J,D-28217,Bremen,Deutschland,http://www.eggerssohn.com,,10
0747,Joh. Nik. Reinartz GmbH & Co. KG,Lindenstraße 20,D-40723,Hilden,Deutschland,http://www.jn-reinartz.de,,10
0748,Joh.Albrecht Brauerei- und Gastronomietechnik GmbH,Hanns-Schwindt-Straße 8,D-81829,München,Deutschland,http://www.joh-albrecht.com,,10
0749,Johann Modschiedler; Löwenbrauerei,Marktstraße 8,D-96155,Buttenheim,Deutschland,http://www.lowenbraeu-buttenheim.de,,10
0750,Josef Brautmeier Obstkelterei,Wittendorfer Straße 28,D-33129,Delbrück-Ostenland,Deutschland,http://www.brautmeier-apfelsaft.de,,10
0751,Josef Drathen GmbH & Co. KG,Fliehburgstraße 23,D-56856,Zell/Mosel,Deutschland,http://www.josef-drathen.de,,10
0752,Josef Friederich GmbH & Co. KG,Marientaler Au 51,D-56856,Zell,Deutschland,,,10
0753,Josef Mayer GmbH & Co. KG,Herrenlandstraße 69,D-78315,Radolfzell am Bodensee,Deutschland,http://www.weinmayer.de,,10
0754,Josef Pölz Alztaler Fruchtsäfte GmbH,Blumenweg 9,D-84518,Garching bei München,Deutschland,http://www.poelz.de,,10
0755,Josef Wieser & Co OHG Brauerei,Wiesmühl a. d. Alz,D-84549,Engelsberg,Deutschland,http://www.brauerei-wieser.de,,10
0756,Julius Hummel Brauerei u. Gasthof,Lindenstraße 9 OT Merkendorf,D-96117,Memmelsdorf,Deutschland,http://www.brauerei-hummel.de,,10
0757,Julius Zotz KG Weingut I Privatkellerei,Staufener Straße 3,D-79423,Heitersheim,Deutschland,http://www.weingut-zotz.de,,10
0758,Jura Distillery,Craighouse,GB-PA60 7XT,Isle of Jura; Argyll,Schottland,http://www.jurawhisky.com,,10
0759,Justbe GmbH & Co. KG,St. Michael 49,D-91056,Erlangen,Deutschland,http://www.just-be.com,,10
0760,K”nig-Brauerei GmbH,Friedrich-Ebert-Straße 255-263,D-47139,Duisburg,Deutschland,http://www.koenig.de,,10
0761,Kaiser Bräu GmbH & Co. KG,Oberer Markt 1,D-91284,Neuhaus,Deutschland,http://www.kaiser-braeu.de,,10
0762,Kaiser Brauerei GmbH,Schubartstraße 24/26,D-73312,Geislingen,Deutschland,http://www.kaiser-brauerei.de,,10
0763,Kaiserdom - Privatbrauerei Bamberg Wörner GmbH & Co. KG,Breitäckerstraße 9,D-96049,Bamberg,Deutschland,http://www.kaiserdom.de,,10
0764,Kaiserstühler Winzergenossenschaft Ihringen eG,Winzerstraße 6,D-79241,Ihringen,Deutschland,http://www.winzergenossenschaft-ihringen.de,,10
0765,Kaiserstühler Winzerverein Oberrotweil e.G.,Bahnhofstraße 31,D-79235,Oberrotweil,Deutschland,http://www.winzerverein-oberrotweil.de,,10
0766,Kano Drinks GmbH,Theodor-Heuss-Straße 12,D-85221,Dachau,Deutschland,http://www.kano.de,,10
0767,Karlex Handels- und Vertriebsgesellschaft mbH,Charlottenstraße 65,D-10117,Berlin,Deutschland,http://www.karlex-group.de,,10
0768,Karlsberg Brauerei GmbH,Karlsbergstraße 62,D-66424,Homburg,Deutschland,http://www.karlsberg.de,,10
0769,Karmeliten Brauerei Karl Sturm GmbH & Co. KG,Senefelder Straße 21,D-94315,Straubing,Deutschland,http://www.karmeliten-brauerei.de,,10
0770,Kärrners Hausbrauerei,Kurparkstraße,D-63619,Bad Orb,Deutschland,http://www.kaerrners.de,,10
0771,KATLENBURGER Kellerei GmbH & Co. KG,Osteroder Straße 12,D-37191,Katlenburg,Deutschland,http://www.katlenburger.de,,10
0772,Kauzen-Bräu GmbH & Co. KG Ochsenfurt,Uffenheimer Straße 17,D-97199,Ochsenfurt,Deutschland,http://www.kauzen.de,,10
0773,Keiler Bier GmbH,Höchberger Straße 28,D-97082,Würzburg,Deutschland,http://www.keiler-bier.de,,10
0774,Keller Geister GmbH & Co. KG,Rudolf-Diesel-Straße 7,D-54292,Trier,Deutschland,http://www.herres-sekt.com,,10
0775,Kellerberg Vertriebsgesellschaft mbH,Hirschbachstraße 6,D-73431,Aalen,Deutschland,http://www.kellerberg.net,,10
0776,Kelterei Curt Biedermann,Mauna 2,D-01665,Käbschütztal,Deutschland,http://www.kelterei-biedermann.de,,10
0777,Kelterei Dölp GmbH & Co. KG,Otzbergstraße 16,D-64395,Brensbach,Deutschland,http://www.kelterei-doelp.de,,10
0778,Kelterei Göltzschtal Mylau eG,Robert-Georgi-Weg 4,D-08499,Mylau,Deutschland,http://www.mylauer.de,,10
0779,Kelterei Grünewald,Friedhofstraße 12,D-63776,Mömbris,Deutschland,http://www.kelterei-gruenewald.de,,10
0780,Kelterei Heil OHG,An den Obstwiesen 2,D-35789,Laubuseschbach,Deutschland,http://www.kelterei-heil.de,,10
0781,Kelterei Krämer GmbH,Crumbacher Straße 6,D-64385,Reichelsheim/ Beerfurth,Deutschland,http://www.kelterei-kraemer.de,,10
0782,Kelterei Marc Conrad,Trägerwiese 1,D-54298,Welschbillig,Deutschland,http://www.kelterei-conrad.de,,10
0783,Kelterei Meyer,Heidelbergerstraße 40,D-64395,Brensbach,Deutschland,http://www.kelterei-meyer.de,,10
0784,Kelterei Müller GmbH & Co. KG,Rathausstraße 45-47,D-35510,Butzbach - Ostheim,Deutschland,http://www.kelterei-mueller.de,,10
0785,Kelterei Oese,Weixdorfer Straße 5-9,D-01458,Ottendorf-Okrilla OT Medingen,Deutschland,http://www.oese.net,,10
0786,Kelterei Possmann GmbH & Co. KG,Eschborner Landstraße 156-162,D-60489,Frankfurt am Main,Deutschland,http://www.possmann.dede,,10
0787,Kelterei Rothenbücher GmbH,Hauptstraße 64,D-63825,Schöllkrippen,Deutschland,http://www.kelterei-rothenbuecher.de,,10
0788,Kelterei Sachsenobst GmbH Dürrweitzschen,Neugreußniger Straße 16,D-04720,Döbeln,Deutschland,http://www.kelterei-sachsenobst.de,,10
0789,Kelterei Stenger GmbH,Hauptstraße 7,D-63773,Goldbach,Deutschland,http://www.kelterei-stenger.de,,10
0790,Kelterei Uhl GmbH & Co. KG,Oberndorfer Straße 20,D-35410,Hungen,Deutschland,http://www.kelterei-uhl.de,,10
0791,Kelterei und Edelbrennerei Hofmann GmbH,Krombacher Straße 5-7,D-63825,Blankenbach,Deutschland,http://www.kelterei-hofmann.de,,10
0792,Kelterei Walther GmbH,Fliederstraße 2,D-63486,Bruchköbel,Deutschland,http://www.walther-kelterei.de,,10
0793,Kelterei Wilhelm Höhl Hochstadt GmbH & Co. KG,Konrad-Höhl-Straße 2-4,D-63477,Maintal-Hochstadt,Deutschland,http://www.hoehl-hochstadt.de,,10
0794,Kemex Brauereianlagen,Fürbringerstraße 10,D-10961,Berlin,Deutschland,http://www.kemex.de,,10
0795,Kern Mosterei; Brennerei und Getränkemarkt Inh. Karl-Heinz Kern,Hintere Gasse 1,D-91610,Insingen,Deutschland,http://www.kern-insingen.de/,,10
0796,Kieler Brauerei am Alten Markt GmbH,Alter Markt 9,D-24103,Kiel,Deutschland,http://www.kieler-brauerei.de,,10
0797,Kiezbaum (S. Grüner; R. Wagner; I. Kunisch GbR),Leibnizstraße 22,D-55118,Mainz,Deutschland,http://www.kiezbaum.de,,10
0798,Kirchhoff & Söhne,Fahrenberg 38-46,D-22885,Barsbüttel,Deutschland,http://www.kirchhoff-soehne.net,,10
0799,Kirkeler Erfrischungsgetränke GmbH,Waldstraße 4,D-66459,Kirkel,Deutschland,http://www.meg-gruppe.de,,10
0800,Kirner Privatbrauerei Ph. und C. Andres GmbH & Co. KG,Kallenfelser Straße 2-4,D-55606,Kirn,Deutschland,http://www.kirner-bier.de,,10
0801,Kitzmann-Bräu GmbH & Co. KG,Südliche Stadtmauerstraße 25,D-91054,Erlangen,Deutschland,http://www.kitzmann.de,,10
0802,Klaus Fruchtsäfte & Cannewitzer Biere,Apfelweg 11,D-04808,Wurzen – OT Roitzsch,Deutschland,http://www.klaus-fruchtsaefte.de,,10
0803,Klindworth Fruchtsäfte GmbH,Westerböhmen 10,D-27419,Sittensen,Deutschland,http://www.klindworth-fruchtsaefte.de,,10
0804,Klosterbrauerei Andechs,Bergstraße 2,D-82346,Andechs,Deutschland,http://www.andechs.de,,10
0805,Klosterbrauerei Baumburg GmbH & Co. KG,Baumburg 20,D-83352,Altenmarkt a.d. Alz,Deutschland,http://www.baumburger.de,,10
0806,Klosterbrauerei Kreuzberg,Kreuzberg 2,D-97653,Bischofsheim an der Rhön,Deutschland,http://www.kreuzbergbier.de,,10
0807,Klosterbrauerei Neuzelle GmbH,Brauhausplatz 1,D-15898,Neuzelle,Deutschland,http://www.klosterbrauerei.com,,10
0808,Klosterbrauerei Reutberg e.G.,Am Reutberg 3,D-83679,Sachsenkam,Deutschland,http://www.klosterbrauerei-reutberg.de,,10
0809,Klosterbrauerei Weißenohe GmbH & Co. KG,Klosterstraße 20,D-91367,Weißenohe,Deutschland,http://www.klosterbrauerei-weissenohe.de,,10
0810,Klosterbrauerei Weltenburg GmbH,Heitzerstraße 2,D-93049,Regensburg,Deutschland,http://www.weltenburger.de,,10
0811,Klosterquell Hofer Vertriebs GmbH,Armbrustergasse 10,A-1190,Wien,Österreich,http://www.klosterquell.com,,10
0812,Kober Likör GmbH,Am Alten Sägewerk 4,D-95349,Thurnau,Deutschland,http://www.kobers.com,,10
0813,Koblenzer Brauerei GmbH,An der Königsbach 8,D-56075,Koblenz,Deutschland,http://www.koblenzer.de,,10
0814,Kohlensäurewerk Hölle Dr. Fritz Wiede GmbH & Co. KG,Dr.-Fritz-Wiede-Straße 36,D-95119,Naila,Deutschland,http://www.hoellensprudel.de,,10
0815,Kondrauer Mineral- und Heilbrunnen Gertraud Seidl GmbH & Co. KG,Am Sauerbrunn 2,D-95652,Waldsassen,Deutschland,http://www.kondrauer.de,,10
0816,König Brauerei GmbH,Friedrich-Ebert-Straße 308,D-47139,Duisburg,Deutschland,http://www.koenig.de,,10
0817,König Ludwig GmbH & Co. KG Schloßbrauerei Kaltenberg,Augsburger Straße 41,D-82256,Fürstenfeldbruck,Deutschland,http://www.koenig-ludwig-brauerei.com,,10
0818,König Ludwig International GmbH & Co. KG,Schloss Straße 8,D-82269,Geltendorf,Deutschland,http://royal-bavarian-beer-selection.com,,10
0819,Königsbacher Brauerei GmbH & Co. KG,An der Königsbach 8,D-56075,Koblenz,Deutschland,http://www.koenigsbacher.de,,10
0820,Königsbräu Majer GmbH & Co. KG,Oggenhauser Hauptstraße 1,D-89522,Heidenheim an der Brenz,Deutschland,http://www.koenigsbraeu.de,,10
0821,Königsegger WalderBräu AG,Hauptstraße 6,D-88376,Königseggwald,Deutschland,http://www.walderbraeu.de,,10
0822,Konrad Krug Brauerei und Tanzsaal GmbH,Breitenlesau 1b,D-91344,Waischenfeld,Deutschland,http://www.krug-braeu.de,,10
0823,Kornbrennerei August Dinsing,Sauerländer Straße 29,D-44265,Dortmund,Deutschland,http://www.dinsing.com,,10
0824,Kornbrennerei B. Pott,Berliner Straße 27,D-33378,Rheda-Wiedenbrück,Deutschland,http://www.spirituosen-pott.de,,10
0825,Kornbrennerei Böckenhoff GmbH & Co. KG,Kirchplatz 2,D-46348,Raesfeld-Erle,Deutschland,http://www.kornbrennerei-boeckenhoff.de,,10
0826,Kornbrennerei Boente,Am Stadion 77,D-45659,Recklinghausen,Deutschland,http://www.kornbrennerei-boente.de,,10
0827,Kornbrennerei J. Hullmann GmbH & Co. KG,Butjadingerstraße 400,D-26125,Oldenburg,Deutschland,http://www.hullmann-korn.de,,10
0828,Köstritzer Schwarzbierbrauerei GmbH,Heinrich-Schütz-Straße 16,D-07586,Bad Köstritz,Deutschland,http://www.koestritzer.de,,10
0829,Köthener Brauerei GmbH,An der Wiesenmühle 8,D-09224,Chemnitz,Deutschland,http://www.koethener-brauerei.de,,10
0830,Krämer Getränke GmbH & Co. KG,Erlenweg 10,D-64665,Alsbach – Hähnlein,Deutschland,http://www.kraemergmbh.de,,10
0831,Krämer-Fruchtsaft GmbH,Wilhelmstraße 4,D-56579,Bonefeld,Deutschland,http://www.kraemer-fruchtsaft.de,,10
0832,Kräuterlikörfabrik Altenberg GmbH,Rathausstraße 27,D-01773,Altenberg (Erzgebirge),Deutschland,http://www.altenberger-kraeuterlikoer.de,,10
0833,Kreativbrauerei Brewers Fantasy,Paul-Joseph Straße 14 -16,D-64658,Fürth (Odenwald),Deutschland,http://www.brewers-fantasy.de,,10
0834,Kreyenhop & Kluge GmbH & Co. KG,Industriestraße 40-42,D-28876,Oyten,Deutschland,http://www.kreyenhop.com,,10
0835,KRK Kölner Rum Kontor GmbH,Lübecker Straße 6,D-50668,Köln,Deutschland,http://www.koelnerrumkontor.de,,10
0836,Krombacher Brauerei Bernhard Schadeberg GmbH & Co. KG,Hagener Straße 261,D-57215,Kreuztal,Deutschland,http://www.krombacher.de,,10
0837,KRONEN Privatbrauerei Dortmund,Steigerstraße 20,D-44145,Dortmund,Deutschland,http://www.kronen.de,,10
0838,Kronenbrauerei Alfred Schimpf GmbH,Hauptstraße 1,D-72149,Neustetten,Deutschland,http://www.brauerei-schimpf.de,,10
0839,Kronenbrauerei Halter GmbH,Bonfelderstraße 26,D-74078,Heilbronn,Deutschland,http://www.kronenbrauerei-halter.de,,10
0840,Kronia-Quelle Heinrich Kroner GmbH & Co. KG,Im Rosengarten 9,D-61118,Bad Vilbel,Deutschland,http://www.kronia-quelle.de,,10
0841,Krostitzer Brauerei GmbH,Brauereistraße 12,D-04509,Krostitz,Deutschland,http://www.ur-krostitzer.de,,10
0842,Krugmann Markenspirituosen GmbH & Co. KG,Krim 2,D-58540,Meinerzhagen,Deutschland,http://www.krugmann.com,,10
0843,Kuemmerling KG,Am Kümmerling 2,D-55294,Bodenheim,Deutschland,http://www.kuemmerling.de,,10
0844,Kulmbacher Brauerei Aktien-Gesellschaft,Lichtenfelser Straße 9,D-95326,Kulmbach,Deutschland,http://www.kulmbacher.de,,10
0845,Kulturbrauerei Heidelberg AG,Leyergasse 6,D-69117,Heidelberg,Deutschland,http://www.heidelberger-kulturbrauerei.de,,10
0846,KulturBrauerei Objektverwaltung,Schönhauser Allee 36,D-10435,Berlin,Deutschland,http://www.kulturbrauerei-berlin.de,,10
0847,Kumpf Fruchtsaft GmbH & Co. KG,Industriestraße 22,D-71706,Markgröningen-Unterriexingen,Deutschland,http://www.kumpf-saft.de,,10
0848,KUNZMANN Weinkellerei - Mineralbrunnen - Fruchtsaft GmbH & Co. KG,Taitinger Straße 64,D-86453,Dasing,Deutschland,http://www.kunzmann-dasing.de,,10
0849,Kurpfalz Sektkellerei GmbH,Schustergasse 7,D-67346,Speyer,Deutschland,,,10
0850,L. Bastian Weinhaus GmbH,Königsschaffhauser Straße 8,D-79346,Endingen am Kaiserstuhl,Deutschland,http://www.weingut-bastian.de,,10
0851,L. Psenner GmbH,Bahnhofstraße 1,D-39040,Tramin an der Weinstrasse,Deutschland,http://www.psenner.com,,10
0852,LABERTALER Heil- und Mineralquellen Getränke Hausler GmbH,Sebastian-Hausler-Straße,D-84069,Schierling,Deutschland,http://www.labertaler.de,,10
0853,Lagenser Fruchtsäfte Koch Getränke GmbH,Triftenstraße 57-63,D-32791,Lage,Deutschland,http://www.lagenser.de,,10
0854,Lagerkorn GmbH,Düsseldorfer Straße 20,D-48624,Schöppingen,Deutschland,http://www.sassekorn.de,,10
0855,Lahnsteiner Brauerei,Sandgasse 1,D-56112,Lahnstein,Deutschland,http://www.lahnsteiner-brauerei.de,,10
0856,Lammbrauerei Hilsenbeck GmbH & Co. KG,Hauptstraße 37,D-73344,Gruibingen,Deutschland,http://www.gruibinger.de,,10
0857,Lammersiek u. Co. Süßmostkelterei,Gartenstraße 60,D-49152,Bad Essen,Deutschland,http://www.lammersiek-saefte.de,,10
0858,Landesweingut Kloster Pforta GmbH,Saalberge 73,D-06628,Naumburg OT Bad Kösen,Deutschland,http://www.kloster-pforta.de,,10
0859,Landshuter Brauhaus AG,Pulverturmstraße 6,D-84028,Landshut,Deutschland,http://www.landshuter-brauhaus.de,,10
0860,Landshuter Obstkelterei GmbH,Schönbrunner Straße 14,D-84036,Landshut,Deutschland,http://www.fruchtsaefte-gaerttner.de,,10
0861,Landskron BRAU-MANUFAKTUR GÖRLITZ Dr. Lohbeck GmbH & Co. KG,An der Landskronbrauerei 116,D-02826,Görlitz,Deutschland,http://www.landskron.de,,10
0862,Landwehr-Bräu Wilhelm Wörner GmbH & Co. KG,Reichelshofen 31,D-91628,Steinsfeld,Deutschland,http://www.landwehr-braeu.de,,10
0863,Landwert Bio Premium GmbH,Greifswalder Chaussee 84-85,D-18439,Stralsund,Deutschland,http://www.bios-natur-pur.de,,10
0864,LANG-BRÄU NEPOMUK LANG Inh. Erika Lang,Langgasse 2,D-94078,Freyung,Deutschland,http://www.lang-braeu-freyung.de,,10
0865,Lang-Bräu OHG,Bayreuther Straße 18-19,D-95632,Wunsiedel,Deutschland,http://www.lang-braeu.de,,10
0866,Lauffener Weingärtner eG,Im Brühl 48,D-74348,Lauffen,Deutschland,http://www.wg-lauffen.de,,10
0867,Lausitzer Früchteverarbeitung GmbH,Hauptstraße 79,D-02689,Sohland a. d. Spree,Deutschland,http://www.lausitzer.de,,10
0868,Lauterbacher Burgbrauerei - Auerhahn Bräu Schlitz GmbH,Cent 8,D-36341,Lauterbach (Hessen),Deutschland,http://www.lauterbacher-auerhahn.de,,10
0869,Lauwerth´s Natursäfte GmbH & Co. KG,Bahnhofstraße 10,D-49186,Bad Iburg,Deutschland,http://www.lauwerths-natursaefte.de,,10
0870,Layat Champagner und Sekt-Vertriebs GmbH,Rudolf-Diesel-Straße 7-9,D-54292,Trier,Deutschland,http://www.layat.de,,10
0871,Lazar Spezialitäten GmbH,Hüserstraße21,D-59075,Hamm,Deutschland,http://www.lazar-shop.de,,10
0872,Lederer Kulurbrauerei,Sielstraße 12,D-90429,Nürnberg,Deutschland,http://www.erlebnisgastronomie-nuernberg.de,,10
0873,Leimi´s Spirituosen & Weine GmbH,Nördliche Grünauer Straße 25,D-86633,Neuburg/Donau,Deutschland,http://www.leimis.com,,10
0874,Leisslinger Mineralbrunnen GmbH,Am Frauenholze 2,D-06667,Weißenfels,Deutschland,http://www.meg-gruppe.de,,10
0875,Lekkerland Deutschland GmbH & Co. KG,Europaallee 57,D-50226,Frechen,Deutschland,http://www.lekkerland.de,,10
0876,Lembergerland Kellerei Rosswag eG,Manfred-Behr-Straße 34,D-71665,Vaihingen-Rosswag,Deutschland,http://www.lembergerland.de,,10
0877,Lemkes Spezialitätenbrauerei GmbH,Dircksenstraße 143,D-10178,Berlin,Deutschland,http://www.lemke.berlin,,10
0878,Lemonaid Beverages GmbH,Neuer Kamp 31,D-20359,Hamburg,Deutschland,http://www.lemon-aid.de,,10
0879,Lennet Bier Aachen,Lukasstraße 25,D-52070,Aachen,Deutschland,http://www.lennet-bier.de,,10
0880,Les Grands Chais de France,1 rue de la Division Leclerc,F-67290,Petersbach,Frankreich,http://www.groupegcf.com,,10
0881,Licher Privatbrauerei Jhring-Melchior GmbH,In den Hardtberggärten,D-35423,Lich,Deutschland,http://www.licher.de,,10
0882,Lichtenauer Mineralquellen GmbH,Brunnenstraße 11,D-09244,Lichtenau,Deutschland,http://www.lichtenauer.de,,10
0883,Liebhart's Privatbrauerei GmbH & Co. KG,Am Gelskamp 6,D-32758,Detmold,Deutschland,http://www.residenz-biere.de,,10
0884,Lieler Schlossbrunnen Sattler GmbH & Co. KG,Hauptstraße 22,D-79418,Schliengen,Deutschland,http://www.lieler.de,,10
0885,Likör & Branntwein Manufaktur Inh. Wolfgang Pitz,Haller Straße 69,D-33803,Steinhagen,Deutschland,http://www.wolfgang-pitz.de,,10
0886,Likörfabrik Peter Busch GmbH & Co. KG,Holzstraße 4,D-40221,Düsseldorf,Deutschland,http://www.killepitsch.de,,10
0887,Likörfabrikarion & Getränkevertrieb GmbH,Schwarzenberger Straße 18,D-09487,Schlettau,Deutschland,http://www.grubenfeuer.de,,10
0888,Linda Food GmbH,Asbeckstraße 23,D-45883,Gelsenkirchen,Deutschland,http://www.linda-food.com,,10
0889,Lindauer Bodensee-Fruchtsäfte GmbH,Kellereiweg 8-22,D-88131,Lindau,Deutschland,http://www.lindauer-fruchtsaefte.de,,10
0890,Linke Fruchtsaft,Ringstraße 8,D-02727,Ebersbach-Neugersdorf,Deutschland,http://www.linke-fruchtsaefte.de,,10
0891,Liqueur & Wine Trade GmbH,Schlüterstraße 5,D-40235,Düsseldorf,Deutschland,,,10
0892,Löffler Fruchtsäfte GmbH & Co. KG,Wittelsbacherallee 84,D-32427,Minden,Deutschland,http://www.loeffler-fruchtsaft.de,,10
0893,Lösch's Fruchtsäfte GmbH & Co. KG,Robert-Bosch-Straße 1,D-66877,Ramstein-Miesenbach,Deutschland,http://www.loeschs.de,,10
0894,Lothar Haggenmüller,Am Berg 6,D-87640,Biessenhofen,Deutschland,,,10
0895,Louis Roederer Champagne,21 Boulevard Lundy,D-51100,Reims,Frankreich,http://www.louis-roederer.com,,10
0896,Löwenbräu AG,Nymphenburger Straße 7,D-80335,München,Deutschland,http://www.loewenbraeu.de,,10
0897,Löwenbrauerei Elzach,Neunlindenstraße 6,D-79215,Elzach,Deutschland,http://www.loewenbrauerei-elzach.de,,10
0898,Löwenbrauerei Hall Fr. Erhard GmbH & Co. KG,Ritterstraße 6,D-74523,Schwäbisch Hall,Deutschland,http://www.haller-loewenbraeu.de,,10
0899,Löwenbrauerei Passau AG,Franz-Stockbauer-Weg 13,D-94032,Passau,Deutschland,http://www.loewenbrauerei.de,,10
0900,Löwenbrauerei Wasseralfingen,Wilhelmstraße 162,D-73433,Aalen,Deutschland,http://www.wasseralfinger.de,,10
0901,Ludwig Rilling GmbH & Co. KG,Brückenstraße 8,D-70376,Stuttgart,Deutschland,http://www.rillingsekt.de,,10
0902,Lütauer Süßmosterei GmbH,Katthof 4,D-21483,Lütau,Deutschland,http://www.luetauer-mosterei.de,,10
0903,Luzifer GmbH Schleswig,Königstraße 27,D-24837,Schleswig,Deutschland,http://www.luzifer-sylt.de,,10
0904,M. Hubauer GmbH & Co.,Neuteichnitzer Straße 39,D-02625,Bautzen,Deutschland,http://www.hubauer-bautzen.de,,10
0905,M. Melcher GmbH,Hohenbudberger Straße 10,D-47829,Krefeld,Deutschland,http://www.weinbrennerei-dujardin.de,,10
0906,Mack & Schühle AG,Neue Straße 45,D-73277,Owen/Teck,Deutschland,https://www.mack-schuehle.de,,10
0907,Magdeburger Getränkekombinat (MGk)GmbH,Brenneckestraße 94,D-39116,Magdeburg,Deutschland,http://www.feldschloesschen-greiz.de,,10
0908,Magic Drinks GmbH,Mühlwiesenstraße 9,D-68789,St. Leon-Rot,Deutschland,http://www.magic-drinks.de,,10
0909,MAGNUS Mineralbrunnen GmbH und Co. KG,Langenharmer Weg 211,D-22844,Norderstedt,Deutschland,http://www.magnus-mineralbrunnen.de,,10
0910,Mahrs Bräu Inh. Ingmar Michel e. K.,Wunderburg 10,D-96050,Bamberg,Deutschland,http://www.mahrs-braeu.de,,10
0911,Mai-Geister Weinkellerei GmbH,Fliehburgstraße 23,D-56856,Zell,Deutschland,,,10
0912,Maierbräu GmbH & Co. KG,Marktplatz 2,D-85250,Altomünster,Deutschland,http://www.maierbraeu.de,,10
0913,Mainfrucht GmbH & Co. KG,Julius-Hofmann-Straße 2,D-97469,Gochsheim,Deutschland,http://www.mainfrucht.de,,10
0914,Mammut Brauerei Michael Lachmann Vertriebsgesellschaft mbH,Juri-Gagarin-Straße 33,D-06526,Sangerhausen,Deutschland,http://www.mammut-bier.de,,10
0915,Margon Brunnen GmbH,Brunnenstraße 11,D-09244,Lichtenau,Deutschland,http://www.margon.de,,10
0916,Marien Brunnen Erfrischungsgetränke GmbH,Brunnenstraße 1,D-33829,Borgholzhausen,Deutschland,http://www.marienbrunnen.de,,10
0917,Markengetränke Schwollen GmbH,Am Sauerbrunnen 25-33,D-55767,Schwollen,Deutschland,http://www.bergquelle.de,,10
0918,Martin Levsen GmbH & Co. KG,Norderbergstraße 23,D-25917,Leck,Deutschland,,,10
0919,Martini Brauereibeteiligungs GmbH,Kölnische Straße 94-104,D-34119,Kassel,Deutschland,http://www.martini-brauerei.de,,10
0920,Martinsbräu Erste Freiburger Gasthausbrauerei Betriebs GmbH,Kaiser-Joseph-Straße 237,D-79098,Freiburg im Breisgau,Deutschland,http://www.martinsbraeu-freiburg.de,,10
0921,Martinsbräu Georg Mayr GmbH & Co. KG,Georg-Mayr-Straße 4,D-97828,Marktheidenfeld,Deutschland,http://www.martinsbraeu.de,,10
0922,Mast-Jägermeister SE,Jägermeisterstraße 7 - 15,D-38296,Wolfenbüttel,Deutschland,http://www.mast-jaegermeister.de,,10
0923,Matheus Müller Sektkellereien GmbH,Matheus-Müller-Platz 1,D-65343,Eltville,Deutschland,http://www.mm-extra.de,,10
0924,Matthias Stöger Süßmosterei,Osterbuchberger Weg 2 - 4,D-83236,Übersee,Deutschland,http://www.stoeger.de,,10
0925,Mauritius Brauerei Zwickau GmbH,Talstraße 2,D-08066,Zwickau,Deutschland,http://www.mauritius-brauerei.de,,10
0926,Maximilians Brauwiesen Hausbrauerei,Didierstraße 25,D-56112,Lahnstein,Deutschland,http://www.maximilians-brauwiesen.de,,10
0927,MBG International Premium Brands GmbH,Oberes Feld 13,D-33106,Paderborn,Deutschland,http://www.mbgglobal.net,,10
0928,MCC Trading Deutschland GmbH,Schlüterstraße 7,D-40235,Düsseldorf,Deutschland,,,10
0929,Meckatzer Löwenbräu Benedikt Weiß KG,Meckatz 10,D-88178,Heimenkirch,Deutschland,http://www.meckatzer.de,,10
0930,Mecklenburger Spirituosenfabrik G. Winkelhausen GmbH,Rövertannen 21,D-18273,Güstrow,Deutschland,http://www.g-winkelhausen.com,,10
0931,Mecklenburgische Brauerei Lübz GmbH,Eisenbeissstraße 1,D-19386,Lübz,Deutschland,http://www.luebzer.de,,10
0932,Medley's Whiskey International GmbH,Glockengießerwall 26,D-20095,Hamburg,Deutschland,http://www.medleys-whiskey.com,,10
0933,Meier Fruchtsäfte und Getränke GmbH und Co. KG,Weingartenstraße 81,D-77933,Lahr/Schwarzwald,Deutschland,http://www.meier-fruchtsaft.de,,10
0934,Meierhof Privatbrauerei GmbH & Co. KG,Kirchwinkel 10,D-37671,Höxter,Deutschland,http://www.meierhof-brauerei.de,,10
0935,Memminger Brauerei GmbH,Dr.-Karl-Lenz-Straße 68,D-87700,Memmingen,Deutschland,http://www.memminger-brauerei.de,,10
0936,Menschel-Limo GmbH,Scheibe 13,D-02779,Hainewalde,Deutschland,http://www.menschel-limo.de,,10
0937,Michael Plank Brauerei,Marktplatz 1,D-93164,Laaber,Deutschland,http://www.brauerei-plank.de,,10
0938,Miguel Torres,,ES-6 - 08720,Vilafranca del Pendes,Deutschland,,,10
0939,Mikkeller APS,Humletorvet 27,DK-1799,Copenhagen,Dänemark,http://www.mikkeller.dk,,10
0940,Mineralbrunnen Bad Liebenzell GmbH & Co. KG,Hirsauer Straße 4,D-75378,Bad Liebenzell,Deutschland,http://www.mineralbrunnen.bad-liebenzell.de,,10
0941,Mineralbrunnen Krumbach GmbH,Krumbach 1,D-88353,Kißlegg,Deutschland,http://www.krumbach-mineralwasser.de,,10
0942,MineralBrunnen RhönSprudel Egon Schindel GmbH,Weikardshof 2,D-36157,Ebersburg,Deutschland,http://www.rhoensprudel.de,,10
0943,Mineralbrunnen Teinach GmbH,Badstraße 41,D-75385,Bad Teinach-Zavelstein,Deutschland,http://www.teinacher.de,,10
0944,Mineralbrunnen Überkingen-Teinach GmbH & Co. KGaA,Bahnhofstraße 15,D-73337,Bad Überkingen,Deutschland,http://www.mineralbrunnen-ag.de,,10
0945,Mineralheilquellen Löwen-Sprudel GmbH & Co. KG,Bieringer Straße 30,D-72108,Rottenburg/Obernau,Deutschland,http://www.loewen-sprudel.de,,10
0946,Mineralquellen Bad Liebenwerda GmbH,Am Brunnenpark 1-4,D-04924,Bad Liebenwerda,Deutschland,http://www.mineralquellen.de,,10
0947,Mineralquellen und Getränke H.Hövelmann GmbH,Römerstraße 109,D-47179,Duisburg-Walsum,Deutschland,http://www.mineralquellen-hoevelmann.de,,10
0948,Mineralquellen Wüllner GmbH & Co. KG,Detmolder Straße 767,D-33605,Bielefeld,Deutschland,http://www.carolinen.de,,10
0949,Mionetto SpA con Unico Socio,Via Colderove 2,D-31049,Valdobbiadene,Deutschland,,,10
0950,Mitteldeutsche Erfrischungsgetränke GmbH & Co. KG,Langendorfer Straße 23,D-06667,Weißenfels,Deutschland,http://www.meg-gruppe.de,,10
0951,Moet Hennessy Deutschland GmbH,Seidlstraße 23,D-80335,München,Deutschland,http://www.moet-hennessy.de,,10
0952,mölle trinken e.K.,Am Loderanger 1,D-86720,Nördlingen,Deutschland,http://www.moelletrinken.de,,10
0953,MOLOKO BEVERAGE GmbH,Leonhard-Weiss-Straße 1,D-73037,Göppingen,Deutschland,http://www.drinkmoloko.de,,10
0954,Mönchguter Hofbrennerei Zur Strandburg,Alt Reddevitz Nr. 36,D-18586,Middelhagen,Deutschland,http://www.hofbrennerei-strandburg.de,,10
0955,Montenegro SRL,Via E. Fermi 4,I-40069,Zola Predosa BO,Deutschland,http://www.montenegro.it,,10
0956,Moosbacher - Private Landbrauerei,Bräugasse 7,D-92709,Moosbach (Oberpfalz),Deutschland,http://www.moosbacher.com,,10
0957,Moreno GmbH & Co. KG,Ottostraße 20-22,D-53332,Bornheim,Deutschland,http://www.moreno-gmbh.de,,10
0958,Mosterei Bad Berka,Dorfstraße 40,D-99438,Bad Berka,Deutschland,http://www.mosterei-bad-berka.de,,10
0959,Mosterei Holsing und Obstbau Aping GmbH und Co. KG,Stemwederberg Straße 22,D-32351,Stemwede (Westrup),Deutschland,,,10
0960,Mosterei u. Getränkehandel Martin Wietz,Pritzwalker Straße 25,D-16866,Kyritz,Deutschland,http://www.xn--kyritzer-fruchtsfte-vwb.de,,10
0961,Müllerbräu Neuötting GmbH & Co. KG,Burghauser Str. 2,D-84524,Neuötting,Deutschland,https://www.muellerbraeu.de,,10
0962,Nannerl GmbH & Co. KG,Gewerbestraße 7,A-5102,Anthering bei Salzburg,Österreich,http://www.nannerl.at,,10
0963,Natho's Säfte GmbH,Krumme Straße 33,D-39221,Welsleben,Deutschland,http://www.natho-saefte.de,,10
0964,Naturquell S.A.,,ES-25719,Estamariu,Spanien,,,10
0965,NERB GmbH Einrichtungen für die Getränkeindustrie KG,Dorfstraße 39,D-85356,Freising,Deutschland,http://www.nerb.de,,10
0966,Nestlé Deutschland AG,Lyoner Straße 23,D-60528,Frankfurt am Main,Deutschland,http://www.nestle.de,,10
0967,Nestlé Waters Deutschland AG,Wilhelm-Theodor-Römheld-Straße 22,D-55130,Mainz,Deutschland,http://www.nestle-waters.de,,10
0968,Neue Torgauer Brauhaus GmbH,Naundorfer Straße 7,D-04860,Torgau,Deutschland,http://www.torgauer.de,,10
0969,Neufang Brauerei AG,Dudweiler Landstraße 3-9,D-66123,Saarbrücken,Deutschland,http://www.neufang.de,,10
0970,Neumann KG Spirituosen,Amelhauser Straße 1,D-26179,Grossenkneten,Deutschland,,,10
0971,NEUMARKTER GLOSSNERBRÄU KG,Deininger Weg 88,D-92318,Neumarkt,Deutschland,http://www.glossner.de,,10
0972,Neumarkter Lammsbräu Gebr. Ehrnsperger e.K.,Amberger Straße 1,D-92318,Neumarkt in der Oberpfalz,Deutschland,http://www.lammsbraeu.de,,10
0973,NEUs Fruchtsäfte GmbH & Co. KG,Weisenheimer Straße 2,D-67251,Freinsheim,Deutschland,http://www.neus.de,,10
0974,NGV GmbH Hamburg,Lagerstraße 30a,D-20357,Hamburg,Deutschland,,,10
0975,Niederrhein-Gold Tersteegen GmbH & Co. KG,Am Holtmannshof 1,D-47447,Moers,Deutschland,http://www.niederrhein-gold.de,,10
0976,Niehoff Kornbrennerei und Likörfabrik; H.J.,Daldrup 29,D-48249,Dülmen,Deutschland,http://www.niehoff-spirituosen.de,,10
0977,Niehoffs Vaihinger Fruchtsaft GmbH,Bahnhofstraße 40,D-67742,Lauterecken,Deutschland,http://www.niehoffs-vaihinger.de,,10
0978,NMV Markenvertriebsgesellschaft mbH,Greifswalder Chaussee 84/85,D-18439,Stralsund,Deutschland,,,10
0979,Nonino Distillatori s.p.a.,104 Nonino Distillatori s.p.a.,I-33050,Percoto,Italien,http://www.grappanonino.it,,10
0980,Nordbrand Nordhausen GmbH,Bahnhofstraße 25,D-99734,Nordhausen,Deutschland,http://www.nordbrand-nordhausen.de,,10
0981,Nordbräu Ingolstadt GmbH & Co. KG,Gutsstraße 5,D-85055,Ingolstadt,Deutschland,http://www.nordbraeu.de,,10
0982,Northoff Feinbrennerei,Hultroper Dorfstraße 21,D-59510,Lippetal,Deutschland,http://www.feinbrennerei-northoff.de,,10
0983,Nosio SpA,Via del Teroldego 1/E,I-38016,Mezzocorona,Italien,http://www.nosio.it,,10
0984,Nürburg Quelle Hermann Kreuter GmbH Heil- und Mineralbrunnen,Hillesheimer Straße 29,D-54552,Dreis-Brück,Deutschland,http://www.nuerburg-quelle.de,,10
0985,Oberaudorfer Weißbierbrauerei Bals KG,Rosenheimer Straße 21,D-83080,Oberaudorf,Deutschland,http://www.brauerei-bals.de,,10
0986,Obergärige Brauerei Im Dom seit 1601 GmbH,Michaelstraße 77,D-41460,Neuss,Deutschland,http://www.imdom.de,,10
0987,Oberkircher Winzer eG,Renchener Straße 42,D-77704,Oberkirch,Deutschland,http://www.oberkircher-winzer.de,,10
0988,OberSelters Mineralbrunnen Vertriebs GmbH,Brunnenstraße 1,D-65520,Bad Camberg,Deutschland,http://www.oberselters.de,,10
0989,Oberstdorfer Dampfbierbrauerei Betriebsgesellschaft mbH,Bahnhofplatz 6-8,D-87561,Oberstdorf,Deutschland,http://www.dampfbierbrauerei.de,,10
0990,Obst- und Gemüsevermarktung Künzing eG,Windgasse 7,D-94550,Künzing,Deutschland,http://www.kuenzinger-fruchtsaefte.de,,10
0991,Obstgroßmarkt Fränkische Schweiz eG,Trattstraße 7,CH-91362,Pretzfeld,Schweiz,http://www.obstmarkt-pretzfeld.de,,10
0992,Obstkelterei Alexander Merk ,Gewerbestraße 14,D-86862,Lamerdingen/Kleinkitzighofen,Deutschland,http://www.merk-saft.de,,10
0993,Obstkelterei van Nahmen GmbH & Co. KG,Diersfordter Straße 27,D-46499,Hamminkeln,Deutschland,http://www.vannahmen.de,,10
0994,Obstland Dürrweitzschen AG,Hauptstraße 48,D-04668,Grimma,Deutschland,http://www.sachsenobst.de,,10
0995,Obstsaftkelterei Josef Möller GmbH & Co. KG,Forststraße 7,D-45659,Recklinghausen,Deutschland,http://www.moeller-obstsaefte.de,,10
0996,Odenwald Quelle GmbH & Co. KG,Ludwigstraße 100,D-64646,Heppenheim,Deutschland,http://www.odenwaldquelle.de,,10
0997,Oettinger Brauerei GmbH,Brauhausstraße 8,D-86732,Oettingen,Deutschland,http://www.oettinger-bier.de,,10
0998,Okertaler Mineralbrunnen GmbH,Okertal 13,D-38642,Goslar,Deutschland,http://www.okertaler.de,,10
0999,Oppacher Mineralquellen GmbH & Co.,Brunnenstraße 15-23,D-02736,Oppach,Deutschland,http://www.oppacher.de,,10
1000,ORO Obstverwertung eG,Urbanstraße 1-5,D-83101,Rohrdorf,Deutschland,http://www.oro-saft.de,,10
1001,Osborne Puerto de Santa María,Calle Fernán Caballero 7,ES-11500,El Puerto de Santa María - Cádizía,Spanien,http://www.osborne.es,,10
1002,Ostfriesen Bräu - Historische Landbrauerei mit Brauhaus,Voerstad 8,D-26629,Großefehn,Deutschland,http://www.ostfriesenbraeu.de,,10
1003,Öttinger Brauerei,Wolfenbütteler Straße 33,D-38102,Braunschweig,Deutschland,http://www.oettinger-bier.de,,10
1004,Otto Lörch GmbH Schwarzwälder Edelbranntweine,Önsbacher Straße 40,D-77855,Achern/Schwarzwald,Deutschland,http://www.loerch.de,,10
1005,Otto Pressler Weinkellerei GmbH & Co. KG,Neustadter Straße 3-13,D-76879,Hochstadt (Pfalz),Deutschland,http://www.otto-pressler.de,,10
1006,Pabst & Richarz Vertriebs GmbH,Sollingweg 41,D-32427,Minden,Deutschland,http://www.pabst-richarz.de,,10
1007,Paderborner Brauerei Haus Cramer GmbH,Halberstädter Straße 45,D-33106,Paderborn,Deutschland,http://www.paderborner-brauerei.de,,10
1008,Paehler- Rietberg Markenspirituosen GmbH,Anton-Paehler-Straße 1,D-33397,Rietberg,Deutschland,http://www.paehler-rietberg.de,,10
1009,Palmbräu Eppingen GmbH und Co. KG,Ludwig-Zorn-Straße 2,D-75031,Eppingen,Deutschland,http://www.palmbraeu.de,,10
1010,PARK & Bellheimer AG,Zweibrücker Straße 4,D-66953,Pirmasens,Deutschland,http://www.park-bellheimer.de,,10
1011,Partisan Vertriebs GmbH,Lutherstraße 5,D-99084,Erfurt,Deutschland,http://www.partisan-vodka.de,,10
1012,PASCH-Gasthausbrauerei GmbH,Aschaffenburger Straße 18,D-63825,Schöllkrippen,Deutschland,http://www.brauhaus-barbarossa.de,,10
1013,Paul Bauer Fruchtsaft GmbH,Grunbacher Straße 71,D-71384,Weinstadt,Deutschland,http://www.jope.de,,10
1014,Paul Braun GmbH,Kölner Landstraße 272-274,D-40589,Düsseldorf,Deutschland,http://www.paul-braun.de,,10
1015,Paul Eble Brauerei,Kirchberg 5,D-88471,Laupheim,Deutschland,http://www.kronenbrauerei-laupheim.de,,10
1016,Paulaner Brauerei Gruppe GmbH & Co. KGaA,Ohlmüllerstraße 42,D-81541,München,Deutschland,http://www.paulaner.de,,10
1017,PepsiCo Deutschland GmbH,Hugenottenallee 173,D-63263,Neu-Isenburg,Deutschland,http://www.pepsico.de,,10
1018,Perger Säfte Inhaber: Johannes von Perger,Herrschingerstraße 51,D-82211,Herrsching am Ammersee,Deutschland,http://www.perger-saefte.de,,10
1019,Pernod Ricard Deutschland GmbH,Habsburgerring 2,D-50674,Köln,Deutschland,http://www.pernod-ricard.de,,10
1020,Peter Busch Likörfabrik,Holzstraße 4,D-40221,Düsseldorf,Deutschland,http://www.killepitsch.de,,10
1021,Peter F. Heering,Regeringsgatan 111a,SE-111 39 ,Stockholm,Schweden,,,10
1022,Peter Mertes KG Weingut - Weinkellerei,Bornwiese 4,D-54470,Bernkastel-Kues,Deutschland,http://www.mertes.de,,10
1023,Peter Roland,Faxe Alle' 1,DK-4640,Faxe,Dänemark,,,10
1024,Peterhaus Brennerei GmbH,Grüner Winkel 32,D-77876,Kappelrodeck,Deutschland,http://www.peterhaus.de,,10
1025,Peterstaler Mineralquellen GmbH,Renchtalstraße 36,D-77740,Bad Peterstal,Deutschland,http://www.peterstaler.de,,10
1026,Pfälzer Erfrischungsgetränke GmbH,Am Oberwald 15,D-76744,Wörth am Rhein,Deutschland,http://www.meg-gruppe.de,,10
1027,Pfungstädter Brauerei Hildebrand GmbH & Co. KG,Eberstädter Straße 89,D-64319,Pfungstadt,Deutschland,http://www.pfungstaedter.de,,10
1028,Pillow-Taste GmbH,Hauptstraße 11a,D-35066,Frankenberg (Eder),Deutschland,http://www.pillow-taste.de,,10
1029,"Pilsner Urquell
Asahi Brands Europe a.s. Niederlassung Deutschland",Konrad- Adenauer- Ufer 5-7,D-50668,Köln,Deutschland,http://www.pilsner-urquell.de,,10
1030,Pircher Brennerei AG,Boznerstraße 17,I-39011,Lana,Deutschland,http://www.pircher.it,,10
1031,Pitú Importadora-Exportadora GmbH,Justus-von-Liebig-Straße 2 – 14,D-85435,Erding,Deutschland,http://www.pitu.com,,10
1032,Pivovar Litovel a.s.,Palackého 934,CZ-784 01,Litovel,Tschechien,http://www.litovel.cz,,10
1033,Pivovary Staropramen s. r. o.,Nádražní 84,CZ-150 00 ,Praha 5,Tschechien,http://www.pivovary-staropramen.cz,,10
1034,Plassenburg Kelterei eG,Bayreuther Straße 146,D-95460,Bad Berneck im Fichtelgebirge,Deutschland,http://www.plassenburg-kelterei.de,,10
1035,Plose Quelle AG,Julius-Durst-Straße 12,I-39042,Brixen,Italien,http://www.acquaplose.com,,10
1036,Pommern Quelle GmbH,Greifswalder Chaussee 84-85,D-18439,Stralsund,Deutschland,http://www.pommernquelle.de/,,10
1037,Post Brauerei und Siebers-Quelle Anton Zinth GmbH & Co. KG,Käsgasse 17,D-88171,Weiler-Simmerberg,Deutschland,http://www.post-brauerei.de,,10
1038,Post-Brauerei; Karl Meyer,Hauptstraße 25,D-87484,Nesselwang,Deutschland,http://www.post-brauerei.nesselwang.de,,10
1039,PostmixSirup.de,Horstring 12,D-76829,Landau in der Pfalz,Deutschland,http://www.postmixsirup.de,,10
1040,Pott's Brauerei GmbH,In der Geist 120,D-59302,Oelde,Deutschland,http://www.potts.de,,10
1041,Powerlook GmbH & Co. KG,Markt 8,D–49740,Haselünne,Deutschland,http://www.powerlook.com,,10
1042,Präsidenten Pils GmbH & Co. KG Brauerei,Kreuznacher Straße 4,D-55452,Windesheim,Deutschland,http://www.praesidenten.de,,10
1043,Privat Brauerei Zötler GmbH,Grüntenstraße 2,D-87549,Rettenberg,Deutschland,http://www.zoetler.de,,10
1044,Privat-Brauerei Christian Fiedler,Hauptstraße 28,D-09481,Scheibenberg,Deutschland,http://www.brauerei-fiedler.de,,10
1045,Privat-Brauerei Heinrich Reissdorf GmbH & Co. KG,Emil-Hoffmann-Straße 4-10,D-50996,Köln,Deutschland,http://www.reissdorf.de,,10
1046,Privat-Brauerei Hohenfelder GmbH,Wiedenbrücker Straße 155,D-33449,Langenberg (Kreis Gütersloh),Deutschland,http://www.hohenfelder.de,,10
1047,Privat-Brauerei Schmucker GmbH & Co. KG,Hauptstraße 89,D-64756,Mossautal,Deutschland,http://www.schmucker-bier.de,,10
1048,Privat-Brauerei Strate Detmold GmbH & Co. KG,Palaisstraße 1-13,D-32756,Detmold,Deutschland,http://www.brauerei-strate.de,,10
1049,Privatbrauerei A. Rolinck GmbH & Co. KG,Alexander-Rolinck-Straße 1,D-48565,Steinfurt,Deutschland,http://www.rolinck.de,,10
1050,Privatbrauerei Alwin Märkl e.K.,Hauptstraße 11,D-92272,Freudenberg (Oberpfalz),Deutschland,http://www.freudenberger-bier.de,,10
1051,Privatbrauerei Ambros Hartmann,Fränkische-Schweiz-Straße 26,D-96110,Scheßlitz,Deutschland,http://www.brauerei-hartmann.de,,10
1052,Privatbrauerei Bischoff GmbH & Co. KG,An den Hopfengärten 6,D-67722,Winnweiler,Deutschland,http://www.bischoff-bier.de,,10
1053,Privatbrauerei Bolten GmbH & Co. KG,Rheydter Straße 138,D-41352,Korschenbroich,Deutschland,http://www.bolten-brauerei.de,,10
1054,Privatbrauerei Brüne GmbH,Kaulbachstraße 33,D-34454,Bad Arolsen,Deutschland,http://www.hofbrauhaus-arolsen.de,,10
1055,Privatbrauerei DEIL,Babenhauser Straße 2,D-89296,Osterberg,Deutschland,http://www.brauerei-deil.de,,10
1056,Privatbrauerei Eibau i.Sa. GmbH ,Neueibauer Straße 9 ,D-02739,Kottmar,Deutschland,http://www.eibauer.de,,10
1057,Privatbrauerei Eichbaum GmbH & Co. KG,Käfertaler Straße 170,D-68167,Mannheim,Deutschland,http://www.eichbaum.de,,10
1058,Privatbrauerei Erbacher Brauhaus J. Wörner & Söhne KG,Darmstädter Landstraße 185,D-60598,Frankfurt am Main,Deutschland,http://www.brauereiausschank.de,,10
1059,Privatbrauerei ERDINGER WEISSBRÄU Werner Brombach GmbH,Lange Zeile 1-3,D-85435,Erding,Deutschland,http://www.erdinger.de,,10
1060,Privatbrauerei Ernst Barre GmbH,Berliner Straße 122-124,D-32312,Lübbecke,Deutschland,http://www.barre.de,,10
1061,Privatbrauerei Friedrich Düll GmbH & Co. KG,Landstraße 4-8,D-97332,Volkach/Krautheim,Deutschland,http://www.krautheimer.com,,10
1062,Privatbrauerei Gaffel Becker & Co. OHG,Eigelstein 41,D-50668,Köln,Deutschland,http://www.gaffel.de,,10
1063,Privatbrauerei Gebr. Mayer GmbH & Co. KG,Schillerstraße 8,D-67071,Ludwigshafen am Rhein,Deutschland,http://www.mayerbraeu.de,,10
1064,Privatbrauerei Gebrüder Schlumberger KG,Heidenheimer Straße 7,D-89564,Nattheim,Deutschland,http://www.nattheimer.de,,10
1065,Privatbrauerei Gessner GmbH & Co. KG,Am Lindenbach 27,D-96515,Sonneberg,Deutschland,http://www.privatbrauerei-gessner.de,,10
1066,Privatbrauerei Günther,In der Au 27,D-96224,Burgkunstadt,Deutschland,http://www.guenther-braeu.de,,10
1067,Privatbrauerei Haffner GmbH & Co. KG,Rosenstraße 10,D-37170,Uslar,Deutschland,http://www.bergbraeu.de,,10
1068,Privatbrauerei Herrenhausen GmbH,Herrenhäuser Straße 83-99,D-30419,Hannover,Deutschland,http://www.herrenhaeuser.de,,10
1069,Privatbrauerei Hoepfner GmbH & Co. KG,Haid- und Neustraße 18,D-76131,Karlsruhe,Deutschland,http://www.hoepfner.de,,10
1070,Privatbrauerei Hofmann GmbH & Co. KG,Dettendorfer Straße 1,D-91468,Pahres,Deutschland,http://www.hofmann-bier.de,,10
1071,Privatbrauerei Hofmühl GmbH,Hofmühlstraße 10,D-85072,Eichstätt,Deutschland,http://www.hofmuehl.de,,10
1072,Privatbrauerei Höss GmbH & Co. KG,Grüntenstraße 7,D-87527,Sonthofen,Deutschland,http://www.hirschbraeu.de,,10
1073,Privatbrauerei J.B. Falter Regen KG,Am Sand 15,D-94209,Regen,Deutschland,http://www.privatbrauerei-jb-falter.de,,10
1074,Privatbrauerei Jacob Stauder GmbH & Co. KG,Stauderstraße 88,D-45326,Essen,Deutschland,http://www.stauder.de,,10
1075,Privatbrauerei Josef Lang Jandelsbrunn GmbH & Co. KG,Hauptstraße 17,D-94118,Jandelsbrunn,Deutschland,http://www.jandelsbrunner.de,,10
1076,Privatbrauerei Lang,Charlotte-von-Kalb-Straße 13,D-97633,Saal an der Donau,Deutschland,http://www.brauerei-lang.de,,10
1077,Privatbrauerei Lauterbach L. Ehnle GmbH & Co. KG,Badstraße 2,D-86647,Lauterbach (Hessen),Deutschland,http://www.lauterbacher.de,,10
1078,Privatbrauerei M.C. Wieninger GmbH & Co. KG,Poststraße 1,D-83317,Teisendorf,Deutschland,http://www.wieninger.de,,10
1079,Privatbrauerei Metzler GmbH & Co. KG,An der Klinge 1,D-98646,Dingsleben,Deutschland,http://www.dingslebener.de,,10
1080,Privatbrauerei Michael Plank,Marktplatz 1,D-93164,Laaber,Deutschland,http://www.brauerei-plank.de,,10
1081,Privatbrauerei Michelsbräu GmbH,Fahrstraße 83-85,D-64832,Babenhausen (Hessen),Deutschland,http://www.michelsbraeu.de,,10
1082,Privatbrauerei Moritz Fiege GmbH & Co. KG,Scharnhorststraße 21-25,D-44787,Bochum,Deutschland,http://www.lustauffiege.de,,10
1083,Privatbrauerei Olbernhau,Blumenauer Straße,D-09526,Olbernhau,Deutschland,,,10
1084,Privatbrauerei Reh oHG,Ellertalstraße 36,D-96123,Litzendorf,Deutschland,http://www.reh-bier.de,,10
1085,Privatbrauerei Schnitzlbaumer GmbH,Mühlenstraße 8,D-83278,Traunstein,Deutschland,http://www.schnitzlbaumer.de,,10
1086,Privatbrauerei Schweiger GmbH & Co. KG,Ebersberger Straße 25,D-85570,Markt Schwaben,Deutschland,http://www.silenca.de,,10
1087,Privatbrauerei Schwerter Meißen GmbH,Ziegelstraße 6,D-01662,Meißen,Deutschland,http://www.schwerter-brauerei.de,,10
1088,Privatbrauerei Specht GbR,Thomas-Mann-Straße 17,D-09427,Ehrenfriedersdorf,Deutschland,http://www.privatbrauerei-specht.de,,10
1089,Privatbrauerei Stöttner GmbH,Marktplatz 9,D-84066,Mallersdorf-Pfaffenberg,Deutschland,http://www.stoettner.de,,10
1090,Privatbrauerei und Mineralbrunnenbetrieb H. Egerer,Dachinger Straße 27,D-94431,Großköllnbach,Deutschland,http://www.egerer.de,,10
1091,Privatbrauerei Waldhaus Joh. Schmid GmbH,Waldhaus 1,D-79809,Weilheim (Baden),Deutschland,http://www.waldhaus-bier.de,,10
1092,Privatbrauerei Wilhelm Ketterer GmbH & Co. KG,Jahnstraße 10,D-75173,Pforzheim,Deutschland,http://www.brauerei-ketterer.de,,10
1093,Privatbrauerei Wittingen GmbH,Ernst-Stackmann-Straße 7,D-29378,Wittingen,Deutschland,http://www.wittinger.de,,10
1094,Privatbrauerei Zelt GmbH,Schleizer Straße 28,D-95028,Hof (Saale),Deutschland,http://www.zeltbraeu.de,,10
1095,Privatbrennerei GUD-BROOK,Luhdorfer Waldweg 29,D-21423,Winsen (Luhe),Deutschland,http://www.gud-brook.de,,10
1096,Privatbrunnen Tönissteiner Sprudel Dr. C. Kerstiens GmbH,Heilbrunnen,D-56656,Brohl-Lützing,Deutschland,http://www.toenissteiner.de,,10
1097,Private Landbrauerei Schönram GmbH & Co. KG,Salzburger Straße 17,D-83367,Petting,Deutschland,http://www.brauerei-schoenram.de,,10
1098,Privatkelterei van Nahmen,Diersfordter Straße 27,D-46499,Hamminkeln,Deutschland,http://www.vannahmen.de,,10
1099,Pro Getränke GmbH,Graf-Arco-Straße 20,D-83444,Malgersdorf,Deutschland,http://www.progetraenke.de,,10
1100,proGetränke AG,Siemensstraße 6,D-86899,Landsberg am Lech,Deutschland,http://www.progetraenke.de,,10
1101,Püls-Bräu OHG,Burgkunstadter Straße 41-43,D-96260,Weismain,Deutschland,http://www.weismainer.de,,10
1102,Puschkin International GmbH,Ritterstraße 7,D-49740,Haselünne,Deutschland,,,10
1103,Pyraser Landbrauerei GmbH & Co. KG,Pyras 26,D-91177,Thalmassing,Deutschland,http://www.pyraser.de,,10
1104,Pyrat Carribean Rum GmbH,Quaistraße 11,CH-8200,Schaffhausen,Schweiz,,,10
1105,Quelle GmbH,Bahnhofstraße 10,D-96224,Burgkunstadt,Deutschland,http://www.quelle.de,,10
1106,Quellenhof Heil- und Mineralbrunnen GmbH,Berliner Straße 50-62,D-44866,Bochum,Deutschland,http://www.quellenhof.com,,10
1107,Quellental GmbH,Königstraße 40,D-47051,Duisburg,Deutschland,,,10
1108,Quinta and Vineyard Bottlers-Vinhos SA,Rua do Choupêlo 250,PT-4400-088,Vila Nova de Gaia,Portugal,,,10
1109,Radbrauerei Gebr. Bucher GmbH & Co. KG,Peter-Henlein-Straße 8,D-89312,Günzburg,Deutschland,http://www.guenzburger-weizen.de,,10
1110,Radeberger Destillation- und Liqueurfabrik GmbH,Hauptstraße 42,D-01454,Radeberg,Deutschland,http://www.radeberger-likoerfabrik.de,,10
1111,Radeberger Exportbierbrauerei GmbH,Dresdner Straße 2,D-01454,Radeberg,Deutschland,http://www.radeberger-pilsner.de,,10
1112,Radeberger Gruppe KG - Berliner-Kindl-Schultheiss-Brauerei,Indira-Gandhi-Straße 66-69,D-13053,Berlin,Deutschland,http://www.berliner-kindl.de,,10
1113,Ralf Schneider Getränke-Paradies,Glemsstraße 41,D-71229,Leonberg,Deutschland,http://www.schneider-eltingen.de,,10
1114,Randegger Ottilien-Quelle GmbH,Gailinger Straße 4,D-78244,Gottmadingen,Deutschland,http://www.randegger.de,,10
1115,Rapps Kelterei GmbH,Brunnenstraße 1,D-61184,Karben,Deutschland,http://www.rapps.de,,10
1116,Ratsherrn Brauerei GmbH (Schanzenhöfe),Lagerstraße 30a,D-20357,Hamburg,Deutschland,http://www.ratsherrn.de,,10
1117,RAUCH Fruchtsäfte GmbH & Co. OG,Langgasse 1,D-06830,Rankweil,Deutschland,http://www.rauch.cc,,10
1118,Rauter GmbH & Co. KG Brennerei u. Likörfabrik,Brunnenstraße 15,D-45128,Essen,Deutschland,http://www.rauter.de,,10
1119,Real Companhia Velha,Rua Azevedo Magalhães 314,PT-4430-022,Vila Nova de Gaia,Portugal,http://www.realcompanhiavelha.pt,,10
1120,Red Bull Deutschland GmbH,Osterwaldstraße 10,D-80805,München,Deutschland,http://www.redbull.com,,10
1121,REFRESCO DEUTSCHLAND GmbH,Speicker Straße 2-8,D-41061,Mönchengladbach,Deutschland,http://www.refresco.de,,10
1122,Reh Kendermann GmbH Weinkellerei,Am Ockenheimer Graben 35,D-55411,Bingen am Rhein,Deutschland,http://www.reh-kendermann.de,,10
1123,Reidemeister & Ulrichs GmbH,Konsul-Smidt-Straße 8 J,D-28217,Bremen,Deutschland,http://www.ruu.de,,10
1124,Remstalkellerei eG,Kaiserstraße 13,D-71384,Weinstadt-Beutelsbach,Deutschland,http://www.remstalkellerei.de,,10
1125,Remus Quelle GmbH & Co. KG,Memminger Straße 8,D-87767,Niederrieden,Deutschland,http://www.remus-quelle.de,,10
1126,Rémy Cointreau,21 Bd Haussmann,F-75009,Paris,Frankreich,http://www.remy-cointreau.comen,,10
1127,Residenz Getränke Zentrum GmbH,Durmersheimer Straße 59,D-76231,Karlsruhe,Deutschland,http://www.residenz-getraenke.de,,10
1128,rest Drink GmbH & Co. KG,Haynauer Straße 49,D-12249,Berlin,Deutschland,http://www.restdrink.de,,10
1129,Rexim Lebensmittelproduktion KG,Wittenberger Weg 9,D-24941,Flensburg,Deutschland,http://www.rexim-lebensmittel.de,,10
1130,Rhanerbräu GmbH & Co. KG,Rhan 9,D-93488,Schönthal - Rhan,Deutschland,http://www.rhaner.de,,10
1131,RheinfelsQuellen H. Hövelmann GmbH & Co. KG,Römerstraße 109,D-47179,Duisburg-Walsum,Deutschland,http://www.rheinfelsquellen.de,,10
1132,Rheinisch-Bergischer Mineralbrunnen-Vertrieb GmbH & Co. KG,Max-Planck-Straße 21,D-40699,Erkrath,Deutschland,,,10
1133,Rheinische Sektkellerei Nic. Rüttgers GmbH,Biebricher Allee 143,D-65187,Wiesbaden,Deutschland,http://www.ruettgers.de,,10
1134,Rheinsberger Preußenquelle GmbH,Zur Preussenquelle 5,D-16831,Rheinsberg,Deutschland,http://www.preussenquelle.de,,10
1135,Rhenser Mineralbrunnen GmbH,Brunnenstraße 2-8,D-56321,Rhens,Deutschland,http://www.rhenser.de,,10
1136,Rhodius Mineralquellen und Getränke GmbH & Co. KG,Brohltalstraße 2,D-56659,Burgbrohl,Deutschland,http://www.rhodius-mineralwasser.de,,10
1137,Rhön-Hessische Brennerei A. und W. Dworzak GmbH & Co. KG,Leipziger Straße 143,D-36037,Fulda,Deutschland,http://www.dworzak-fulda.de,,10
1138,Rhönbrauerei Dittmar GmbH,Fuldaer Straße 6,D-36452,Kaltennordheim,Deutschland,http://www.rhoenbrauerei.de,,10
1139,Ricker Fruchtsäfte GmbH,Kellerwiesen 19,D-73614,Schorndorf,Deutschland,http://www.ricker-saft.de,,10
1140,RIEDENBURGER BRAUHAUS Michael Krieger GmbH & Co.KG,Hammerweg 5,D-93339,Riedenburg/Germany,Deutschland,http://www.riedenburger.de,,10
1141,Riemerschmid Sirup Erding GmbH,Justus-von-Liebig-Straße 2,D-85435,Erding,Deutschland,http://www.riemerschmid.de,,10
1142,Rietenauer Mineralquellen GmbH,Gerhard-Rummler-Straße 1,D-74343,Sachsenheim,Deutschland,http://www.rietenauer.de,,10
1143,riha WeserGold Getränkegruppe,Behrenstraße 44-64,D-31737,Rinteln,Deutschland,http://www.riha.de,,10
1144,Ritter St. Georgen Brauerei Nennslingen Karl Gloßner GmbH & Co. KG,Marktplatz 1,D-91790,Nennslingen,Deutschland,http://www.ritter-bier.de,,10
1145,Ritter von Dalberg GmbH,Weinstraße 130,D-67480,Edenkoben,Deutschland,http://www.ritter-von-dalberg.de,,10
1146,Robert Meisner GmbH & Co. KG Spirituosen- und Likörfabrik,Brahmsstraße 16a,D-25746,Heide (Holstein),Deutschland,http://www.meisner-spirituosen.de,,10
1147,Rohrauer Mineralbrunnen GmbH,Gärtringer Straße 50,D-71116,Gärtringen,Deutschland,http://www.rohrauer.de,,10
1148,Roisdorfer Mineralquellen GmbH & Co. KG,Brunnenallee 1,D-53332,Bornheim Roisdorf,Deutschland,http://www.roisdorfer.de,,10
1149,Rola GmbH & Co. KG,Graf-Preysing-Straße 14,D-84056,Rottenburg an der Laaber,Deutschland,http://www.rola-spirits.de,,10
1150,Rolf Herzberger GmbH & Co. KG,Am Felsbrunnen 8,D-66119,Saarbrücken,Deutschland,http://www.herzberger.de,,10
1151,Römerwall Naturbrunnen- und Getränke GmbH & Co. KG,Römerstraße 109,D-47179,Duisburg-Walsum,Deutschland,http://www.roemerwall.de,,10
1152,Romina Mineralbrunnen GmbH & Co. KG,Germanenstraße 21,D-72768,Reutlingen,Deutschland,http://www.eiszeitquell.de,,10
1153,Rosenbrauerei Pößneck GmbH,Dr. Wilhelm-Külz-Straße 41,D-07381,Pößneck,Deutschland,http://www.rosenbrauerei.de,,10
1154,Rosenheimer Spezialitätenbrauerei GmbH,Münchener Straße 80,D-83022,Rosenheim,Deutschland,http://www.chiemseer.de,,10
1155,Rotbäckchen-Vertriebs GmbH,Scheurener Straße 4,D-53572,Unkel,Deutschland,http://www.rotbaeckchen.de,,10
1156,Roth Bier GmbH,Obere Straße 24,D-97421,Schweinfurt,Deutschland,http://www.rothbier.com,,10
1157,Rother-Bräu Bayerische Exportbierbrauerei Roth Ida Schneider GmbH,Birkenweg 2,D-97647,Hausen (Spessart),Deutschland,http://www.rotherbraeu.de,,10
1158,Rotkäppchen-Mumm Sektkellereien GmbH,Sektkellereistraße 5,D-06632,Freyburg/Unstrut,Deutschland,http://www.rotkaeppchen.de,,10
1159,Rotochsenbrauerei Hermann Veit GmbH & Co. KG,Alte Steige 4,D-73479,Ellwangane,Deutschland,http://www.rotochsenbrauerei.de,,10
1160,Rottaler Fruchtsaft GmbH & Co. KG,Simbacher Straße 26,D-94094,Rotthalmünster,Deutschland,http://www.rottaler.elro-gruppe.com,,10
1161,Rüdesheimer Sektkellerei Ohlig & Co. KG,Kaiserstraße 4a,D-65385,Rüdesheim am Rhein,Deutschland,http://www.ohlig-sekt.de,,10
1162,Rüdiger Reineckes Getränke,Holländische Reihe 3-5,D-22765,Hamburg,Deutschland,http://www.reineckes.com,,10
1163,Rudolf Prehn GmbH,Hohe Bleichen 13,D-20354,Hamburg,Deutschland,http://www.prehn.com,,10
1164,Rudolf WILD GmbH & Co. KG,Rudolf-Wild-Straße 4-6,D-69214,Eppelheim,Deutschland,http://www.wild.de,,10
1165,Ruppaner Brauerei OHG,Hoheneggstraße 41-51,D-78464,Konstanz,Deutschland,http://www.ruppaner.de,,10
1166,Ruppertsberger Weinkeller Hoheburg eG,Hauptstraße 94,D-67152,Ruppertsberg,Deutschland,http://www.ruppertsberger.de,,10
1167,Russisches Kammertheater Berlin in der Kulturbrauerei,Knaackstraße 97,D-10435,Berlin,Deutschland,http://www.russischeskammertheater.de,,10
1168,S. Fassbind AG,Poststraße 7,CH-6414,Oberarth,Schweiz,http://www.fassbind.ch,,10
1169,S.&E.&A. Metaxa A.B.E.,Andrea Metaxa 6,GR-145 64,Kifisia,Griechenland,,,10
1170,Saar-Mosel-Winzersekt GmbH,Gilbertstraße 34,D-54290,Trier,Deutschland,http://www.smw-trier.de,,10
1171,Sachsenquelle GmbH,An den Quellen 1,D-04838,Eilenburg,Deutschland,http://www.sachsenquelle.de,,10
1172,Sailaufer Mineralbrunnen,Aschaffenburger Straße 12,D-63877,Sailauf,Deutschland,http://www.sailaufer-mineralbrunnen.de,,10
1173,Salvus Mineralbrunnen GmbH,Hollefeldstraße 13,D-48282,Emsdetten,Deutschland,http://www.salvus.de,,10
1174,Sangrita Gewürz- und Kräuterspezialitäten GmbH,Justus-von-Liebig-Straße 2,D-85435,Erding,Deutschland,http://www.sangrita.de,,10
1175,Sanpellegrino Deutschland GmbH,Wilhelm-Theodor-Römheld-Straße 22,D-55130,Mainz,Deutschland,http://www.sanpellegrino.de,,10
1176,Scharlachberg Weinbrennerei Nfgr. gegr. 1898 GmbH,Gaustraße 20,D-55411,Bingen am Rhein,Deutschland,http://www.scharlachberg.de,,10
1177,Schaumburger Privat-Brauerei,St. Annen 11,D-31655,Stadthagen,Deutschland,http://www.schaumburger-brauerei.de,,10
1178,Scherdel Bier GmbH & Co. KG,Unterkotzauer Weg 14,D-95028,Hof,Deutschland,http://www.scherdelbier.de,,10
1179,SCHIERKER FEUERSTEIN GmbH & Co. KG,Schierker-Feuerstein-Platz 1-5,D-37431,Bad Lauterberg,Deutschland,http://www.schierker-feuerstein.de,,10
1180,SCHILKIN GmbH & Co. KG BERLIN,Alt-Kaulsdorf 1/11 Gutshof,D-12621,Berlin,Deutschland,http://www.schilkin.de,,10
1181,Schlenkerhof Natursäfte und Nektare Fruchtsaftvertriebs-GmbH,Eggartskircherstraße 8,D-88213,Ravensburg,Deutschland,http://www.schlenkerhof.de,,10
1182,Schlitzer Korn- und Edelobstbrennerei GmbH,Im Grund 16,D-36110,Schlitz,Deutschland,http://www.schlitzer-destillerie.de,,10
1183,Schlör Bodensee-Fruchtsaft GmbH & Co. KG,Eisenbahnstraße 20,D-78315,Radolfzell,Deutschland,http://www.schloer.de,,10
1184,Schloss Johannisberger Weingüterverwaltung GbR,Schloss Johannisberg,D-65366,Geisenheim,Deutschland,http://www.schloss-johannisberg.de,,10
1185,Schloss Quelle Mellis GmbH,Ruhrorter Straße 16,D-45478,Mülheim a.d. Ruhr,Deutschland,http://www.schloss-quelle.de,,10
1186,Schloss Wachenheim AG,Niederkircher Straße 27,D-54294,Trier,Deutschland,http://www.schloss-wachenheim.com,,10
1187,Schloss-Quelle Mellis GmbH,Ruhrorterstraße 16,D-45478,Mülheim,Deutschland,,,10
1188,Schlossbrauerei Aulendorf GmbH,Schulstraße 26,D-88326,Aulendorf,Deutschland,http://www.schlossbrauerei-aulendorf.de,,10
1189,Schlossbrauerei Autenried GmbH,Bräuhausstraße 2,D-89335,Ichenhausen,Deutschland,http://www.autenrieder.de,,10
1190,Schlossbrauerei Eichhofen Günther von Braunbehrens e.K.,Von-Rosenbusch-Straße 8,D-93152,Nittendorf,Deutschland,http://www.eichhofener.de,,10
1191,Schlossbrauerei Friedenfels GmbH & Co. KG,Gemmingen-Straße 33,D-95688,Friedenfels,Deutschland,http://www.schlossbrauerei-friedenfels.de,,10
1192,Schlossquell Güstrow GmbH & Co. KG,Ziegeleiwiese 5,D-18273,Güstrow,Deutschland,http://www.guestrower.de,,10
1193,Schloßbergkellerei Schnaufer GmbH,Im Mönchswasen 1,D-75382,Althengstett,Deutschland,http://www.schlossbergkellerei.de,,10
1194,Schloßbräu Drachselsried Richard Bruckmayer GmbH & Co. KG,Hofmark 1,D-94256,Drachselsried,Deutschland,http://www.schlossbraeu.de,,10
1195,Schlossbrauerei Au-Hallertau Willibald Beck Freiherr von Peccoz GmbH & Co.,Schlossbräugasse 2,D-84072,Au in der Hallertau,Deutschland,http://www.auer-bier.de,,10
1196,Schloßbrauerei Chr. Stelzer; Fattigau,Hauptstraße 3,D-95145,Oberkotzau,Deutschland,http://www.schlossbrauerei-stelzer.de,,10
1197,Schloßbrauerei Eichhofen Getränkefachmarkt,Brunnleite 8,D-93047,Regensburg,Deutschland,http://www.eichhofen.de,,10
1198,Schloßbrauerei Fuchsberg; Inh. Franz Vogl,Bierbrunnen 1,D-92552,Teunz,Deutschland,http://www.fuchsberger-bier.de,,10
1199,Schlossbrauerei Grünbach bei Erding GmbH,Kellerberg 2,D-85461,Bockhorn (Oberbayern),Deutschland,http://www.schlossbrauerei-gruenbach.de,,10
1200,Schlossbrauerei Herrngiersdorf,Schloßallee 5,D-84097,Herrngiersdorf,Deutschland,http://www.gruenbacher-weissbier.de,,10
1201,Schlossbrauerei Holnstein KG,Holnstein 24,D-92259,Neukirchen (Knüll),Deutschland,http://www.schlossbrauerei-holnstein.de,,10
1202,Schlossbrauerei Irlbach GmbH & Co.K,Heckenweg 5,D-94342,Irlbach,Deutschland,http://www.schlossbrauerei-irlbach.de,,10
1203,Schloßbrauerei Kaltenberg Irmingard Prinzessin von Bayern GmbH,Augsburger Straße 41,D-82256,Fürstenfeldbruck,Deutschland,http://www.koenig-ludwig.com,,10
1204,Schloßbrauerei Maxlrain Leo Graf von Hohenthal und Bergen GmbH & Co. KG,Aiblinger Straße 1,D-83104,Tuntenhausen,Deutschland,http://www.maxlrain.de,,10
1205,Schlossbrauerei Naabeck GmbH & Co. KG,Naabecker Straße 13,D-92421,Schwandorf,Deutschland,http://www.naabecker.de,,10
1206,Schlossbrauerei Neunkirchen GmbH,Büchelstraße 7,D-66538,Neunkirchen (Siegerland),Deutschland,,,10
1207,Schlossbrauerei Reckendorf Georg Dirauf GmbH & Co. KG,Mühlweg 16,D-96182,Reckendorf,Deutschland,http://www.recken.de,,10
1208,Schloßbrauerei Reuth GmbH,Hauptstraße 22,D-92717,Reuth bei Erbendorf,Deutschland,http://www.schlossbraureuth.de,,10
1209,Schloßbrauerei Scherneck Inhaber Dietlinde Siedler e.K.,Scherneck 1,D-86508,Rehling,Deutschland,http://www.schloss-scherneck.de,,10
1210,Schloßbrauerei Schwarzbach GmbH,Zur Schleuse 1,D-98673,Auengrund,Deutschland,http://www.schlossbrauerei-schwarzbach.de,,10
1211,Schlossbrauerei Stein Wiskott GmbH & Co. KG,Schlosshof 2,D-83371,Traunreut,Deutschland,http://www.steiner-bier.de,,10
1212,Schlossbrauerei Stöckle Schmieheim e.K.,Schloßstraße 64,D-77971,Kippenheim-Schmieheim,Deutschland,http://www.hieronymus.beer,,10
1213,Schloßbrauerei Unterbaar Albrecht Freiherr Groß von Trockau e.K.,Hauptstraße 18,D-86674,Baar (Schwaben),Deutschland,http://www.schlossbrauerei-unterbaar.de,,10
1214,Schlossbrauerei zu Sandersdorf Schambachtal GmbH,Nürnberger Straße 13,D-93336,Altmannstein,Deutschland,http://www.sandersdorfer.de,,10
1215,Schlossbrunnen Wüllner GmbH & Co. KG,,D-39444,Hecklingen (OT Gänsefurth),Deutschland,http://www.gaensefurther.de,,10
1216,Schlosskellerei Affaltrach Dr. Reinhold Baumann KG,Am Ordensschloss 15-21,D-74182,Obersum-Affaltrach,Deutschland,http://www.schlossaffaltrach.de,,10
1217,Schloßkellerei Ramelsberg Betriebs GmbH,Schloßberg 21,D-94513,Schönberg (Niederbayern),Deutschland,http://www.schloss-ramelsberg.de,,10
1218,Schlumberger GmbH & Co. KG,Buschstraße 20,D-53340,Meckenheim,Deutschland,http://www.schlumberger.de,,10
1219,Schlüssel GmbH & Co. KG,Bolkerstraße 41-47,D-40213,Düsseldorf,Deutschland,http://www.zumschluessel.de,,10
1220,Schlüsselbräu Privatbrauerei Helmut Bosch,Oggenhauser Straße 34,D-89537,Giengen an der Brenz,Deutschland,http://www.schluesselbraeu.de,,10
1221,Schneekloth Söhne GmbH,Alte Weide 7-13,D-24116,Kiel,Deutschland,http://www.schneekloth.de,,10
1222,Schneider Weisse G. Schneider & Sohn GmbH,Emil-Ott-Straße 1-5,D-93309,Kelheim,Deutschland,http://www.schneider-weisse.de,,10
1223,Schöfferhofer Weizen GmbH,Darmstädter Landstraße 185,D-60598,Frankfurt am Main,Deutschland,http://www.schoefferhofer.de,,10
1224,Schönbuch-Bräu Betriebs-GmbH,Postplatz 6,D-71032,Böblingen,Deutschland,http://www.braumanufaktur.com,,10
1225,Schulze Niehoff – Spirituosen Kontor e.K,Daldrup 29,D-48249,Dülmen,Deutschland,http://www.niehoff-likoere.de,,10
1226,Schussenrieder Brauerei Ott GmbH & Co. KG,Wilhelm-Schussen-Straße 12,D-88427,Bad Schussenried,Deutschland,http://www.schussenrieder.de,,10
1227,Schüttinger Gasthausbrauerei,Hinter dem Schütting 12-13,D-28195,Bremen,Deutschland,http://www.schuettinger.de,,10
1228,Schwalbacher Mineralbrunnen GmbH,Brunnenstraße 29,D-35641,Schöffengrund,Deutschland,http://www.schwalbacher-quelle.de,,10
1229,Schwarzbräu GmbH,Marktplatz 6,D-86441,Zusmarshausen,Deutschland,http://www.schwarzbraeu.de,,10
1230,Schwarzwald-Sprudel GmbH,Edekastraße 1,D-77656,Offenburg,Deutschland,http://www.schwarzwald-sprudel.de,,10
1231,Schweppes Deutschland GmbH,Hagener Straße 261,D-57223,Kreuztal,Deutschland,http://www.schweppes.de,,10
1232,Schwerter Brauerei Wohlers KG,Ziegelstraße 6,D-01662,Meißen,Deutschland,http://www.schwerter-brauerei.de,,10
1233,Schwind Bräu GmbH,Schweinheimer Straße 117,D-63743,Aschaffenburg,Deutschland,http://www.schwindbraeu.de,,10
1234,Schwollener Sprudel GmbH & Co. KG,Am Sauerbrunnen 21,D-55767,Schwollen,Deutschland,http://www.schwollener.de,,10
1235,Sechsämter Likör GmbH,Sechsämtergässchen 2,D-95632,Wunsiedel,Deutschland,http://www.sechsaemtertropfen.de,,10
1236,Sectkellerei Georg Geiling GmbH,Mainzer Straße 33-35,D-55422,Bacharach,Deutschland,http://www.geiling.de,,10
1237,Seifermann Fruchtsäfte Kelterei Bre,Lindenstraße 24,D-77833,Ottersweier,Deutschland,http://www.seifermann-fruchtsaft.de,,10
1238,Sektkellerei Am Turm Deidesheim-Speyer GmbH,Brunckstraße 21,D-67356,Speyer,Deutschland,http://www.sektkellerei-am-turm.de,,10
1239,Sektkellerei Bernard-Massard GmbH,Jakobstraße 8,D-54290,Trier,Deutschland,http://www.bernard-massard.de,,10
1240,Sektkellerei Deidesheim Inh. Klaus Reis,Bennstraße 37-39,D-67146,Deidesheim,Deutschland,http://www.sektkellerei.de,,10
1241,Sektkellerei Faber GmbH,Niederkircher Straße 27,D-54294,Trier,Deutschland,http://www.faber-sekt.de,,10
1242,Sektkellerei J. Oppmann AG,Martin-Luther-Straße 7,D-97072,Würzburg,Deutschland,http://www.oppmann.de,,10
1243,Sektkellerei Nymphenburg GmbH,Martin-Kollar-Straße 4,D-81829,München,Deutschland,http://www.nymphenburg-sekt.de,,10
1244,Sélection Prestige GmbH,Pariser Straße 3,D-10719,Berlin,Deutschland,http://www.selection-prestige.de,,10
1245,Sélection Prestige GmbH,Pariser Str. 3,D-10719,Berlin,Deutschland,http://www.selection-prestige.de/,,10
1246,Selters Mineralquelle Augusta Victoria GmbH,Seltersweg 1,D-35792,Löhnberg Seltersweg,Deutschland,http://www.selters-water.com,,10
1247,Seltina Mineralbrunnen GmbH,Flautweg 4,D-44329,Dortmund,Deutschland,,,10
1248,Semper idem Underberg AG,Hubert-Underberg-Allee 1,D-47495,Rheinberg,Deutschland,http://www.underberg.com,,10
1249,Severin-Quelle Mineralbrunnen GmbH & Co. KG,Severin-Quelle 1,D-94486,Osterhofen,Deutschland,,,10
1250,Siegsdorfer Petrusquelle GmbH,Höpflinger Weg 8,D-83313,Siegsdorf,Deutschland,http://www.petrusquelle.de,,10
1251,Sierra Madre GmbH,Rohrstraße 26,D-58093,Hagen,Deutschland,http://www.sierra-madre.de,,10
1252,SIG Import GmbH,Schlüterstraße 3,D-40235,Düsseldorf,Deutschland,,,10
1253,Silberquell Mineralbrunnen Weydringer KG,Am Zauberberg 3,D-38667,Bad Harzburg,Deutschland,,,10
1254,Simex Vertrieb GmbH & Co. KG,Wiesenstraße 5,D-52428,Jülich,Deutschland,http://www.simex.com,,10
1255,Sinziger Mineralbrunnen GmbH,Bodendorfer Straße 4,D-53489,Sinzig,Deutschland,http://www.sinziger.de,,10
1256,SLE Innovation GmbH,Horstring 12,D-76829,Landau in der Pfalz,Deutschland,http://www.sle.de,,10
1257,Sodenthaler Mineralbrunnen GmbH,Sodentalstraße 20,D-63834,Sulzbach am Main,Deutschland,http://www.sodenthaler.de,,10
1258,Sogrape Vinhos SA,Rua 5 de Outubro 4527,PT-4430-809,Avintes,Portugal,http://www.sograpevinhos.com,,10
1259,Sonnländer Getränke GmbH,Waldstraße 4,D-04571,Rötha,Deutschland,http://www.sonnlaender.de,,10
1260,Spaten-Franziskaner Bräu GmbH,Marsstraße 46 - 48,D-80335,München,Deutschland,http://www.spatenbraeu.de,,10
1261,Spessart-Quelle Heinrich August Balduff KG,Hauptstraße 1,D-63599,Biebergemünd,Deutschland,http://www.spessart-quelle.de,,10
1262,Spezialitäten & Edelobstbrennerei Bauer GmbH & Co. Betriebs KG,Beuchen 70-72,D-63916,Amorbach,Deutschland,http://www.bauers-wildsau.de,,10
1263,Spreequell Mineralbrunnen GmbH,Bouchéstraße 12,D-12435,Berlin,Deutschland,http://www.spreequell.de,,10
1264,St. Barthelmeh Srl,Casa Vinicola,I-37020,Dolce,Italien,,,10
1265,St. Florian Bräu Brauerei GmbH,Kaiserstraße 37-39,D-61169,Friedberg (Hessen),Deutschland,http://www.friedberger-brauhaus.de,,10
1266,St. GeorgenBräu Kramer GmbH & Co. KG,Marktstraße 12,D-96155,Buttenheim,Deutschland,http://www.georgenbraeu.de,,10
1267,St. Leonhards-Vertriebs GmbH & Co. KG,Mühlthalweg 54,D-83071,Stephanskirchen,Deutschland,http://www.st-leonhards-quelle.de,,10
1268,St. Nikolaus Kräuterspezialitäten GmbH,Hubert-Underberg-Allee 1,D-47495,Rheinberg,deutschland,http://www.sankt-nikolaus.net/,,10
1269,St. Nikolaus-Quelle Malborn GmbH und Co. KG,Tiefentalerhof 1,D-54426,Malborn,Deutschland,http://www.st-nikolaus-quelle.de,,10
1270,Staatl. Mineralbrunnen AG,Amand-von-Buseck-Straße 2,D-97769,Bad Brückenau,Deutschland,http://www.badbrueckenauer.de,,10
1271,Staatlich Bad Meinberger Mineralbrunnen GmbH & Co. KG,Am Waldstadion 1,D-32805,Horn-Bad Meinberg,Deutschland,http://www.badmeinberger.de,,10
1272,Staatliches Hofbräuhaus In München,Hofbräuallee 1,D-81829,München,Deutschland,http://www.hofbraeu-muenchen.de,,10
1273,Staatsweingut Weinsberg,Traubenplatz 5,D-74189,Weinsberg,Deutschland,http://www.sw-weinsberg.de,,10
1274,Stabifix Brauerei-Technik KG,Lochhamer Schlag 17,D-82166,Gräfelfing,Deutschland,http://www.stabifix.com,,10
1275,Stadtbrauerei Roth,Büchenbacher Weg 8,D-91154,Roth (Landkreis Altenkirchen),Deutschland,http://www.http://www.stadtbrauereiroth.de,,10
1276,Stadtbrauerei Spalt,Brauereigasse 3,D-91174,Spalt,Deutschland,http://www.spalter-bier.de,,10
1277,StadtBrauerei Troisdorf,Am Bürgerhaus,D-53840,Troisdorf,Deutschland,http://www.stadtbrauerei.de,,10
1278,Stadtbrauerei Wittichenau E. Glaab GmbH,Haschkestraße 33,D-02997,Wittichenau,Deutschland,http://www.wittichenauer.de,,10
1279,Standard Getränke Stams GmbH & Co. KG,Nordstraße 3,D-46485,Wesel,Deutschland,http://www.getraenke-stams.de,,10
1280,Steffens GmbH Produktion und Vertrieb,Allerstraße 23,D-53332,Bornheim,Deutschland,http://www.brauerei-steffens.de,,10
1281,Steinhauser GmbH,Berger Straße 1,D-88212,Ravensburg,Deutschland,http://www.steinhausergroup.com,,10
1282,Steinwälder Hausbrennerei Schraml e.K.,Kaiserberg 16,D-92681,Erbendorf,Deutschland,http://www.brennerei-schraml.de,,10
1283,Stemwederbergkelterei Friedrich Bosse,Stemwederberg Straße 107,D-32351,Stemwede,Deutschland,http://www.bossesaft.de,,10
1284,Sternberg Spirituosen- Vertriebs-GmbH,Europaallee 57,D-50226,Frechen,Deutschland,,,10
1285,Sternburg-Brauerei GmbH,Mühlstraße 13,D-04317,Leipzig,Deutschland,http://www.sternburg-bier.de,,10
1286,Sternla Bier GmbH,Höchberger Straße 28,D-97082,Würzburg,Deutschland,http://www.sternlaschmeckt.de,,10
1287,Sternquell Brauerei GmbH,Donaustraße 83,D-08523,Plauen,Deutschland,http://www.sternquell.de,,10
1288,Sternthaler GmbH (Tochterfirma von Josef-Drathen GmbH und Co. KG),Wittekindstraße 53,D-90431,Nürnberg,Deutschland,http://www.josef-drathen.de,,10
1289,Stieglbrauerei zu Salzburg GmbH,Kendlerstraße 1,A-5017,Salzburg,Österreich,http://www.stiegl.at,,10
1290,Stingel Fruchtsäfte GmbH,Harthofstraße 4,D-72336,Balingen,Deutschland,http://www.saftwelt.de,,10
1291,STOCK S.r.L,Via Tucidide 56,I-20134,Milano,Italien,http://www.stock-spa.it,,10
1292,Storchenbräu Hans Roth GmbH & Co. KG,Kirchplatz 5,D-87772,Pfaffenhausen,Deutschland,http://www.storchenbraeu.de,,10
1293,Störtebeker Braumanufaktur GmbH,Greifswalder Chaussee 84-85,D-18439,Stralsund,Deutschland,https://www.stoertebeker.com/,,10
1294,Stralsunder Brauerei GmbH,Greifswalder Chaussee 84-85,D-18439,Stralsund,Deutschland,http://www.stralsunder.de,,10
1295,Stralsunder Kelterei Leithoff GmbH,Rostocker Chaussee 25,D-18437,Stralsund,Deutschland,http://www.kelterei-leithoff.de,,10
1296,STROH Austria Gesellschaft mbH,Strohgasse 6,AT-9020,Klagenfurt,Österreich,http://www.stroh.at,,10
1297,STUTE Nahrungsmittelwerke GmbH & Co. KG,Abtsbrede 129,D-33098,Paderborn,Deutschland,http://www.stute-nahrungsmittelwerke.de,,10
1298,Stuttgarter Hofbräu AG,Böblinger Straße 104,D-70199,Stuttgart,Deutschland,http://www.stuttgarter-hofbraeu.de,,10
1299,SÜDKOLA Limonadenwerk,Eckenerstraße 10,D-74321,Bietigheim-Bissingen,Deutschland,http://www.suedkola.de,,10
1300,Süßmost & Weinkelterei Hohenseefeld GmbH,Luckenwalder Straße 5a,D-14913,Hohenseefeld,Deutschland,http://www.werder-frucht.com,,10
1301,Süßmosterei Matthias Stöger GmbH,Osterbuchberger Weg 2 - 4,D-83236,Übersee,Deutschland,http://www.stoeger.de,,10
1302,Süssmosterei Steinmeier GmbH & Co. KG,Kaltoft 4,D-24392,Kiesby,Deutschland,http://www.suessmosterei-steinmeier.de,,10
1303,tbottlers GmbH,Halleschestraße 34,D-06779,Raguhn,Deutschland,http://www.tbottlers.com,,10
1304,Team Beverage AG,Dr.-Eckener-Straße 14,D-27793,Wildeshausen,Deutschland,http://www.team-beverage.de,,10
1305,Teehaus GmbH,Zwickauer Straße 27,D-01069,Dresden,Deutschland,http://www.teehaus-tee.de,,10
1306,Teekanne GmbH & Co. KG,Kevelaerer Straße 21-23,D-40549,Düsseldorf,Deutschland,http://www.teekanne.de,,10
1307,Teeküchen GmbH,Brunnenstraße 1,D-61184,Karben,Deutschland,http://www.ti-erfrischungstee.de,,10
1308,temetum GmbH,Karlstraße 19-21,D-35444,Biebertal,Deutschland,http://www.temetum.eu,,10
1309,Tequilaland GmbH,Vogelsbergstraße 26,D-63456,Hanau,Deutschland,http://www.tequilaland.de,,10
1310,Teusser Mineralbrunnen Karl Rössle GmbH & Co. KG,Teusserbadstraße 33-35,D-74245,Löwenstein-Teusserbad,Deutschland,http://www.teusser.de,,10
1311,Teutoburger Mineralbrunnen GmbH,Brockhagener Straße 200,D-33649,Bielefeld,Deutschland,http://www.christinen.de,,10
1312,THE BALVENIE DISTILLERY,Balvenie Maltings,AB55 4BB,Dufftown,Schottland,http://www.thebalvenie.com,,10
1313,The Boston Beer Company,One Design Center Place; Suite 850,US-2210,Boston; MA,USA,http://www.bostonbeer.com,,10
1314,The Drambuie Liqueur Company Ltd,Strathclyde Business Park,GB-ML4 3AN,Bellshill; Lanarkshire,Schottland,http://www.drambuie.com,,10
1315,The Duke Destillerie,Feldkirchner Straße 1,D-85609,Aschheim b. München,Deutschland,http://www.theduke-gin.de,,10
1316,The GlenDronach Distillery Co. Ltd,50 Lothian Road; Festival Square,GB-ESH3 9WJ,Edinburgh,Schottland,http://www.glendronachdistillery.co.uk,,10
1317,The Irish Mist Whiskey Co.,1-36 Upper Ormind Quay Upper North City,IE-D07 W086,Dublin,Irland,http://www.irishmist.com/,,10
1318,The Old Bushmill Distillery,2 Distillery Rd,GB-BT57 8XH,Bushmills; County Antrim,Vereintes Königreich,http://www.bushmills.comdistillery,,10
1319,Thomas Henry GmbH & Co. KG,Bessemerstraße 2-14,D-12103,Berlin,Deutschland,http://www.thomas-henry.de,,10
1320,Thomas Lintl - Fa. Weissenbach,Jahnstraße 4,D-82380,Peißenberg,Deutschland,http://www.getraenke-weissenbach.de,,10
1321,Thorbräu Augsburg Max Kuhnle GmbH & Co. KG,Wertachbrucker-Tor-Straße 9,D-86152,Augsburg,Deutschland,http://www.thorbraeu.de,,10
1322,Thorfried Met Honigwein,Pablo-Picasso-Straße 17,D-13057,Berlin,Deutschland,http://www.thorfried-met.de,,10
1323,Three Sixty Vodka GmbH,Havelchaussee 162,D-14055,Berlin,Deutschland,http://www.threesixty-vodka.com,,10
1324,Thüringer Waldquell Mineralbrunnen GmbH,Kasseler Straße 76,D-98574,Schmalkalden,Deutschland,http://www.twq.de,,10
1325,Thüringer Weinkellereien GmbH Gotha,Stielerstraße 4,D-99853,Gotha,Deutschland,http://www.gotano.de,,10
1326,TLG Kulturbrauerei GmbH &Co. KG,Schönhauser Allee 36,D-10435,Berlin,Deutschland,http://www.kulturbrauerei.de,,10
1327,Tonka Gin,Papenreye 18,D-22453,Lensahn,Deutschland,http://www.tonka-gin.com,,10
1328,Tophi GmbH,Ringstraße 2,D-04749,Ostrau/Sachsen,Deutschland,http://www.wsk-ostrau.de,,10
1329,Tophi Warenhandelsgesel. AG & Co. KG,Haferweg 38,D-22769,Hamburg,Deutschland,,,10
1330,Toschi Vignola Srl,Via Genova 244,I-41056,Savignano Sul Panaro MO,Italien,http://www.toschi.it/,,10
1331,TROY AQUA GmbH,Gewerbepark 1,D-06917,Jessen (Elster),Deutschland,http://www.troy-aqua.de,,10
1332,Tuborg Vertriebs-GmbH,Holstenstraße 224,D-22765,Hamburg,Deutschland,http://www.tuborg.de,,10
1333,Tucher Bräu GmbH & Co. KG Brauereibetriebsgesellschaft,Schwabacher Straße 106,D-90763,Fürth,Deutschland,http://www.tucher.de,,10
1334,Tullamore Dew Company LTD,Bury Quay,,Puttaghan; Tullamore,Irland,http://www.tullamoredew.com,,10
1335,TURM Gasthaus-Brauerei GmbH,Heinersdorfer Damm 1-11,D-16303,Schwedt/Oder,Deutschland,http://www.turmhotel-schwedt.de,,10
1336,Turoa Rum International GmbH,Glockengießerwall 26,D-20095,Hamburg,Deutschland,,,10
1337,Überkinger GmbH,Geislinger Straße 61,D-73337,Bad Überkingen,Deutschland,http://www.ueberkinger.com,,10
1338,UCSA,Camí Antic de Valencia,ES-08850,Gavá (Barcelona),España,http://www.usca.es,,10
1339,Uerige Obergärige Hausbrauerei GmbH,Berger Straße1,D-40213,Düsseldorf,Deutschland,http://www.uerige.de,,10
1340,Unertl Weißbier GmbH,Lerchenberger Straße 6,D-83527,Haag in Oberbayern,Deutschland,http://www.unertl.de,,10
1341,Union Brauerei Bremen GmbH,Theodorstraße 13,D-28219,Bremen,Deutschland,http://www.brauerei-bremen.de,,10
1342,Union Getränke Zupancic GmbH & Co. KG,Rheinberger Straße 74,D-47441,Moers,Deutschland,http://www.union-getraenke.de,,10
1343,Urbacher Mineralquellen AG,Robert-Bosch-Straße 1,D-73660,Urbach,Deutschland,,,10
1344,Urban Chestnut Brewing Co. Deutschland GmbH,Am Brunnen 2,D-85283,Wolnzach,Deutschland,http://www.urbanchestnut.de,,10
1345,Uwe Müller GmbH & Co. KG,Oberwiesachstraße 3,D-72290,Loßburg,Deutschland,http://www.uwemueller.de,,10
1346,V & S Deutschland GmbH,Alter Postweg 39,D-21614,Buxtehude,Deutschland,http://www.vsdeutschland.de,,10
1347,Valensina GmbH,Ruckes 90,D-41238,Mönchengladbach,Deutschland,http://www.valensina.de,,10
1348,Vereinsbrauerei Apolda GmbH,Topfmarkt 14,D-99510,Apolda,Deutschland,http://www.apoldaer.de,,10
1349,Vereinsbrauerei Greiz GmbH,Lindenstraße 60,D-07973,Greiz,Deutschland,http://www.greizer.de,,10
1350,VERPOORTEN GmbH & Co. KG,Potsdamer Platz 1,D-53119,Bonn,Deutschland,http://www.verpoorten.de,,10
1351,Victoria Heil- und Mineralbrunnen GmbH,Max-Schwarz-Straße 1,D-56112,Lahnstein,Deutschland,http://www.lahnsteiner.de,,10
1352,Vielanker Brauhaus GmbH & Co. KG,Lindenplatz 1,D-19303,Vielank,Deutschland,http://www.vielanker.de,,10
1353,Vier Jahreszeiten Winzer eG,Limburgstraße 8,D-67098,Bad Dürkheim,Deutschland,http://www.vj-wein.de,,10
1354,Viktor Kattinger,Schillerstraße 93,D-10625,Berlin–Charlottenburg,Deutschland,,,10
1355,Villa Laviosa KG,Boznerstraße 9,I-39018,Settequerce-Terlano,Italien,http://www.villalaviosa.it,,10
1356,Vilsa-Brunnen Otto Rodekohr GmbH & Co. KG,Alte Drift 1,D-27305,Bruchhausen-Vilsen,Deutschland,http://www.vilsa.de,,10
1357,Vin Aqua Vin Kreuzinger & Gerber GmbH,Weserstraße 204,D-12047,Berlin,Deutschland,http://www.vinaquavin.de,,10
1358,VINISPANA S. Coop.,C/1 Julio 44 3-G,ES-13300,Valdepenas,Deutschland,http://www.vinispana.com,,10
1359,Vinothek Julius Kimmle GmbH & Co. KG,Agnes-Kimmle-Straße 1,D-76889,Kapellen-Drusweiler,Deutschland,http://www.kimmle-wein.de,,10
1360,viQua GmbH,Rathausplatz 6,D-94065,Waldkirchen,Deutschland,http://www.viqua.de,,10
1361,Vivaris Getränke GmbH und Co. KG,Neuer Grund 24,D-49740,Haselünne,Deutschland,http://www.vivaris.net,,10
1362,Voelkel GmbH,Fährstraße 1,D-29478,Höhbeck/OT Pevestorf,Deutschland,http://www.voelkeljuice.de,,10
1363,Vogelsberger Landbrauereien GmbH,Cent 8,D-36341,Lauterbach (Hessen),Deutschland,http://www.alsfelder.de,,10
1364,Volkmarser Mineralbrunnen Waldhoff GmbH & Co. KG,Ehringer Landstraße 102,D-34471,Volkmarsen,Deutschland,http://www.waldecker-mineralbrunnen.de,,10
1365,Vormann Brauerei,Braugasse 5,D-58091,Hagen,Deutschland,http://www.vormann-brauerei.de,,10
1366,Vöslauer Mineralwasser AG,Ottakringer Platz 1,A-1160,Wien,Österreich,http://www.voeslauer.com,,10
1367,Vranken Pommery Deutschland & Österreich GmbH,Mohrenstraße 34,D-10117,Berlin,Deutschland,http://www.vrankenpommery.com,,10
1368,Vulkan Brauerei Mendig GmbH,Laacher-See-Straße 2,D-56743,Mendig,Deutschland,http://www.vulkan-brauerei.de,,10
1369,W. Dinkelaker SCHÖNBUCH-BRÄU GmbH & Co. KG,Postplatz 6,D-71032,Böblingen,Deutschland,http://www.braumanufaktur.com,,10
1370,W. Streker Natursaft GmbH,Daimlerstraße 6,D-71546,Aspach,Deutschland,http://www.streker.de,,10
1371,W.Gloßner GmbH & Co. KG,Felsenweg 2,D-91790,Bergen (Mittelfranken),Deutschland,http://www.felsenbraeu.com,,10
1372,Wacholderbrennerei Wippermann GmbH,Leuchte 29,D-32657,Lemgo,Deutschland,,,10
1373,Waldberg Fruchtsaftkelterei,Niedieckstraße 50,D-47803,Krefeld,Deutschland,,,10
1374,Waldemar Behn GmbH & Co. KG,Kadekerweg 2,D-24340,Eckernförde,Deutschland,http://www.behn.de,,10
1375,Waldhaus GbR; Erste Erfurter Gasthausbrauerei,Rhodaer Chaussee 12,D-99094,Erfurt,Deutschland,http://www.waldhaus-erfurt.de,,10
1376,Waldschloßbrauerei GmbH,Orber Straße 103,D-97833,Frammersbach,Deutschland,http://www.waldschlossbrauerei.de,,10
1377,Waldstadtbrauerei Iserlohn GmbH,Grüner Talstraße 71,D-58644,Iserlohn,Deutschland,http://www.waldstadtbrauerei-iserlohn.de,,10
1378,Waldulmer Winzergenossenschaft eG,Weinstraße 37,D-77876,Kappelrodeck,Deutschland,http://www.waldulmer.de,,10
1379,Warburger Brauerei GmbH,Kuhlemühle,D-34414,Warburg,Deutschland,http://www.warburger-brauerei.de,,10
1380,Warsteiner Brauerei Haus Cramer KG,Domring 4-10,D-59581,Warstein,Deutschland,http://www.warsteiner-gruppe.de,,10
1381,Wartburg Brauerei Eisenach GmbH,Wartburgallee 25a,D-99817,Eisenach,Deutschland,http://www.brauerei-eisenach.de,,10
1382,Watzdorfer Traditions- & Spezialitätenbrauerei GmbH,Watzdorf 14,D-07422,Bad Blankenburg,Deutschland,http://www.watzdorfer.de,,10
1383,Watzke Brauereiausschank am Goldenen Reiter,Hauptstraße 1,D-01097,Dresden,Deutschland,http://www.watzke.de,,10
1384,Webster Brauhaus,Dellplatz 14,D-47051,Duisburg,Deutschland,http://www.webster-brauhaus.de,,10
1385,Weideneder Bräu Vertriebs GmbH & Co. KG,Marktplatz 43,D-84367,Tann,Deutschland,http://www.weideneder.com,,10
1386,Wein Allianz GmbH,Hauptstraße 94,D-67152,Ruppertsberg,Deutschland,http://wa.weinallianz.org,,10
1387,Wein Wolf GmbH,Königswinterer Straße 552,D-53227,Bonn,Deutschland,http://www.weinwolf.de,,10
1388,Wein- und Sektkellerei Jakob Gerhardt Niersteiner Schloßkellereien GmbH & Co. KG,Oberdorfstraße 27-29,D-55283,Nierstein,Deutschland,http://www.jakobgerhardt.de,,10
1389,Weingärtner Cleebronn Güglingen eG,Ranspacher Straße 1,D-74389,Cleebronn,Deutschland,http://www.cleebronner-winzer.de,,10
1390,Weingärtner Markelsheim eG,Scheuerntorstraße 19,D-97980,Bad Mergentheim,Deutschland,http://www.markelsheimer-wein.de,,10
1391,Weingärtner Stromberg-Zabergäu eG,Neipperger Straße 60,D-74336,Brackenheim,Deutschland,http://www.wg-stromberg-zabergaeu.de,,10
1392,Weingut - Sektgut - Destillerie Andreas Diehl,Eisenbahnstraße 3a,D-67483,Edesheim,Deutschland,http://www.diehl-wein.de,,10
1393,Weingut Arno Kronenberger,Außerhalb 7,D-55578,Gau-Weinheim,Deutschland,,,10
1394,Weingut Balthasar Ress,Rheinallee 7,D-65347,Eltville am Rhein,Deutschland,http://www.ress-wine.com,,10
1395,Weingut Ernst Bretz e.K.,Langgasse 35,D-55234,Bechtolsheim,Deutschland,http://www.weingutbretz.de,,10
1396,Weingut Familie Stauff,Weedegasse 13,D-55234,Ober-Flörsheim,Deutschland,http://www.weingut-stauff.de,,10
1397,Weingut Hammel GmbH,Weinstraße Süd 4,D-67281,Kirchheim/Weinstraße,Deutschland,http://www.weinhammel.de,,10
1398,Weingut Heinrich Lorch GmbH & Co. KG,Kurfürstenstraße 11,D-76887,Bad Bergzabern,Deutschland,http://www.lorchwein.de,,10
1399,Weingut Herzog von Württemberg,Schloss Monrepos 9,D-71634,Ludwigsburg,Deutschland,http://www.weingut-wuerttemberg.de,,10
1400,Weingut Ing. Gerald BECK,Untere Hauptstraße 19,A-7122,Gols,Österreich,http://www.gerald-beck.at,,10
1401,Weingut Knöll & Vogel (GbR),Klingweg 3,D-76887,Bad Bergzabern,Deutschland,http://www.knoell-vogel.de,,10
1402,Weingut Lindenhof Familie Bockius Inh.: Frank Bockius,Niedergasse 17,D-55437,Appenheim,Deutschland,http://www.weingut-lindenhof-appenheim.de/,,10
1403,Weingut Otto Beiser,Außerhalb 1,D-55578,Vendersheim,Deutschland,http://www.vendersheim.de,,10
1404,Weingut Ruppert-Deginther,Kämmererstraße 8,D-67596,Dittelsheim-Heßloch,Deutschland,https://www.ruppert-deginther.de,,10
1405,Weingut Schloss Reinhartshausen GmbH & Co. KG,Hauptstraße 41,D-65346,Eltville am Rhein,Deutschland,http://www.schloss-reinhartshausen.de,,10
1406,Weingut Schwarzer Adler,Badbergstraße 23,D-79235,Vogtsburg-Oberbergen,Deutschland,http://www.franz-keller.de,,10
1407,Weinhaus Schloss Koblenz GmbH,Fliehburgstraße 23,D-56856,Zell,Deutschland,,,10
1408,Weinkellerei Hohenlohe eG,Alter Berg1,D-74626,Bretzfeld-Adolzfurt,Deutschland,http://www.weinkellerei-hohenlohe.de,,10
1409,Weinkellerei Kurt Glas,Weinstraße 192,D-67434,Neustadt an der Weinstraße,Deutschland,,,10
1410,Weinkellerei Markgräflerland GmbH,Werderstraße 51,D-79379,Müllheim,Deutschland,,,10
1411,Weinkontor Edenkoben eG,Weinstraße 130,D-67480,Edenkoben,Deutschland,http://www.weinkontor-edenkoben.de,,10
1412,Weinkontor Schloss Friedelsheim GmbH,Hauptstraße 93,D-67159,Friedelsheim,Deutschland,http://www.weincontor-schloss-friedelsheim.de,,10
1413,Weinkontor Westhofen GmbH,Am Bogen 18,D-67593,Westhofen,Deutschland,http://www.weinkontor-westhofen.de,,10
1414,Weinkonvent Dürrenzimmern eG,Meimsheimer Straße 11,D-74336,Brackenheim-Dürrenzimmern,Deutschland,http://www.weinkonvent-duerrenzimmern.de,,10
1415,Weinland Königsbach GmbH,Deidesheimer Straße 12,D-67435,Neustadt an der Weinstraße,Deutschland,http://www.weinland-koenigsbach.de,,10
1416,Weinmanufaktur Weingarten GmbH,Kirchbergstraße 17,D-76356,Weingarten (Baden),Deutschland,http://www.wein-weingarten.de,,10
1417,Weinvertriebsgenossenschaft Ebringen eG,Schönbergstraße 47,D-79285,Ebringen,Deutschland,http://www.winzerhof-ebringen.de,,10
1418,Weiss Rössl Bräu GmbH,Frankenstraße 26,D-97483,Eltmann,Deutschland,http://www.braufranken.de,,10
1419,Weißbierbrauerei Joh. Hopf KG,Schützenstraße 8 + 10,D-83714,Miesbach,Deutschland,http://www.hopfweisse.de,,10
1420,Weissbräu Schwendl GmbH und Co. KG,Schalchener Straße 115,D-83342,Tacherting,Deutschland,http://www.weissbraeu-schwendl.de,,10
1421,Weißbräu Unertl GmbH & Co. KG,Weißgerberstraße 7-15,D-84453,Mühldorf am Inn,Deutschland,http://www.unertl.com,,10
1422,Weizenbrennerei Joh. Dieckmann,Vorsfelder Straße 1,D-38350,Helmstedt,Deutschland,http://www.weizenbrennerei.de,,10
1423,Weldebräu GmbH & Co. KG,Brauereistraße 1,D-68723,Plankstadt,Deutschland,http://www.welde.de,,10
1424,Werder Feinkost GmbH,Phöbener Straße 1,D-14542,Werder (Havel),Deutschland,http://www.werder-feinkost.de,,10
1425,Wernecker Bierbrauerei GmbH & Co. KG,Schönbornstraße 2-4,D-97440,Werneck,Deutschland,http://www.wernecker-bier.de,,10
1426,Wernesgrüner Brauerei GmbH,Bergstraße 4,D-08237,Steinberg (Vogtland),Deutschland,http://www.wernesgruener.de,,10
1427,Wernicke Fruchtsaft GmbH & Co. KG,Helpuper Straße 354 - 358,D-33818,Leopoldshöhe-Helpup,Deutschland,http://www.wernicke-fruchtsaft.de,,10
1428,Westerwald-Brauerei H. Schneider GmbH & Co. KG,Gehlerter Weg 12,D-57627,Hachenburg,Deutschland,http://www.hachenburger.de,,10
1429,Westquell Brunnenbetriebe GmbH,Berliner Straße 50-62,D-44866,Bochum,Deutschland,http://www.westquell.de,,10
1430,WGS Bodensee Getränke GmbH,Egelsee 7,D- 78355,Hohenfels,Deutschland,,,10
1431,Wiesentaler Mineralbrunnen GmbH,Schulstraße 10-12,D-68753,Waghäusel,Deutschland,http://www.wiesentaler.net,,10
1432,Wildbadquelle Mineralbrunnen GmbH & Co. KG,Ritterstraße 6,D-74523,Schwäbisch Hal,Deutschland,http://www.haller-wildbadquelle.de,,10
1433,Wildbräu Grafing GmbH,Rotter Straße 15,D-85567,Grafing bei München,Deutschland,http://www.wildbraeu.de,,10
1434,Wilhelm Behr Inh. Dipl-ing. Cornelia Kubitz,Heinrichsplatz 4 - 5,D-06366,Köthen/Anhalt,Deutschland,http://www.wilhelm-behr.de,,10
1435,Wilhelm Braun Erben GmbH & Co. KG,Bachstraße 14,D-53474,Bad Neuenahr-Ahrweiler,Deutschland,http://www.braun-spirituosen.de,,10
1436,Wilhelm Hämmerle; Destillerie-Freihof GmbH & Co. KG,Vorachstraße 75,A-6890,Lustenau,Österreich,http://www.freihof.com,,10
1437,Wilhelm Kisker GmbH,Kiskerstraße 1,D-33790,Halle (Westf.),Deutschland,http://www.kisker-brennereien.de,,10
1438,Wilhelm Reuschling GmbH,Gießener Straße 26,D-61118,Bad Vilbel,Deutschland,,,10
1439,Willi Wollbrink KG,Otto-Hahn-Straße 17,D-49593,Bersenbrück,Deutschland,http://www.wollbrink-spirituosen.de,,10
1440,William Grant & Sons Ltd Glenfiddich Distillery,Dufftown,GB-AB55 4DH,Keith,Schottland,http://www.glenfiddich.com,,10
1441,Winkels Getränke Logistik GmbH & Co. Holding KG,Gerhard-Rummler-Straße 1,D-74343,Sachsenheim,Deutschland,http://www.winkels.de,,10
1442,Winkler Bräustüberl GmbH,St.-Martin-Straße 6,D-92355,Lengenfeld (Vogtland),Deutschland,http://www.winkler-braeu.de,,10
1443,Winzer vom Weinsberger Tal eG,Reisacher Straße 5,D-74245,Löwenstein,Deutschland,http://www.weinsbergertal-winzer.de,,10
1444,Winzergenossenschaft Hügelheim e.G.,Basler Straße 12,D-79379,Müllheim,Deutschland,http://www.weinundhof.de,,10
1445,Winzergenossenschaft Kallstadt e.G.,Weinstraße 126,D-67169,Kallstadt,Deutschland,http://shop.wg-kallstadt.de,,10
1446,Winzergenossenschaft Oberbergen eG,Badbergstraße 2,D-79235,Vogtsburg im Kaiserstuhl,Deutschland,http://www.wg-oberbergen.com,,10
1447,Winzergenossenschaft Wolfenweiler eG,Kirchstraße 2,D-79227,Schallstadt,Deutschland,http://www.wg-wolfenweiler.de,,10
1448,Winzerkeller Auggener Schäf eG,Kleinfeldele 1,D-79424,Auggen,Deutschland,http://www.auggener-wein.de,,10
1449,Winzerkeller Hex vom Dasenstein eG,Burgunderplatz 1,D-77876,Kappelrodeck,Deutschland,http://www.dasenstein.de,,10
1450,Winzerkeller Wiesloch,Bögnerweg 3,D-69168,Wiesloch,Deutschland,http://www.winzerkeller-wiesloch.de,,10
1451,Winzerverein Deidesheim eG,Prinz-Rupprecht-Straße 8,D-67146,Deidesheim,Deutschland,http://www.winzervereindeidesheim.de,,10
1452,Winzerverein Hagnau eG,Strandbadstraße 7,D-88709,Hagnau am Bodensee,Deutschland,http://www.hagnauer.de,,10
1453,Winzervereinigung Freyburg-Unstrut eG,Querfurter Straße 10,D-06632,Freyburg (Unstrut),Deutschland,http://www.winzervereinigung-freyburg.de,,10
1454,Wittenseer Quelle Mineralbrunnen GmbH,Mühlenstraße 29,D-24361,Groß Wittensee,Deutschland,http://www.wittenseer.de,,10
1455,Wolfgang Picht -Harzer Grubenlicht--Likörfabrik,Dr.-Bodo-Otto-Straße 2,D-37431,Bad Lauterberg im Harz,Deutschland,http://www.harzweb.de,,10
1456,Wolfra Bayrische Natursaft Kelterei GmbH,Justus-von-Liebig-Straße 8,D-85435,Erding,Deutschland,http://www.wolfra.de,,10
1457,Wollbrink GmbH & Co. KG,Otto-Hahn-Straße 17-21,D-49593,Bersenbrück,Deutschland,http://www.wollbrink-spirituosen.de,,10
1458,Wörsinger Mineralbrunnen GmbH,Gansäcker 12,D-74321,Bietigheim-Bissingen,Deutschland,http://www.woersinger-quelle.de,,10
1459,Wünnenberger Kräutermanufaktur,Mittelstraße 33,D-33181,Bad Wünnenberg,Deutschland,http://www.maikaefer-flugbenzin.de,,10
1460,Württembergische Weingärtner-Zentralgenossenschaft eG,Raiffeisenstraße 2,D-71696,Möglingen,Deutschland,http://www.wzg-weine.de,,10
1461,Würzburger Hofbräu AG,Höchberger Straße 28,D-97082,Würzburg,Deutschland,http://www.wuerzburger-hofbraeu.de,,10
1462,Wüteria Mineralquellen GmbH & Co. KG,Schlossgartenstraße 2,D-75050,Gemmingen,Deutschland,http://www.wueteria.de,,10
1463,WVG Wein-Vertriebs-Gesellschaft eG,Lennacher Straße 25,D-74246,Eberstadt,Deutschland,,,10
1464,Wychwood Brewery,10-12; Eagle Maltings; Eagle Industrial Estate; The Crofts,GB-OX28 4DP,Witney,Vereintes Königreich,https://www.wychwood.co.uk/,,10
1465,Zentrale Handelsgesellschaft - ZHG - mbH,Hanns-Martin-Schleyer-Straße 2,D-77656,Offenburg,Deutschland,http://www.handelsmarken-gmbh.de,,10
1466,Zilch Getränkehandel e.K.,Germaniastraße 2,D-63073,Offenbach am Main,Deutschland,http://www.zilch-getraenke.de,,10
1467,Zimmermann-Graeff & Müller GmbH; Weinkellerei,Barlstraße 35,D-56856,Zell (Mosel),Deutschland,http://www.zgm.de,,10
1468,Zwiefalter Klosterbräu GmbH & Co. KG,Hauptstraße 24,D-88529,Zwiefalten,Deutschland,http://www.zwiefalter.de,,10
1469,Lömmelömm,Gottesweg 14,D-50969,Köln,Deutschland,http://www.loemmeloemm.de,,10
1470,Proviant Fruchtmanufaktur GmbH & Co. KG,Wolfener Str. 36,D-12681,Berlin,Deutschland,https://www.proviant-limo.de/,,10
1471,EDEKA ZENTRALE AG & Co. KG,New-York-Ring 6,D-22297,Hamburg,Deutschland,https://www.edeka.de/,,10
1472,METRO Deutschland GmbH,Metro-Straße 8,D-40235,Düsseldorf,Deutschland,https://www.metro.de/,,10
1473,REWE Markt GmbH,Domstraße 20,D-50668,Köln,Deutschland,https://www.rewe.de/,,10
1474,Dortmunder Hansa-Brauerei GmbH,Steigerstraße 20,D-44145,Dortmund,Deutschland,https://www.hansa-bier.de/,,10
1475,Ellermann-Spiegel,Poststraße 3,D-67483,Kleinfischlingen,Deutschland,http://www.ellermann-spiegel.de/,,10
1476,Wicküler Brauerei GmbH,Steigerstraße 20,D-44145,Dortmund,Deutschland,https://www.wickueler.de/,,10
1477,Viva con Agua Wasser GmbH,Neuer Kamp 32,D-20357,Hamburg,Deutschland,https://www.vivaconagua.org/,,10
1478,57wasser,Mattenbachstr. 71,D-57250,Netphen,Deutschland,https://57wasser.de/home,,10
1479,Weingut Bergdolt-Reif & Nett GmbH & Co. KG,Dudostraße 2,D-67435,Duttweiler/Pfalz,Deutschland,https://www.weingut-brn.de/de/impressum.html,,10
1480,F. Dreesbeimdieke GmbH & Co. KG,Bolbrinkersweg 17,D-33617,Bielefeld,Deutschland,https://www.dreesbeimdieke.com,,10
1481,Valser Mineralquellen GmbH,Camp 519,CH-7132,Vals,Schweiz,https://www.valser.ch/de-CH/,,10
1482,Limoment UG (haftungsbeschränkt),Schuckertstrasse 31,D-33613,Bielefeld,Deutschland,https://limoment.de,,10
1483,BOAR Distillery im Schwarzwald,Breitsodstraße 4,D-77740,Bad Peterstal-Griesbach,Deutschland,https://boargin.de/,,10
1484,Bimmerle KG,Önsbacher Straße 40,D-77855,Achern-Mösbach,Deutschland,http://www.bimmerle.de/de/,,10
1485,Leineweber Beverages GmbH,Hillegosser Straße 92,D-33719,Bielefeld,Deutschland,http://leineweber-bier.com/,,10
1486,HSE GmbH Getränkegroßhandel,Graf-Beust-Allee 11,D-45141,Essen,Deutschland,http://www.hse-essen.de/,,10
1487,K + K Beverage GmbH,Nöllenstraße 11,D-70195,Stuttgart,Deutschland,http://elephant-bay.com/,,10
1488,Tagewerker GmbH,Wilhelm-Mauser-Straße 49i,D-50827,Köln,Deutschland,https://www.kettenfett.net/,,10
1489,acáo GmbH,Schützenhofstr. 3,D-65183,Wiesbaden,Deutschland,https://acao.de/,,10
1490,SCHMITZ Kölsch e.K.,Aachener Straße 28,D-50674,Köln,Deutschland,https://schmitzkoelsch.com/,,10
1491,Obstkelterei Kurt Heide,Markt 18,D-09603,Siebenlehn,Deutschland,https://www.obstkeltereiheide.de/,,10
1492,Wirtz & Wirtz GbR,Ursulagartenstr. 11-15,D-50668,Köln,Deutschland,http://schreckenskammer.com/,,10
1493,Ruppertsberger Weinkeller Hoheburg eG,Hauptstraße 94,D-67152,Ruppertsberg,Deutschland,https://www.ruppertsberger.de/,,10
1494,Weingut Hörner,Hainbachhof,D-76879,Hochstadt,Deutschland,https://www.hoerner-wein.de/,,10
1495,Karl Pfaffmann GmbH & Co. KG,Allmendstraße 1,D-76833,Walsheim,Deutschland,https://www.karl-pfaffmann.de/,,10
1496,Weingut Pfannebecker,Zum Neusatz 14,D-67551,Worms-Pfeddersheim,Deutschland,http://weingutpfannebecker.de/,,10
1497,Einig-Zenzen GmbH & Co. KG,Carl-Friedrich-Benz-Straße 8,D-56759,Kaisersesch,Deutschland,https://www.einig-zenzen.de/,,10
1498,Arienhell GmbH & Co KG,Poll-Vingster-Str. 134,D-51105,Köln,Deutschland,http://www.giesler-brauerei.de/index.html,,10
1499,Trinks GmbH,Im Schleeke 115–116,D-38640,Goslar,Deutschland,https://www.trinks.de/,,10
1500,Gießener Brauerei GmbH & Co. KG,Südhang 14,D-35394,Gießen,Deutschland,https://www.schlammbeiser.de/,,10
1501,Cantina di Castelnuovo del Garda,Via Palazzina 2,IT-37014,Castelnuovo del Garda,Italien,http://www.cantinacastelnuovo.com/,,10
1502,Cantine Francesco Minini,Viale Europa 6,IT-25028,Verolanuova,Italien,http://www.cantineminini.it/,,10
1503,Vinicola Serena srl,Via Camillo Bianchi 1,IT-31015,Conegliano,Italien,https://www.serenawines.it/,,10
1504,Bad Windsheimer Markengetränke GmbH,Bamberger Str. 90,D-91413,Neustadt/Aisch,Deutschland,http://www.windsheimer-markengetraenke.de/,,10
1505,Max Winkler Söhne – Drogerie & Destillation e.K.,Poststraße 14,D-08393,Meerane,Deutschland,http://www.draufgaenger-tropfen.de,,10
1506,Altenburger Destillerie und Liqueurfabrik GmbH,Am Anger 1-2,D-04600,Altenburg,Deutschland,http://www.destillerie.de/index.php/imp/impressum,,10
1507,Skin Gin GmbH,Alter Marktplatz 8,D-21720,Steinkirchen,Deutschland,https://www.skin-gin.com,,10
1508,"Vicentina GmbH & Co. KG, Altonaer Spirituosen Manufaktur",Bahrenfelder Steindamm 2,D-22761,Hamburg,Deutschland,https://www.gin-sul.de/kontakt,,10
1509,CIEMME LIQUORI S.p.A.,Via Gregorcic 28,IT-34170,Gorizia,Italien,http://www.ciemmeliquori.com/prodotti,,10
1510,Felsengartenkellerei Besigheim eG,Am Felsengarten 1,D-74394,Hessigheim,Deutschland,https://felsengartenkellerei.de/start.html,,10
1511,AiLaike Natural Beverages GmbH,Kurt-Schumacher-Straße 41 B,D-55124,Mainz,Deutschland,https://www.ailaike.de,,10
1512,Pfaffenweiler Weinhaus GmbH,Weinstraße 40,D-79292,Pfaffenweiler,Deutschland,https://www.pfaffenweiler-wein.de,,10
1513,Berliner Brandstifter GmbH,Wallstraße 86,D-10179,Berlin,Deutschland,https://www.berlinerbrandstifter.com,,10
1514,MARX Chemnitzer Bier GmbH,Waldenburger Str. 63a,D-09116,Chemnitz,Deutschland,https://www.marx-bier.de,,10
1515,Getränke Pfeifer GmbH,An der Wiesenmühle 8,D-09224,Chemnitz OT Grüna,Deutschland,http://www.getraenke-pfeifer.de/de/,,10
1516,NIEPOORT (VINHOS) S.A.,Rua Cândido dos Reis 679,P-4400-071,Vila Nova de Gaia,Portugal,https://www.niepoort-vinhos.com/de/,,10
1517,Viticoltori Ponte s. r. l.,Via Giuseppe Verdi 50,I-31047,Ponte de Piave,Italien,https://www.ponte1948.it/en/,,10
1518,Bembel Gin,Nordring 1,D-63500,Seligenstadt,Deutschland,https://bembelgin.de,,10
1519,Casa Vinicola Bosco Malera srl,Via Correr 17,I-31040,Salgareda (Treviso),Italien,http://www.boscoviticultori.com/en/,,10
1520,Schlossbrauerei Chemnitz,An der Wiesenmühle 8,D-09224,Chemnitz,Deutschland,http://www.schlossbräu.com/,,10
1521,onstock sales & marketing GmbH,Neusser Straße 291,D-50733,Köln,Deutschland,https://www.ostfrieseneistee.de,,10
1522,Sächsisches Staatsweingut GmbH,Wackerbarthstraße 1,D-01445,Radebeul,Deutschland,https://www.schloss-wackerbarth.de,,10
1523,Wein- und Sektkellerei Wackerbarth GmbH,Wackerbarthstraße 1,D-01445,Radebeul,Deutschland,https://www.schloss-wackerbarth.de,,10
1524,P.J. Valckenberg GmbH,Weckerlingplatz 1,D-67547,Worms am Rhein,Deutschland,https://www.valckenberg.com,,10
1525,Weingut Robert Weil,Mühlberg 5,D-65399,Kiedrich/Rheingau,Deutschland,https://www.weingut-robert-weil.com/de/,,10
1526,Weingut H. J. Ernst,Holzstraße 38-40,D-65343,Eltville am Rhein,Deutschland,http://www.weingut-ernst.de/index.php,,10
1527,Weingut Daniel,Langestraße 38-40,D-65366,Geisenheim,Deutschland,https://www.weingut-daniel.de/home,,10
1528,Weingut Dr. Bürklin-Wolf e. K.,Weinstraße 65,D-67157,Wachenheim,Deutschland,https://www.buerklin-wolf.de/de/home.html,,10
1529,Weingut Geheimer Rat Dr. von Bassermann-Jordan,Kirchgasse 10,D-67146,Deidesheim,Deutschland,https://www.bassermann-jordan.de/,,10
1530,Weinhaus Franz Hahn GmbH & Co. KG,Kirchstraße 16,D-76857,Albersweiler,Deutschland,https://weinhaus-franzhahn.de/v1/,,10
1531,Weingut Rings GbR,Dürkheimer Hohl 21,D-67251,Freinsheim,Deutschland,https://www.weingut-rings.de/de/#!/home,,10
1532,Weingut Wilhelm Anselmann KG,Maxstraße 7-9,D-76835,Flemlingen,Deutschland,http://der-rote-tropfen.de,,10
1533,Weingut Korrell,Parkstraße 4,D-55545,Bad Kreuznach,Deutschland,https://www.korrell.com/#!/de/impressum,,10
1534,Weingut Bäder,Unterwendelsheimer Straße 15,D-55234,Wendelsheim,Deutschland,http://www.weingutbaeder.de,,10
1535,Louis Guntrum Weinkellerei G,Rheinallee 62,D-55283,Nierstein,Deutschland,https://www.guntrum.de,,10
1536,Weingut Karl May,Ludiwg-Schwamb-Straße 22,D-67574,Osthofen,Deutschland,https://www.weingut-karl-may.de/#!/de,,10
1537,Dr. Köhler Wein GmbH,Pfandturmstraße 16,D-67595,Bechtheim,Deutschland,http://dr-koehler-wein.de,,10
1538,Weingut Van Volxem,Zum Schlossberg 347,D-54459,Wiltingen / Saar,Deutschland,https://vanvolxem.com,,10
1539,Weingut Gästehaus Weigand,Lange Gasse 29,D-97346,Iphofen,Deutschland,https://www.weingut-weigand.de/,,10
1540,Borgo Molino Vigne & Vini,Via Negrisia 18,I-31024,Ormelle,Italien,http://www.borgomolino.it,,10
1541,Alois Lageder,Grafengasse 9,I-39040,Magreid,Italien,https://aloislageder.eu,,10
1542,Vignerons Catalans en Roussillon,1970 Avenue Julien Panchot,F-66000,Perpignan,Frankreich,https://www.vigneronscatalans.com/fr/,,10
1543,Francis Ford Coppola Winery,300 Via Archimedes,USA-95441,Geyserville,USA,https://www.francisfordcoppolawinery.com,,10
1544,Banrock Station Wine and Wetland Centre,Holmes Road,AUS-5331,Kingston on Murray,Australien,http://www.banrockstation.com.au,,10
1545,Cloudy Bay Vineyards,230 Jackson Roads,NZ-7240,Blenheim,Neuseeland,https://www.cloudybay.co.nz,,10
1546,Weingut Lauermann und Weyer,Leininger Ring 79,D-67278,Bockenheim/Weinstraße,Deutschland,https://www.lauermannundweyer.de,,10
1547,Cà Maiol,Via Colli Storici 119,I-25015,Desenzano del Garda,Italien,https://www.camaiol.it,,10
1548,Vini Campagnola dal 1907,Agnella 9,I-37020,Marano di Valpolicella,Italien,http://www.campagnola.com,,10
1549,Castelli del Grevepesa s. c. a.,Via Gabbiano 34,I-50026,San Casciano Val di Pesa,Italien,https://www.castellidelgrevepesa.it,,10
1550,Tenuta di Sesta Di Ciacci Giovanni,Localita' Tenuta di Sesta 25,I-53024,Montalcino,Italien,http://www.tenutadisesta.it,,10
1551,Bodegas Muga,Avda. Vizcaya,SP-26200,Haro (La Rioja),Spanien,https://www.bodegasmuga.com,,10
1552,Finca Can Axartell S.L.,,SP-07460,Pollença,Spanien,https://www.canaxartell.com,,10
1553,Château Lafite Rothschild,,F-33250,Pauillac,Frankreich,http://www.lafite.com,,10
1554,Bodegas Salentein,Vedia 3892,ARG-430DAL,Buenos Aires,Argentinien,https://bodegasalentein.com/en/home.html,,10
1555,Bodegas Báron de Ley,,SP-31587,Mendavia,Spanien,http://www.barondeley.com/de,,10
1556,Bersano Vini Srl,Piazza Dante 21,I-14049,Nizza Monferrate,Italien,http://www.bersano.it,,10
1557,Sekt- und Weingut Winterling GbR,Im Brühl 15,D-67150,Niederkirchen,Deutschland,https://www.winterling-sekt.de/,,10
1558,Weingut Hensel,In den Almen 13,D-67098,Bad Dürkheim,Deutschland,http://www.henselwein.de,,10
1559,Weingut Markus Schneider,Am Hohen Weg 1,D-67158,Ellerstadt,Deutschland,https://black-print.net,,10
1560,Klaus Schneider - Weingut Jesuitenhof,Obertor 4,D-67246,Dirmstein,Deutschland,http://www.jesuitenhof.de,,10
1561,Weingut Philipp Kuhn,Großkarlbacher Str. 20,D-67229,Laumersheim/Pfalz,Deutschland,https://www.weingut-philipp-kuhn.de/altersabfrage.html,,10
1562,Château Schembs,Herrnsheimer Hauptstraße 1,D-67550,Worms,Deutschland,http://www.chateau-schembs.de/schembs/home.php,,10
1563,Drostdy-Hof,Winterhoek Road,SA-6820,Tulbagh,Südafrika,https://drostdyhof.com,,10
1564,Bodegas Pastor Diaz,Avda. Gonzalo de Berceo,SP-26559,Aldeanueva de Ebro,Spanien,http://www.pastordiaz.com,,10
1565,Wineforces S.A.R.L.,5 chemin de l'île de Houat,FR-56610,Arradon,Frankreich,http://www.tussockjumperwines.com/our-wines/malbec/,,10
1566,Castello Banfi,Poggio alle Mura,I-53024,Montalcino (Siena),Italien,https://castellobanfi.com/en/,,10
1567,Rheinland Distillers GmbH,Mozartstraße 24,D-53115,Bonn,Deutschland,https://www.siegfriedgin.com,,10
1568,Renzo Masi & C. Sas Fattoria di Basciano,Viale Duca Della Vittoria 159,I-50068,Rufina (Firenze),Italien,https://www.renzomasibasciano.it/default.asp,,10
1569,Leev GmbH,Schulterblatt 3,D-20357,Hamburg,Deutschland,https://www.leev.hamburg,,10
1570,Meiredes & Meiredes da Cunha,Rua Cândido dos Reis 574,P-4400-075,Vila Nova de Gaia,Portugal,https://www.quintadalixa.pt,,10
1571,Frankfurter Brauunion GmbH,Ostparkstraße 11,D-60314,Frankfurt am Main,Deutschland,https://www.helles.de,,10
1572,Wachtenburg Winzer eG,Weinstraße 2,D-67157,Wachtenberg,Deutschland,https://www.wachtenburg-winzer.de,,10
1573,"Bodegas Leza Garcia, S.L.",C/San Ignacio 26,SP-26313,Urunuela,Spanien,http://bodegasleza.com/v2/es/,,10
1574,Vina Herminia,Camino de los Agudos 1,SP-26559,Aldeanueva de Ebro,Spanien,https://xn--viaherminia-2db.es/en/,,10
1575,Winzergenossenschaft Bischoffingen-Endingen am Kaiserstuhl eG,Bacchusstraße 20,D-79235,Vogtsburg-Bischoffingen,Deutschland,https://www.wg-bischoffingen.de,,10
1576,Whisky Spirits,Wallstraße 23,D-60593,Frankfurt am Main,Deutschland,http://www.gin-sieben.de/#allg,,10
1577,"Halewood Wines & Spirits,The Sovereign Distillery",Wilson Road,E-L36 6AD,Liverpool,England,https://halewood-int.com,,10
1578,OSA Fine Spirits,"Unit 7, Mill Place",E-TN15 8FD,St. Mary's Platt,England,http://www.osawhisky.com,,10
1579,NORK GbR,Kreuzstraße 87,D-28203,Bremen,Deutschland,https://www.thisisnork.com,,10
1580,schmeckt GmbH,Neuer Kamp 21,D-20359,Hamburg,Deutschland,https://www.communitycola.com,,10
1581,Richard's Sun Iced Tea GmbH,Wolfener Straße 36,D-12681,Berlin,Deutschland,https://www.richardssun-icedtea.de,,10
1582,Czernys Küstenbrauerei,Deichweg 20,D-24159,Kiel,Deutschland,https://czernys-kuestenbrauerei.de/kuestenbrauerei/,,10
1583,Vereinigte Weingüter Schittler & Becker GbR,Hahnheimer Straße 30,D-55270,Zornheim,Deutschland,https://www.schittler-becker.de/de,,10
1584,climaid GmbH,Deller Straße 49,D-42781,Hahn,Deutschland,https://climaid.de,,10
1585,lillebräu GmbH,Eichkamp 9c,D-24116,Kiel,Deutschland,https://lillebraeu.de,,10
1586,"Weinhandel Oskar Jülg, Inh. Johannes Jülg",Hauptstraße 1,D-76889,Schweigen-Rechtenbach,Deutschland,https://www.weingut-juelg.de/#!/de,,10
1587,share GmbH,Erkelenzdamm 59-61,D-10999,Berlin,Deutschland,https://www.share.eu,,10
1588,Vignerons de 4 Chemins,RD 6086,F-30290,Laudun,Frankreich,https://vignerons4chemins.com/en/,,10
1589,Kalbus & Schmidt Getränkevertriebs GmbH,Wupperstraße 10,D-14167,Berlin,Deutschland,http://gute-getraenke.de,,10
1590,Privatbrauerei Metzler,An der Klinge 1,D-98646,Dingsleben,Deutschland,https://www.dingslebener.de/,,10
1591,Streuobstwiesen Manufaktur GmbH,Moosdorfstraße 7-9,D-12435,Berlin,Deutschland,https://ostmost.berlin,,10
1592,mölle Trinken e. K.,Hauptstraße 66,D-86750,Megesheim,Deutschland,http://www.moelletrinken.de,,10
1593,Ammersee Getränke GmbH,Seeblickstraße 57,D-82211,Breitbrunn am Ammersee,Deutschland,https://natuerlich.bayern,,10
1594,Starnberger Brauhaus GmbH,Am Hohenrand 24,D-82335,Berg,Deutschland,https://www.brauerei.bayern,,10
1595,"amperbräu Bachhuber, Böswirth, Eberl, Gall & Schmid GbR",Hochstattweg 2,D-85232,Neuhimmelreich,Deutschland,http://www.amperbraeu.de,,10
1596,Az. Agr. Cà dei Frati,"Via Frati, 22",I-25019,Lugana di Sirmione (BS),Italien,https://cadeifrati.it/de/,,10
1597,Casa Vinicola Botter,Via Cadorna Luigi 17,I-30020,Fossalta di Piave,Italien,https://www.botter.it,,10
1598,Azienda Agricola Bulgarini Fausto,"Loc. Vaìbo, 1",I-25010,Pozzolengo (BS),Italien,https://www.vini-bulgarini.com,,10
1599,Pasini San Giovanni,"Via Videlle, 2",I-25080,Raffa di Puegnago,Italien,http://www.pasinisangiovanni.it/de/,,10
1600,Contri Spumanti,"Via Legnaghi Corradini, 30A",I-37030,Cazzano di Tramigna VR,Italien,https://www.contrispumanti.com/en,,10
1601,Mezzacorona,"Via del Teroldego, 1/E",I-38016,Mezzocorona,Italien,https://www.mezzacorona.it/de,,10
1602,Zenato Azienda Vitivinicola S.r.l.,"Via San Benedetto, 8",I-37019,Peschiera del Garda (VR),Italien,https://www.zenato.it/it/contatti.html,,10
1603,Weingüter Heitlinger & Burg Ravensburh GmbH,Am Mühlberg 3,D-76684,Östringen-Tiefenbach,Deutschland,https://www.weingut-heitlinger.de/?weingalerie/uebersicht,,10
1604,Weingut Crass,Taunusstraße 2,D-63546,Erbach/Rheingau,Deutschland,http://www.weingut-crass.de,,10
1605,Winzer Krems eG,Sandgrube 13,Ö-3500,Krems an der Donau,Österreich,https://www.winzerkrems.at,,10
1606,Château de Miraval,Miraval,F-83570,Correns,Frankreich,https://www.miraval.com/en/home/,,10
1607,Domaine de la Baume,RN9 - Route de Pezenas,F-34290,Servian,Frankreich,http://www.domaine-labaume.com/en/home.html,,10
1608,Félix Sólis Avantis S.A,Autoviá del Sur km 199,S-13300,Valdepeñas,Spanien,https://felixsolisavantis.com/de/winery/weinkellerei-in-valdepenas/,,10
1609,Captain Cook Wines,55 Mirrool Avenue,AUS-2681,Yenda,Australien,https://captaincookwines.com.au,,10
1610,VALDO Spumanti srl,Via Ford Boario 20,I-31049,Valdobbiadene,Italien,https://www.valdo.com/de/,,10
1611,Champagne Taittinger,9 place Saint-Nicaise,F-51100,Reims,Frankreich,https://www.taittinger.com,,10
1612,Muggenthaler & Steglich GbR,Otto-Hahn-Str. 26,D-85521,Hohenbrunn,Deutschland,https://www.theillusionist-gin.com/de/home,,10
1613,Feine Sachen / Eierlikörz,Brühl 48,D-09111,Chemnitz,Deutschland,https://www.eierlikoerz.de,,10
1614,EIZBACH Getränke GmbH,Steinheilstraße 20,D-80333,München,Deutschland,https://eizbach.de,,10
1615,Sachsengold Getränke-Vertriebs GmbH,Talstraße 2,D-08066,Zwickau,Deutschland,http://www.sachsengold-bier.de/portal.html,,10
1616,Alcohol Siberian Group Ltd.,Presnenskaya nab. 6/2,R-123112,Moskau,Russland,https://www.asg.ru/en/,,10
1617,Carlsberg Italia,via Ramazzotti 12,I-20045,Lainate,Italien,https://carlsbergitalia.it,,10
1618,Familienbrauerei Rogg KG,Bonndorferstraße 61,D-79853,Lenzkirch/Schwarzwald,Deutschland,https://www.brauerei-rogg.de/,,10
1619,Carlow Brewing Company,Royal Oak Road,IR-,Bagenalstown,Irland,https://www.carlowbrewing.com,,10
1620,H. Weston & Sons Ltd.,The Bounds,GB-,Ledbury,England,https://www.westons-cider.co.uk,,10
1621,Tilmans Biere,Thalkircher Str. 53,D-80337,München,Deutschland,https://www.tilmansbiere.de,,10
1622,Blanchet GmbH,Matheus-Müller-Platz 1,D-65343,Eltville/Rhein,Deutschland,https://www.blanchet.de,,10
1623,Château de Birot,8 Birot,F-33410,Beguey,Frankreich,https://chateau-birot.com,,10
1624,Livio Felluga,Via Risorgimento 1,I-,Brazzano di Cormons,Italien,http://www.liviofelluga.it,,10
1625,Getränkeland Heidebrecht GmbH & Co. KG,Hauptstraße 103a,D-18107,Elmenhorst,Deutschland,https://www.getraenkeland.com,,10
1626,Karlsbad Mineralwasser GmbH,Mittelstraße 9,D-12529,Schönefeld,Deutschland,https://www.magnesiawasser.de,,10
1627,Ferrand Deutschland GmbH,Sundernallee 76,D-58636,Iserlohn,Deutschland,https://www.ferrand-spirits.de/Startseite,,10
1628,Satower Mosterei - Peters OHG,An der Mosterei 1,D-18239,Satow,Deutschland,https://www.satower-mosterei.de,,10
1629,Reinders Weinimport,Wupperstraße 10,D-14167,Berlin,Deutschland,https://reindersweinimport.de,,10
1630,Lions Vertriebsgesellschaft mbH,Landshuter Str. 18,D-85716,Unterschleißheim,Deutschland,http://www.lions-energizer.de,,10
1631,AH Weinhandel GmbH,Altstedder Grenze 4,D-49477,Ibbenbüren,Deutschland,https://www.andreasheider.de,,10
1632,Orterer Getränkemärkte GmbH,Landshuter Str. 10,D-85716,Unterschleißheim,Deutschland,https://www.orterer.de,,10
1633,CSR Cidrerie,L'Aiguillon,F-61260,Val-au-Perche,Frankreich,,,10
1634,Smargy GmbH,Clemens-Schultz-Str.3,D-20359,Hamburg,Deutschland,,,10
1635,Cantina San Marzano,Via Monsignor Bello 9,I-74020,San Marzano di San Giuseppe,Italien,https://www.sanmarzanowines.com/it/,,10
1636,Beverage Network Nationale Getränkelösungen GmbH,Zur Aumundswiese 19,D-28279,Bremen,Deutschland,,,10
1637,Rheinsberger Preussenquelle GmbH,Zur Preussenquelle 5,D-16831,Rheinsberg,Deutschland,https://www.preussenquelle.de/#1,,10
1638,zickzack GmbH,Buchenstraße 12,D-0197,Dresden,Deutschland,https://kolle-mate.de,,10
1639,AMGO Beverages,"Blb B, 2nd Floor, Ruisseau Creole Offices",,La Mivoie,Mauritius,https://amgobev.com/,,10
1640,Irseer Klosterbräu,Klosterring 1-3,D-87660,Irsee/Allgäu,Deutschland,https://irsee.com/index.php?lang=de,,10
1641,Jung Fruchtsäfte GbR,Goethestr. 18,D-79331,Teningen,Deutschland,https://www.jung-saefte.net,,10
1642,CEDC International Sp. z o.o,Kowanowska 48,P-64-600,Oborniki,Polen,https://www.cedc.com,,10
1643,Privatbrennerei Unterthurner GmbH,A.-Pattis-Straße 14,I-39020,Marling,Italien,https://www.unterthurner.de,,10
1644,Andreas Werner,Waisenhofstraße 11,D-24103,Kiel,Deutschland,https://spitzmund.com,,10
1645,Kammann Raoul und Kammann Max GbR,Keßlerstraße 9,D-60431,Frankfurt am Main,Deutschland,https://jumatea.eu,,10
1646,Schinner Vertriebs GmbH & Co. KG,Richard-Wagner-Str. 38,D-95444,Bayreuth,Deutschland,http://www.schinner-bier.de/kontakt-schinner.html,,10
1647,DTS & W GmbH,Gewerbepark BWB 19,D-83052,Bruckmühl,Deutschland,https://www.botucal.de,,10
1648,Gonzáles Byass,21 Planta 6,SP-28014,Madrid,Spanien,https://www.gonzalezbyassusa.com/brand/the-london-no1/,,10
1649,Hamburg Distilling Company HDC GmbH,Hammer Deich 70,D-20537,Hamburg,Deutschland,https://www.knuthansengin.de,,10
1650,30° Merchandising GmbH,Niedersedlitzer Straße 75,D-01257,Dresden,Deutschland,https://www.karneval-vodka.shop,,10
1651,Distilleria Caffo,Via Grigna 9,I-20155,Mailand,Deutschland,https://www.caffo.com,,10
1652,FJU GmbH,Mühlenweg 60,D-26209,Hatten,Deutschland,https://drinkfju.de,,10
1653,Granite Rock Distillery GmbH,Joachm-Friedrich-Straße 10a,D-10711,Berlin,Deutschland,https://www.9mile-vodka.com,,10
1654,Schenk GmbH,Alemannenstr. 33,D-76532,Baden-Baden,Deutschland,https://www.schenk-weine.de/,,10
1655,Kessler-Zink GmbH,An der Dohlmühle 3,D-55237,Flonheim/Rhh,Deutschland,https://www.kessler-zink.de,,10
1656,SERENA WINES 1881 S.R.L. a socio unico,,I-31015,Conegliano,Italien,https://www.serenello.it/,,10
1657,HOLY Drinks GmbH,Otto-Koke-Weg 3,D-30938,Burgwedel,Deutschland,https://holy-drinks.com,,10
1658,Weingut Uli Metzger,Langgasse 32,D-67269,Grünstadt,Deutschland,https://www.weinmetzger.de,,10
1659,Taunus-Gin GmbH,Kastanienweg 14,D-61440,Oberursel,Deutschland,https://taunus-gin.com,,10
1660,Weinhaus Heger OHG,Bachenstr. 21,D-79241,Ihringen,Deutschland,https://www.heger-weine.de/,,10
1661,SODA LIBRE GmbH,Wandsbeker Chaussee 48,D-22089,Hamburg-Eilbek,Deutschland,https://www.sodalibre.com,,10
1662,Distilleria Marzadro,Via Per Brancolini 10,I-38060,Nogaredo (Trento),Italien,https://www.marzadro.it/deu/,,10
1663,Ernst F. Ullmann e.K.,Oberdorf 45,D-09496,Marienburg OT Lauterbach,Deutschland,https://www.lauterbacher-tropfen.de,,10
1664,Fischer & Bunge Edelbrände GbR,Christian-Grunert-Str. 2,D-04288,Leipzig,Deutschland,https://brotschnaps.com,,10
1665,Bodegas Nuviana,Carretera A-1241 Zaidín Tamarite 11km,SP-22549,Aragón,Spanien,http://www.nuviana.com,,10
1666,Treasury Wine Estates Limited,161 Collins Street,AU-3000,Melbourne,Australien,https://www.tweglobal.com,,10
1667,Marchesi Antinori S.p.A,Piazza Antinori 3,I-50124,Florenz,Italien,https://www.antinori.it/de/,,10
1668,Spier Wine Farm ,R310 Stellenbosch,SA-R310,Stellenbosch,Südafrika,https://www.spier.co.za,,10
1669,Pasqua Vigneti E Cantine Spa,Via Belvedere 135,I-37121,Verona,Italien,https://www.pasqua.it/it/home/,,10
1670,Weingut Schumann-Nägler,Nothgottesstraße 29,D-65366,Geisenheim,Deutschland,https://www.schumann-naegler.de,,10
1671,Weinhaus Brogsitter,Max-Planck-Straße 1,D-53501,Grafschaft-Gelsdorf,Deutschland,https://www.brogsitter.de,,10
1672,Klosterbrauerei Furth,Am Klosterberg 5,D-84095,Furth bei Landshut,Deutschland,https://www.klosterbrauerei-furth.de,,10
1673,SSG Trading ,Fellerstraße 12,D-42555,Velbert,Deutschland,https://ssg-trading.de,,10
1674,Five Lakes Cyprus Ltd.,16 Stasikratous Street,C-1065,Nikosia,Zypern,,,10
1675,Château Simone ,Chemin de la Simone,F-13590,Meyreuil,Frankreich,https://chateau-simone.fr/en/,,10
1676,Agricola Societa´Cooperativa,Via Cesarea sn,I-73045,Leverano,Italien,,,10
1677,Weinhaus Aaron,Weinstraße,D-79241,Ihringen,Deutschland,,,10
1678,Antonini e Co.S.r.l.,Via Giuseppe Ungaretti 4,I-64013,Corropoli,Italien,https://www.antonini.srl,,10
1679,Vinco Import GmbH,Jakobstraße 8,D-54290,Trier,Deutschland,https://www.monin-shop.de,,10
1680,Weingut Abril,Am Enselberg 1,D-79235,Vogtsburg im Kaiserstuhl,Deutschland,https://weingut-abril.de,,10
1681,CUPF GmbH,Poststraße 3,D-67483,Kleinfischlingen,Deutschland,https://werner-wermut.de,,10
1682,Shed Distillery,Carrick on Shannon Road,,Drumshanbo Co. Leitrim,Irland,https://www.thesheddistillery.com,,10
1683,Teeling Whiskey,13-17 Newmarket,,Dublin,Irland,https://www.teelingwhiskey.com,,10
1684,"Cognac Guy Lheraud, Domaine de Lasdoux",Lasdoux,F-16120,Angeac,Frankreich,,,10
1685,Elephant Bay GmbH,Birkenwaldstr. 214,D-70191,Stuttgart,Deutschland,https://www.elephant-bay.com/,,10
1686,Elbler GmbH,Großer Burstah 36,D-20457,Hamburg,Deutschland,https://elbler.de/,,10
1687,Bremer Ratskeller Weinhandel,Findorffstraße 101,D-28215,Bremen,Deutschland,https://www.ratskeller.de/,,10
1688,Weingut Schreiber,Johanneshof 2,D-65239,Hochheim am Main,Deutschland,https://weingut-schreiber.de,,10
1689,Fevertree Germany Limited,186-188 Shepherds Bush Road,W6 7NL,London W6 7NL,England,https://fever-tree.com/en_GB,,10